{
"type": "FeatureCollection",
"name": "AOI_17",
"crs": { "type": "name", "properties": { "name": "urn:ogc:def:crs:EPSG::2955" } },
"features": [
{ "type": "Feature", "properties": { "fid": 1, "layer": "-archeological areas", "approved_f": true, "AOP number": 1, "AOI_STATUS": "Cleared" }, "geometry": { "type": "MultiPolygon", "coordinates": [ [ [ [ 332439.097726903914008, 5536435.570555153302848 ], [ 332443.745761864818633, 5536454.34487899299711 ], [ 332449.843240176385734, 5536440.601712456904352 ], [ 332457.803221252805088, 5536417.183948053047061 ], [ 332453.150931957177818, 5536396.459225224331021 ], [ 332458.867062141187489, 5536377.134213732555509 ], [ 332437.061368835216854, 5536383.062608690932393 ], [ 332425.235923564992845, 5536400.915522189810872 ], [ 332426.782681712880731, 5536428.150698331184685 ], [ 332439.097726903914008, 5536435.570555153302848 ] ] ] ] } },
{ "type": "Feature", "properties": { "fid": 2, "layer": "-archeological areas", "approved_f": false, "AOP number": 2, "AOI_STATUS": "Not Cleared" }, "geometry": { "type": "MultiPolygon", "coordinates": [ [ [ [ 332594.14596672449261, 5536796.46247608307749 ], [ 332571.447435038222466, 5536804.963907586410642 ], [ 332585.006249787285924, 5536825.638588534668088 ], [ 332599.850515492318664, 5536819.405614219605923 ], [ 332594.14596672449261, 5536796.46247608307749 ] ] ] ] } },
{ "type": "Feature", "properties": { "fid": 3, "layer": "-archeological areas", "approved_f": false, "AOP number": 3, "AOI_STATUS": "Not Cleared" }, "geometry": { "type": "MultiPolygon", "coordinates": [ [ [ [ 332577.487567595322616, 5536878.436051851138473 ], [ 332590.149462997971568, 5536906.985563622787595 ], [ 332601.319006020203233, 5536893.474603594280779 ], [ 332595.905033035203815, 5536877.970990234985948 ], [ 332581.93159382318845, 5536872.811712315306067 ], [ 332577.487567595322616, 5536878.436051851138473 ] ] ] ] } },
{ "type": "Feature", "properties": { "fid": 4, "layer": "-archeological areas", "approved_f": false, "AOP number": 4, "AOI_STATUS": "Not Cleared" }, "geometry": { "type": "MultiPolygon", "coordinates": [ [ [ [ 332649.732234352326486, 5536888.00109080504626 ], [ 332636.929917246103287, 5536897.090544528327882 ], [ 332644.715061584487557, 5536913.026051485911012 ], [ 332663.65054495917866, 5536912.195488470606506 ], [ 332670.290279293491039, 5536899.55047254357487 ], [ 332670.693032000213861, 5536885.012155078351498 ], [ 332666.526156332402024, 5536871.78066498041153 ], [ 332649.732234352326486, 5536888.00109080504626 ] ] ] ] } },
{ "type": "Feature", "properties": { "fid": 5, "layer": "-archeological areas", "approved_f": true, "AOP number": 5, "AOI_STATUS": "Cleared" }, "geometry": { "type": "MultiPolygon", "coordinates": [ [ [ [ 332827.040631167590618, 5536819.8532694298774 ], [ 332824.560531422495842, 5536824.377875255420804 ], [ 332836.282339040189981, 5536826.881834235973656 ], [ 332851.465681119821966, 5536816.558370080776513 ], [ 332848.924315565323923, 5536806.291883636265993 ], [ 332839.261584126390517, 5536811.049940954893827 ], [ 332827.040631167590618, 5536819.8532694298774 ] ] ] ] } },
{ "type": "Feature", "properties": { "fid": 6, "layer": "-archeological areas", "approved_f": true, "AOP number": 6, "AOI_STATUS": "Cleared" }, "geometry": { "type": "MultiPolygon", "coordinates": [ [ [ [ 332827.31253048038343, 5536765.009187462739646 ], [ 332834.484017269685864, 5536758.073827682062984 ], [ 332839.492188862583134, 5536747.328585103154182 ], [ 332860.133857568725944, 5536705.898186082951725 ], [ 332858.762454750889447, 5536689.582991071045399 ], [ 332843.47858810890466, 5536709.984208454377949 ], [ 332837.670227941183839, 5536724.393180674873292 ], [ 332830.122454691678286, 5536725.748676843009889 ], [ 332822.036614765413105, 5536731.537157562561333 ], [ 332814.087669878324959, 5536739.369192550890148 ], [ 332805.968240073882043, 5536740.517652473412454 ], [ 332793.890134057088289, 5536751.141758023761213 ], [ 332797.103162812127266, 5536765.859977994114161 ], [ 332813.233789578080177, 5536766.436843203380704 ], [ 332827.31253048038343, 5536765.009187462739646 ] ] ] ] } },
{ "type": "Feature", "properties": { "fid": 7, "layer": "-archeological areas", "approved_f": false, "AOP number": 8, "AOI_STATUS": "Not Cleared" }, "geometry": { "type": "MultiPolygon", "coordinates": [ [ [ [ 332681.693836588412523, 5536333.019417187198997 ], [ 332683.482300974486861, 5536331.843833615072072 ], [ 332674.676350824476685, 5536315.884695490822196 ], [ 332667.192683340108488, 5536322.190112298354506 ], [ 332672.541998585686088, 5536329.651735663414001 ], [ 332681.693836588412523, 5536333.019417187198997 ] ] ] ] } },
{ "type": "Feature", "properties": { "fid": 8, "layer": "-archeological areas", "approved_f": true, "AOP number": 9, "AOI_STATUS": "Cleared" }, "geometry": { "type": "MultiPolygon", "coordinates": [ [ [ [ 332549.005491401127074, 5536303.196354728192091 ], [ 332565.459495355375111, 5536302.831557491794229 ], [ 332573.974073271325324, 5536298.967347382567823 ], [ 332576.715352420695126, 5536288.102854363620281 ], [ 332559.465728003473487, 5536287.715538939461112 ], [ 332549.005491401127074, 5536303.196354728192091 ] ] ] ] } },
{ "type": "Feature", "properties": { "fid": 9, "layer": "-archeological areas", "approved_f": false, "AOP number": 7, "AOI_STATUS": "Not Cleared" }, "geometry": { "type": "MultiPolygon", "coordinates": [ [ [ [ 332821.91473400592804, 5536621.531947310082614 ], [ 332819.541045415273402, 5536597.199036506935954 ], [ 332813.678677244228311, 5536572.824567224830389 ], [ 332797.931847211904824, 5536563.706467550247908 ], [ 332795.790691711998079, 5536589.830802690237761 ], [ 332790.111300243996084, 5536594.130814857780933 ], [ 332788.516696194186807, 5536599.065968208014965 ], [ 332786.628938778303564, 5536609.732748781330884 ], [ 332790.58819380128989, 5536638.664365145377815 ], [ 332811.718523565679789, 5536636.416564381681383 ], [ 332821.91473400592804, 5536621.531947310082614 ] ] ] ] } }
]
}
