{
"type": "FeatureCollection",
"name": "BA_15",
"crs": { "type": "name", "properties": { "name": "urn:ogc:def:crs:EPSG::2955" } },
"features": [
{ "type": "Feature", "properties": { "fid": 1.0, "Text": null, "LOT_ID": 8.0, "area_m2": 2143.0142948217635, "ESA1_pct": 0.0, "ESA2_pct": 99.99, "ESA3_pct": 0.0, "ESA4_pct": 0.0, "pct_LOT": 0.052752280099286002, "area": 2143.0142948217635, "mean_slp": 10.54, "max_slp": 27.95, "p95_slp": 17.25, "slp_count": 2143 }, "geometry": { "type": "MultiPolygon", "coordinates": [ [ [ [ 332713.29435633844696, 5536437.76481191907078 ], [ 332681.115177589294035, 5536435.137940191663802 ], [ 332677.265778566827066, 5536478.325862101279199 ], [ 332686.279443618841469, 5536496.916546272113919 ], [ 332708.546754322887864, 5536496.115990494377911 ], [ 332725.358425653306767, 5536463.826907461509109 ], [ 332713.29435633844696, 5536437.76481191907078 ] ], [ [ 332695.369753507198766, 5536466.557124052196741 ], [ 332695.254726997634862, 5536466.556120230816305 ], [ 332695.139735526230652, 5536466.553109073080122 ], [ 332695.024814120552037, 5536466.54809149634093 ], [ 332694.909997786744498, 5536466.541069028899074 ], [ 332694.795321498997509, 5536466.532043809071183 ], [ 332694.680820188776124, 5536466.521018587052822 ], [ 332694.566528734343592, 5536466.507996720261872 ], [ 332694.452481949992944, 5536466.4929821761325 ], [ 332694.338714575394988, 5536466.475979528389871 ], [ 332694.22526126523735, 5536466.4569939551875 ], [ 332694.112156578514259, 5536466.436031240969896 ], [ 332693.999434967990965, 5536466.41309776995331 ], [ 332693.887130769784562, 5536466.388200528919697 ], [ 332693.775278192828409, 5536466.361347100697458 ], [ 332693.66391130851116, 5536466.332545666024089 ], [ 332693.553064040199388, 5536466.301804997958243 ], [ 332693.442770153167658, 5536466.269134460017085 ], [ 332693.333063243888319, 5536466.234544004313648 ], [ 332693.223976730194408, 5536466.19804416783154 ], [ 332693.11554384091869, 5536466.159646067768335 ], [ 332693.00779760570731, 5536466.119361401535571 ], [ 332692.900770845182706, 5536466.077202439308167 ], [ 332692.794496160699055, 5536466.033182023093104 ], [ 332692.689005924505182, 5536465.987313563004136 ], [ 332692.584332270023879, 5536465.939611030742526 ], [ 332692.480507081840187, 5536465.890088955871761 ], [ 332692.377561986097135, 5536465.838762424886227 ], [ 332692.275528340833262, 5536465.785647070966661 ], [ 332692.17443722661119, 5536465.730759073980153 ], [ 332692.074319436622318, 5536465.674115153960884 ], [ 332691.975205467781052, 5536465.615732564590871 ], [ 332691.877125511178747, 5536465.555629090406001 ], [ 332691.780109442886896, 5536465.493823038414121 ], [ 332691.684186814934947, 5536465.430333235301077 ], [ 332691.589386846346315, 5536465.365179021842778 ], [ 332691.495738414057996, 5536465.298380244523287 ], [ 332691.40327004424762, 5536465.229957249946892 ], [ 332691.312009903718717, 5536465.159930882044137 ], [ 332691.221985791285988, 5536465.088322469033301 ], [ 332691.133225128985941, 5536465.015153825283051 ], [ 332691.04575495433528, 5536464.940447239205241 ], [ 332690.959601911483333, 5536464.864225464873016 ], [ 332690.874792243586853, 5536464.786511722952127 ], [ 332690.791351784369908, 5536464.707329683937132 ], [ 332690.709305950673297, 5536464.626703467220068 ], [ 332690.628679734480102, 5536464.544657633639872 ], [ 332690.549497695290484, 5536464.461217174306512 ], [ 332690.471783952729311, 5536464.376407506875694 ], [ 332690.395562179095577, 5536464.29025446344167 ], [ 332690.320855592377484, 5536464.202784288674593 ], [ 332690.247686948860064, 5536464.114023626782 ], [ 332690.176078536373097, 5536464.023999514058232 ], [ 332690.106052167655434, 5536463.932739373296499 ], [ 332690.037629173370078, 5536463.840271003544331 ], [ 332689.970830395759549, 5536463.746622571721673 ], [ 332689.905676182475872, 5536463.651822603307664 ], [ 332689.842186380061321, 5536463.555899974890053 ], [ 332689.780380328127649, 5536463.458883906714618 ], [ 332689.720276853418909, 5536463.360803950577974 ], [ 332689.661894263990689, 5536463.26168998144567 ], [ 332689.605250343855005, 5536463.16157219093293 ], [ 332689.550362347159535, 5536463.060481077060103 ], [ 332689.497246993414592, 5536462.958447432145476 ], [ 332689.445920462021604, 5536462.855502336286008 ], [ 332689.396398387558293, 5536462.751677148044109 ], [ 332689.348695854947437, 5536462.647003493271768 ], [ 332689.302827394858468, 5536462.541513257659972 ], [ 332689.258806979167275, 5536462.435238572768867 ], [ 332689.216648017056286, 5536462.32821181230247 ], [ 332689.176363350416068, 5536462.220465577207506 ], [ 332689.137965250469279, 5536462.112032687291503 ], [ 332689.101465413579717, 5536462.002946173772216 ], [ 332689.066874957934488, 5536461.893239264376462 ], [ 332689.034204420167953, 5536461.782945377752185 ], [ 332689.003463752043899, 5536461.67209810949862 ], [ 332688.974662317428738, 5536461.56073122471571 ], [ 332688.947808889555745, 5536461.448878647759557 ], [ 332688.922911648231093, 5536461.336574450135231 ], [ 332688.89997817738913, 5536461.223852839320898 ], [ 332688.879015462764073, 5536461.110748152248561 ], [ 332688.86002988985274, 5536460.997294842265546 ], [ 332688.843027241760865, 5536460.883527467958629 ], [ 332688.828012697806116, 5536460.769480683840811 ], [ 332688.81499083142262, 5536460.655189229175448 ], [ 332688.803965609229635, 5536460.540687918663025 ], [ 332688.794940389634576, 5536460.426011631265283 ], [ 332688.787917921843473, 5536460.311195297166705 ], [ 332688.78290034487145, 5536460.19627389125526 ], [ 332688.779889187251683, 5536460.08128242008388 ], [ 332688.778885366104078, 5536459.966255910694599 ], [ 332688.779889187251683, 5536459.851229401305318 ], [ 332688.78290034487145, 5536459.736237930133939 ], [ 332688.787917921843473, 5536459.621316524222493 ], [ 332688.794940389634576, 5536459.506500190123916 ], [ 332688.803965609229635, 5536459.391823902726173 ], [ 332688.81499083142262, 5536459.27732259221375 ], [ 332688.828012697806116, 5536459.163031137548387 ], [ 332688.843027241760865, 5536459.048984353430569 ], [ 332688.86002988985274, 5536458.935216979123652 ], [ 332688.879015462764073, 5536458.821763669140637 ], [ 332688.89997817738913, 5536458.7086589820683 ], [ 332688.922911648231093, 5536458.595937371253967 ], [ 332688.947808889555745, 5536458.483633173629642 ], [ 332688.974662317428738, 5536458.371780596673489 ], [ 332689.003463752043899, 5536458.260413711890578 ], [ 332689.034204420167953, 5536458.149566443637013 ], [ 332689.066874957934488, 5536458.039272557012737 ], [ 332689.101465413579717, 5536457.929565647616982 ], [ 332689.137965250469279, 5536457.820479134097695 ], [ 332689.176363350416068, 5536457.712046244181693 ], [ 332689.216648017056286, 5536457.604300009086728 ], [ 332689.258806979167275, 5536457.497273248620331 ], [ 332689.302827394858468, 5536457.390998563729227 ], [ 332689.348695854947437, 5536457.28550832811743 ], [ 332689.396398387558293, 5536457.180834673345089 ], [ 332689.445920462021604, 5536457.07700948510319 ], [ 332689.497246993414592, 5536456.974064389243722 ], [ 332689.550362347159535, 5536456.872030744329095 ], [ 332689.605250343855005, 5536456.770939630456269 ], [ 332689.661894263990689, 5536456.670821839943528 ], [ 332689.720276853418909, 5536456.571707870811224 ], [ 332689.780380328127649, 5536456.47362791467458 ], [ 332689.842186380061321, 5536456.376611846499145 ], [ 332689.905676182475872, 5536456.280689218081534 ], [ 332689.970830395759549, 5536456.185889249667525 ], [ 332690.037629173370078, 5536456.092240817844868 ], [ 332690.106052167655434, 5536455.999772448092699 ], [ 332690.176078536373097, 5536455.908512307330966 ], [ 332690.247686948860064, 5536455.818488194607198 ], [ 332690.320855592377484, 5536455.729727532714605 ], [ 332690.395562179095577, 5536455.642257357947528 ], [ 332690.471783952729311, 5536455.556104314513505 ], [ 332690.549497695290484, 5536455.471294647082686 ], [ 332690.628679734480102, 5536455.387854187749326 ], [ 332690.709305950673297, 5536455.30580835416913 ], [ 332690.791351784369908, 5536455.225182137452066 ], [ 332690.874792243586853, 5536455.146000098437071 ], [ 332690.959601911483333, 5536455.068286356516182 ], [ 332691.04575495433528, 5536454.992064582183957 ], [ 332691.133225128985941, 5536454.917357996106148 ], [ 332691.221985791285988, 5536454.844189352355897 ], [ 332691.312009903718717, 5536454.772580939345062 ], [ 332691.40327004424762, 5536454.702554571442306 ], [ 332691.495738414057996, 5536454.634131576865911 ], [ 332691.589386846346315, 5536454.567332799546421 ], [ 332691.684186814934947, 5536454.502178586088121 ], [ 332691.780109442886896, 5536454.438688782975078 ], [ 332691.877125511178747, 5536454.376882730983198 ], [ 332691.975205467781052, 5536454.316779256798327 ], [ 332692.074319436622318, 5536454.258396667428315 ], [ 332692.17443722661119, 5536454.201752747409046 ], [ 332692.275528340833262, 5536454.146864750422537 ], [ 332692.377561986097135, 5536454.093749396502972 ], [ 332692.480507081840187, 5536454.042422865517437 ], [ 332692.584332270023879, 5536453.992900790646672 ], [ 332692.689005924505182, 5536453.945198258385062 ], [ 332692.794496160699055, 5536453.899329798296094 ], [ 332692.900770845182706, 5536453.855309382081032 ], [ 332693.00779760570731, 5536453.813150419853628 ], [ 332693.11554384091869, 5536453.772865753620863 ], [ 332693.223976730194408, 5536453.734467653557658 ], [ 332693.333063243888319, 5536453.697967817075551 ], [ 332693.442770153167658, 5536453.663377361372113 ], [ 332693.553064040199388, 5536453.630706823430955 ], [ 332693.66391130851116, 5536453.599966155365109 ], [ 332693.775278192828409, 5536453.571164720691741 ], [ 332693.887130769784562, 5536453.544311292469501 ], [ 332693.999434967990965, 5536453.519414051435888 ], [ 332694.112156578514259, 5536453.496480580419302 ], [ 332694.22526126523735, 5536453.475517866201699 ], [ 332694.338714575394988, 5536453.456532292999327 ], [ 332694.452481949992944, 5536453.439529645256698 ], [ 332694.566528734343592, 5536453.424515101127326 ], [ 332694.680820188776124, 5536453.411493234336376 ], [ 332694.795321498997509, 5536453.400468012318015 ], [ 332694.909997786744498, 5536453.391442792490125 ], [ 332695.024814120552037, 5536453.384420325048268 ], [ 332695.139735526230652, 5536453.379402748309076 ], [ 332695.254726997634862, 5536453.376391590572894 ], [ 332695.369753507198766, 5536453.375387769192457 ], [ 332695.48478001676267, 5536453.376391590572894 ], [ 332695.59977148816688, 5536453.379402748309076 ], [ 332695.714692893845495, 5536453.384420325048268 ], [ 332695.829509227653034, 5536453.391442792490125 ], [ 332695.944185515400022, 5536453.400468012318015 ], [ 332696.058686825621407, 5536453.411493234336376 ], [ 332696.17297828005394, 5536453.424515101127326 ], [ 332696.287025064404588, 5536453.439529645256698 ], [ 332696.400792439002544, 5536453.456532292999327 ], [ 332696.514245749160182, 5536453.475517866201699 ], [ 332696.627350435883272, 5536453.496480580419302 ], [ 332696.740072046406567, 5536453.519414051435888 ], [ 332696.852376244612969, 5536453.544311292469501 ], [ 332696.964228821569122, 5536453.571164720691741 ], [ 332697.075595705886371, 5536453.599966155365109 ], [ 332697.186442974198144, 5536453.630706823430955 ], [ 332697.296736861229874, 5536453.663377361372113 ], [ 332697.406443770509213, 5536453.697967817075551 ], [ 332697.515530284203123, 5536453.734467653557658 ], [ 332697.623963173478842, 5536453.772865753620863 ], [ 332697.731709408690222, 5536453.813150419853628 ], [ 332697.838736169214826, 5536453.855309382081032 ], [ 332697.945010853698477, 5536453.899329798296094 ], [ 332698.05050108989235, 5536453.945198258385062 ], [ 332698.155174744373653, 5536453.992900790646672 ], [ 332698.258999932557344, 5536454.042422865517437 ], [ 332698.361945028300397, 5536454.093749396502972 ], [ 332698.46397867356427, 5536454.146864750422537 ], [ 332698.565069787786342, 5536454.201752747409046 ], [ 332698.665187577775214, 5536454.258396667428315 ], [ 332698.76430154661648, 5536454.316779256798327 ], [ 332698.862381503218785, 5536454.376882730983198 ], [ 332698.959397571510635, 5536454.438688782975078 ], [ 332699.055320199462585, 5536454.502178586088121 ], [ 332699.150120168051217, 5536454.567332799546421 ], [ 332699.243768600339536, 5536454.634131576865911 ], [ 332699.336236970149912, 5536454.702554571442306 ], [ 332699.427497110678814, 5536454.772580939345062 ], [ 332699.517521223111544, 5536454.844189352355897 ], [ 332699.60628188541159, 5536454.917357996106148 ], [ 332699.693752060062252, 5536454.992064582183957 ], [ 332699.779905102914199, 5536455.068286356516182 ], [ 332699.864714770810679, 5536455.146000098437071 ], [ 332699.948155230027623, 5536455.225182137452066 ], [ 332700.030201063724235, 5536455.30580835416913 ], [ 332700.11082727991743, 5536455.387854187749326 ], [ 332700.190009319107048, 5536455.471294647082686 ], [ 332700.267723061668221, 5536455.556104314513505 ], [ 332700.343944835301954, 5536455.642257357947528 ], [ 332700.418651422020048, 5536455.729727532714605 ], [ 332700.491820065537468, 5536455.818488194607198 ], [ 332700.563428478024434, 5536455.908512307330966 ], [ 332700.633454846742097, 5536455.999772448092699 ], [ 332700.701877841027454, 5536456.092240817844868 ], [ 332700.768676618637983, 5536456.185889249667525 ], [ 332700.833830831921659, 5536456.280689218081534 ], [ 332700.897320634336211, 5536456.376611846499145 ], [ 332700.959126686269883, 5536456.47362791467458 ], [ 332701.019230160978623, 5536456.571707870811224 ], [ 332701.077612750406843, 5536456.670821839943528 ], [ 332701.134256670542527, 5536456.770939630456269 ], [ 332701.189144667237997, 5536456.872030744329095 ], [ 332701.24226002098294, 5536456.974064389243722 ], [ 332701.293586552375928, 5536457.07700948510319 ], [ 332701.343108626839239, 5536457.180834673345089 ], [ 332701.390811159450095, 5536457.28550832811743 ], [ 332701.436679619539063, 5536457.390998563729227 ], [ 332701.480700035230257, 5536457.497273248620331 ], [ 332701.522858997341245, 5536457.604300009086728 ], [ 332701.563143663981464, 5536457.712046244181693 ], [ 332701.601541763928253, 5536457.820479134097695 ], [ 332701.638041600817814, 5536457.929565647616982 ], [ 332701.672632056463044, 5536458.039272557012737 ], [ 332701.705302594229579, 5536458.149566443637013 ], [ 332701.736043262353633, 5536458.260413711890578 ], [ 332701.764844696968794, 5536458.371780596673489 ], [ 332701.791698124841787, 5536458.483633173629642 ], [ 332701.816595366166439, 5536458.595937371253967 ], [ 332701.839528837008402, 5536458.7086589820683 ], [ 332701.860491551633459, 5536458.821763669140637 ], [ 332701.879477124544792, 5536458.935216979123652 ], [ 332701.896479772636667, 5536459.048984353430569 ], [ 332701.911494316591416, 5536459.163031137548387 ], [ 332701.924516182974912, 5536459.27732259221375 ], [ 332701.935541405167896, 5536459.391823902726173 ], [ 332701.944566624762956, 5536459.506500190123916 ], [ 332701.951589092554059, 5536459.621316524222493 ], [ 332701.956606669526082, 5536459.736237930133939 ], [ 332701.959617827145848, 5536459.851229401305318 ], [ 332701.960621648293454, 5536459.966255910694599 ], [ 332701.959617827145848, 5536460.08128242008388 ], [ 332701.956606669526082, 5536460.19627389125526 ], [ 332701.951589092554059, 5536460.311195297166705 ], [ 332701.944566624762956, 5536460.426011631265283 ], [ 332701.935541405167896, 5536460.540687918663025 ], [ 332701.924516182974912, 5536460.655189229175448 ], [ 332701.911494316591416, 5536460.769480683840811 ], [ 332701.896479772636667, 5536460.883527467958629 ], [ 332701.879477124544792, 5536460.997294842265546 ], [ 332701.860491551633459, 5536461.110748152248561 ], [ 332701.839528837008402, 5536461.223852839320898 ], [ 332701.816595366166439, 5536461.336574450135231 ], [ 332701.791698124841787, 5536461.448878647759557 ], [ 332701.764844696968794, 5536461.56073122471571 ], [ 332701.736043262353633, 5536461.67209810949862 ], [ 332701.705302594229579, 5536461.782945377752185 ], [ 332701.672632056463044, 5536461.893239264376462 ], [ 332701.638041600817814, 5536462.002946173772216 ], [ 332701.601541763928253, 5536462.112032687291503 ], [ 332701.563143663981464, 5536462.220465577207506 ], [ 332701.522858997341245, 5536462.32821181230247 ], [ 332701.480700035230257, 5536462.435238572768867 ], [ 332701.436679619539063, 5536462.541513257659972 ], [ 332701.390811159450095, 5536462.647003493271768 ], [ 332701.343108626839239, 5536462.751677148044109 ], [ 332701.293586552375928, 5536462.855502336286008 ], [ 332701.24226002098294, 5536462.958447432145476 ], [ 332701.189144667237997, 5536463.060481077060103 ], [ 332701.134256670542527, 5536463.16157219093293 ], [ 332701.077612750406843, 5536463.26168998144567 ], [ 332701.019230160978623, 5536463.360803950577974 ], [ 332700.959126686269883, 5536463.458883906714618 ], [ 332700.897320634336211, 5536463.555899974890053 ], [ 332700.833830831921659, 5536463.651822603307664 ], [ 332700.768676618637983, 5536463.746622571721673 ], [ 332700.701877841027454, 5536463.840271003544331 ], [ 332700.633454846742097, 5536463.932739373296499 ], [ 332700.563428478024434, 5536464.023999514058232 ], [ 332700.491820065537468, 5536464.114023626782 ], [ 332700.418651422020048, 5536464.202784288674593 ], [ 332700.343944835301954, 5536464.29025446344167 ], [ 332700.267723061668221, 5536464.376407506875694 ], [ 332700.190009319107048, 5536464.461217174306512 ], [ 332700.11082727991743, 5536464.544657633639872 ], [ 332700.030201063724235, 5536464.626703467220068 ], [ 332699.948155230027623, 5536464.707329683937132 ], [ 332699.864714770810679, 5536464.786511722952127 ], [ 332699.779905102914199, 5536464.864225464873016 ], [ 332699.693752060062252, 5536464.940447239205241 ], [ 332699.60628188541159, 5536465.015153825283051 ], [ 332699.517521223111544, 5536465.088322469033301 ], [ 332699.427497110678814, 5536465.159930882044137 ], [ 332699.336236970149912, 5536465.229957249946892 ], [ 332699.243768600339536, 5536465.298380244523287 ], [ 332699.150120168051217, 5536465.365179021842778 ], [ 332699.055320199462585, 5536465.430333235301077 ], [ 332698.959397571510635, 5536465.493823038414121 ], [ 332698.862381503218785, 5536465.555629090406001 ], [ 332698.76430154661648, 5536465.615732564590871 ], [ 332698.665187577775214, 5536465.674115153960884 ], [ 332698.565069787786342, 5536465.730759073980153 ], [ 332698.46397867356427, 5536465.785647070966661 ], [ 332698.361945028300397, 5536465.838762424886227 ], [ 332698.258999932557344, 5536465.890088955871761 ], [ 332698.155174744373653, 5536465.939611030742526 ], [ 332698.05050108989235, 5536465.987313563004136 ], [ 332697.945010853698477, 5536466.033182023093104 ], [ 332697.838736169214826, 5536466.077202439308167 ], [ 332697.731709408690222, 5536466.119361401535571 ], [ 332697.623963173478842, 5536466.159646067768335 ], [ 332697.515530284203123, 5536466.19804416783154 ], [ 332697.406443770509213, 5536466.234544004313648 ], [ 332697.296736861229874, 5536466.269134460017085 ], [ 332697.186442974198144, 5536466.301804997958243 ], [ 332697.075595705886371, 5536466.332545666024089 ], [ 332696.964228821569122, 5536466.361347100697458 ], [ 332696.852376244612969, 5536466.388200528919697 ], [ 332696.740072046406567, 5536466.41309776995331 ], [ 332696.627350435883272, 5536466.436031240969896 ], [ 332696.514245749160182, 5536466.4569939551875 ], [ 332696.400792439002544, 5536466.475979528389871 ], [ 332696.287025064404588, 5536466.4929821761325 ], [ 332696.17297828005394, 5536466.507996720261872 ], [ 332696.058686825621407, 5536466.521018587052822 ], [ 332695.944185515400022, 5536466.532043809071183 ], [ 332695.829509227653034, 5536466.541069028899074 ], [ 332695.714692893845495, 5536466.54809149634093 ], [ 332695.59977148816688, 5536466.553109073080122 ], [ 332695.48478001676267, 5536466.556120230816305 ], [ 332695.369753507198766, 5536466.557124052196741 ] ] ] ] } },
{ "type": "Feature", "properties": { "fid": 2.0, "Text": null, "LOT_ID": 7.0, "area_m2": 2489.0803597294725, "ESA1_pct": 0.0, "ESA2_pct": 99.99, "ESA3_pct": 0.0, "ESA4_pct": 0.0, "pct_LOT": 0.057237636110836002, "area": 2489.0803597294725, "mean_slp": 7.7, "max_slp": 26.57, "p95_slp": 16.46, "slp_count": 2493 }, "geometry": { "type": "MultiPolygon", "coordinates": [ [ [ [ 332821.937393164436799, 5536703.450997282750905 ], [ 332817.012008661928121, 5536676.591233797371387 ], [ 332842.405102096789051, 5536671.381271526217461 ], [ 332846.520534481154755, 5536692.35246420558542 ], [ 332872.537552458292339, 5536681.374180630780756 ], [ 332871.645946284988895, 5536655.517601605504751 ], [ 332859.274910631356761, 5536652.657031799666584 ], [ 332780.999318672460504, 5536683.64034632127732 ], [ 332784.268541307712439, 5536719.007391192018986 ], [ 332821.937393164436799, 5536703.450997282750905 ] ] ] ] } },
{ "type": "Feature", "properties": { "fid": 4.0, "Text": null, "LOT_ID": 2.0, "area_m2": 5143.2163288140164, "ESA1_pct": 0.0, "ESA2_pct": 11.36, "ESA3_pct": 88.63, "ESA4_pct": 0.0, "pct_LOT": 0.084023731719748002, "area": 5143.2163288140164, "mean_slp": 10.02, "max_slp": 27.68, "p95_slp": 20.42, "slp_count": 5143 }, "geometry": { "type": "MultiPolygon", "coordinates": [ [ [ [ 332574.12627352058189, 5536393.494267684407532 ], [ 332552.035911481827497, 5536383.98702326323837 ], [ 332535.330751460161991, 5536365.70906106941402 ], [ 332473.549302742583677, 5536393.411862175911665 ], [ 332473.917043495981488, 5536393.600612436421216 ], [ 332474.270915912580676, 5536393.814234146848321 ], [ 332474.609240475285333, 5536394.05171343497932 ], [ 332474.930411458888557, 5536394.311923200264573 ], [ 332475.232904550968669, 5536394.593628456816077 ], [ 332475.515284086228348, 5536394.895492201671004 ], [ 332475.776209860749077, 5536395.216081756167114 ], [ 332476.014443492284045, 5536395.553875568322837 ], [ 332476.228854298067745, 5536395.907270430587232 ], [ 332476.418424661096651, 5536396.274589093402028 ], [ 332476.582254859793466, 5536396.654088221490383 ], [ 332476.719567338121124, 5536397.043966671451926 ], [ 332476.829710396123119, 5536397.442374036647379 ], [ 332476.912161282845773, 5536397.847419434227049 ], [ 332476.966528677381575, 5536398.257180472835898 ], [ 332476.992554546159226, 5536398.669712382368743 ], [ 332476.990115367574617, 5536399.083057241514325 ], [ 332476.959222718258388, 5536399.49525327142328 ], [ 332476.900023218069691, 5536399.904344143345952 ], [ 332476.812797834223602, 5536400.30838826764375 ], [ 332476.697960548044648, 5536400.705468008294702 ], [ 332476.556056389643345, 5536401.093698780052364 ], [ 332476.387758851749822, 5536401.471237998455763 ], [ 332476.193866692716256, 5536401.836293820291758 ], [ 332475.975300145917572, 5536402.187133651226759 ], [ 332475.733096551964991, 5536402.522092367522418 ], [ 332475.468405435560271, 5536402.839580217376351 ], [ 332475.182483049458824, 5536403.138090371154249 ], [ 332474.876686412608251, 5536403.416206064634025 ], [ 332474.552466869121417, 5536403.672607332468033 ], [ 332474.211363200214691, 5536403.906077264808118 ], [ 332473.85499432112556, 5536404.115507788956165 ], [ 332473.48505159735214, 5536404.299904924817383 ], [ 332473.103290817409288, 5536404.458393502049148 ], [ 332472.711523859528825, 5536404.590221318416297 ], [ 332472.311610092408955, 5536404.694762703962624 ], [ 332471.905447550292592, 5536404.771521493792534 ], [ 332471.494963924924377, 5536404.820133381523192 ], [ 332471.082107416295912, 5536404.840367651544511 ], [ 332470.668837486417033, 5536404.832128269597888 ], [ 332470.257115559303202, 5536404.795454339124262 ], [ 332469.848895712173544, 5536404.730519919656217 ], [ 332469.446115400933195, 5536404.637633197009563 ], [ 332469.050686264701653, 5536404.517235022038221 ], [ 332468.664485053333919, 5536404.369896816089749 ], [ 332468.289344719843939, 5536404.196317864581943 ], [ 332467.927045721153263, 5536403.997321990318596 ], [ 332467.579307567735668, 5536403.773853650316596 ], [ 332467.247780662786681, 5536403.526973448693752 ], [ 332466.934038469102234, 5536403.257853107526898 ], [ 332466.639570041326806, 5536402.967769899405539 ], [ 332466.365772958670277, 5536402.65810059197247 ], [ 332466.113946692028549, 5536402.330314909107983 ], [ 332465.885286436183378, 5536401.985968558117747 ], [ 332465.680877437698655, 5536401.62669584248215 ], [ 332465.501689843891654, 5536401.25420191232115 ], [ 332465.348574098665267, 5536400.870254661887884 ], [ 332465.22225690598134, 5536400.476676347665489 ], [ 332465.123337780998554, 5536400.075334935449064 ], [ 332465.052286204765551, 5536399.668135235086083 ], [ 332465.009439395682421, 5536399.257009861059487 ], [ 332464.995000709372107, 5536398.843910058960319 ], [ 332465.00903867353918, 5536398.430796444416046 ], [ 332465.051486662356183, 5536398.019629701972008 ], [ 332465.122143213055097, 5536397.612361271865666 ], [ 332465.220672981988173, 5536397.210924094542861 ], [ 332465.220672981988173, 5536397.210924094542861 ], [ 332389.9376946928096, 5536431.550870036706328 ], [ 332387.765041826409288, 5536462.379501366987824 ], [ 332495.186354515724815, 5536421.977994620800018 ], [ 332488.845140101388097, 5536403.588224053382874 ], [ 332509.765150264371186, 5536396.282802597619593 ], [ 332515.860160501673818, 5536414.209452593699098 ], [ 332574.12627352058189, 5536393.494267684407532 ] ] ] ] } },
{ "type": "Feature", "properties": { "fid": 5.0, "Text": null, "LOT_ID": 3.0, "area_m2": 10314.617862053216, "ESA1_pct": 0.0, "ESA2_pct": 2.2, "ESA3_pct": 97.79, "ESA4_pct": 0.0, "pct_LOT": 0.25742005744091501, "area": 10314.617862053216, "mean_slp": 9.62, "max_slp": 36.88, "p95_slp": 18.78, "slp_count": 10307 }, "geometry": { "type": "MultiPolygon", "coordinates": [ [ [ [ 332473.909350752073806, 5536436.583889074623585 ], [ 332462.985645654203836, 5536440.979830272495747 ], [ 332462.472317170060705, 5536553.09866869263351 ], [ 332547.349204506899696, 5536553.060593646019697 ], [ 332593.18127239390742, 5536526.71860611345619 ], [ 332566.086395217222162, 5536473.890403377823532 ], [ 332473.909350752073806, 5536436.583889074623585 ] ], [ [ 332515.677870331332088, 5536456.11027997918427 ], [ 332518.475973637658171, 5536475.271940560080111 ], [ 332491.663287803821731, 5536480.213565294630826 ], [ 332488.422049893182702, 5536460.499615738168359 ], [ 332515.677870331332088, 5536456.11027997918427 ] ] ] ] } },
{ "type": "Feature", "properties": { "fid": 6.0, "Text": null, "LOT_ID": 4.0, "area_m2": 7799.8048133485136, "ESA1_pct": 0.0, "ESA2_pct": 17.84, "ESA3_pct": 9.22, "ESA4_pct": 72.94, "pct_LOT": 0.19430238203591901, "area": 7799.8048133485136, "mean_slp": 8.47, "max_slp": 62.72, "p95_slp": 24.83, "slp_count": 7803 }, "geometry": { "type": "MultiPolygon", "coordinates": [ [ [ [ 332552.029105650552083, 5536557.02382623963058 ], [ 332570.863076966255903, 5536601.277746951207519 ], [ 332545.558711970108561, 5536623.356347502209246 ], [ 332573.719904837489594, 5536654.262824053876102 ], [ 332521.090148679097183, 5536697.010276437737048 ], [ 332562.801651941670571, 5536717.267754905857146 ], [ 332603.767336216114927, 5536685.509563447907567 ], [ 332605.031629494798835, 5536683.110589387826622 ], [ 332585.572197754459921, 5536657.927795371040702 ], [ 332605.522203404223546, 5536642.392954905517399 ], [ 332618.604174322099425, 5536657.600746097974479 ], [ 332630.668513305019587, 5536635.251910134218633 ], [ 332629.81136698613409, 5536608.446607071906328 ], [ 332562.096807796158828, 5536551.329493278637528 ], [ 332552.029105650552083, 5536557.02382623963058 ] ] ] ] } },
{ "type": "Feature", "properties": { "fid": 7.0, "Text": null, "LOT_ID": 5.0, "area_m2": 10295.972597747226, "ESA1_pct": 0.0, "ESA2_pct": 14.89, "ESA3_pct": 83.1, "ESA4_pct": 2.0, "pct_LOT": 0.25649591344580203, "area": 10295.972597747226, "mean_slp": 6.34, "max_slp": 26.57, "p95_slp": 15.18, "slp_count": 10300 }, "geometry": { "type": "MultiPolygon", "coordinates": [ [ [ [ 332691.2645529662841, 5536723.684621985070407 ], [ 332680.277346397109795, 5536727.718543774448335 ], [ 332679.898345719091594, 5536727.888553869910538 ], [ 332679.508490404754411, 5536728.031933716498315 ], [ 332679.109648997429758, 5536728.147996107116342 ], [ 332678.703733110276517, 5536728.236184763722122 ], [ 332678.292688263696618, 5536728.296077005565166 ], [ 332677.878484560700599, 5536728.327385775744915 ], [ 332677.463107244577259, 5536728.329961011186242 ], [ 332677.04854718351271, 5536728.303790371865034 ], [ 332676.636791328783147, 5536728.248999289236963 ], [ 332676.229813191224821, 5536728.165850373916328 ], [ 332675.829563382547349, 5536728.054742150940001 ], [ 332675.437960266193841, 5536727.916207152418792 ], [ 332675.056880762567744, 5536727.750909364782274 ], [ 332674.688151353504509, 5536727.559641046449542 ], [ 332674.333539327781182, 5536727.343318930827081 ], [ 332673.994744310737588, 5536727.102979830466211 ], [ 332673.673390118114185, 5536726.839775671251118 ], [ 332673.371016973338556, 5536726.554967967793345 ], [ 332673.089074125280604, 5536726.249921779148281 ], [ 332672.828912902041338, 5536725.926099167205393 ], [ 332672.59178023430286, 5536725.585052183829248 ], [ 332672.378812678914983, 5536725.228415439836681 ], [ 332672.191030971182045, 5536724.857898265123367 ], [ 332672.029335132974666, 5536724.475276516750455 ], [ 332671.894500158727169, 5536724.082384067587554 ], [ 332671.787172300973907, 5536723.681104019284248 ], [ 332671.707865973119624, 5536723.273359671235085 ], [ 332671.656961283646524, 5536722.861105309799314 ], [ 332671.634702214389108, 5536722.44631683267653 ], [ 332671.641195451200474, 5536722.030982287600636 ], [ 332671.676409872481599, 5536721.617092336528003 ], [ 332671.740176698600408, 5536721.206630720756948 ], [ 332671.832190300512593, 5536720.801564746536314 ], [ 332671.952009664790239, 5536720.403835860081017 ], [ 332672.099060507491231, 5536720.015350344590843 ], [ 332672.272638026275672, 5536719.637970175594091 ], [ 332672.471910278894939, 5536719.273504106327891 ], [ 332664.476722006394994, 5536715.97438541892916 ], [ 332606.064954569214024, 5536690.649420796893537 ], [ 332566.324666750384495, 5536721.488564915955067 ], [ 332609.854128244973253, 5536812.109952334314585 ], [ 332596.029466518026311, 5536837.008450241759419 ], [ 332607.385438650846481, 5536854.994617284275591 ], [ 332664.253602609504014, 5536811.035881659016013 ], [ 332636.284429639577866, 5536777.028626440092921 ], [ 332658.911655857693404, 5536758.984938611276448 ], [ 332677.9553295528749, 5536782.6044484032318 ], [ 332691.2645529662841, 5536723.684621985070407 ] ] ] ] } },
{ "type": "Feature", "properties": { "fid": 8.0, "Text": null, "LOT_ID": 6.0, "area_m2": 8169.5379368343856, "ESA1_pct": 0.0, "ESA2_pct": 22.18, "ESA3_pct": 77.81, "ESA4_pct": 0.0, "pct_LOT": 0.20409363102757699, "area": 8169.5379368343856, "mean_slp": 6.71, "max_slp": 24.99, "p95_slp": 12.54, "slp_count": 8169 }, "geometry": { "type": "MultiPolygon", "coordinates": [ [ [ [ 332810.815951083321124, 5536886.281153911724687 ], [ 332823.480996908037923, 5536861.69606495834887 ], [ 332765.33692289434839, 5536853.805809137411416 ], [ 332729.559861602378078, 5536827.138099036179483 ], [ 332743.782640333462041, 5536812.644410233944654 ], [ 332713.728972860146314, 5536780.425134405493736 ], [ 332635.130769964016508, 5536840.700534447096288 ], [ 332651.371442302246578, 5536858.991617822088301 ], [ 332654.155461791029666, 5536848.14876502379775 ], [ 332678.820015572709963, 5536856.295574478805065 ], [ 332678.815018931636587, 5536868.265634183771908 ], [ 332763.91464502166491, 5536879.813175964169204 ], [ 332766.251244385261089, 5536907.039638114161789 ], [ 332769.773075309814885, 5536907.107365632429719 ], [ 332775.970143186394125, 5536882.657731711864471 ], [ 332810.815951083321124, 5536886.281153911724687 ] ] ] ] } },
{ "type": "Feature", "properties": { "fid": 9.0, "Text": null, "LOT_ID": 9.0, "area_m2": 8960.1301291067139, "ESA1_pct": 0.0, "ESA2_pct": 0.0, "ESA3_pct": 99.99, "ESA4_pct": 0.0, "pct_LOT": 0.22087681010014101, "area": 8960.1301291067139, "mean_slp": 13.04, "max_slp": 34.06, "p95_slp": 17.35, "slp_count": 8963 }, "geometry": { "type": "MultiPolygon", "coordinates": [ [ [ [ 332657.142213243292645, 5536206.432330451905727 ], [ 332815.218239739886485, 5536201.14958406239748 ], [ 332809.122763139777817, 5536146.425749698653817 ], [ 332653.76514913700521, 5536153.928631934337318 ], [ 332647.355159393977374, 5536165.35159516800195 ], [ 332647.355159393977374, 5536165.35159516800195 ], [ 332631.541211522824597, 5536194.444559805095196 ], [ 332657.142213243292645, 5536206.432330451905727 ] ], [ [ 332661.346000000019558, 5536201.765490871854126 ], [ 332661.23455781803932, 5536201.764518330805004 ], [ 332661.123149582417682, 5536201.761601002886891 ], [ 332661.011809229152277, 5536201.756739778444171 ], [ 332660.900570673693437, 5536201.749936137348413 ], [ 332660.789467800292186, 5536201.741192150861025 ], [ 332660.678534451988526, 5536201.730510484427214 ], [ 332660.567804420134053, 5536201.717894391156733 ], [ 332660.457311434263829, 5536201.703347713686526 ], [ 332660.347089151502587, 5536201.686874883249402 ], [ 332660.237171146611217, 5536201.668480916880071 ], [ 332660.127590901800431, 5536201.648171419277787 ], [ 332660.018381796195172, 5536201.625952575355768 ], [ 332659.909577095939312, 5536201.601831154897809 ], [ 332659.801209944009315, 5536201.575814503245056 ], [ 332659.6933133500861, 5536201.547910546883941 ], [ 332659.585920180543326, 5536201.51812778506428 ], [ 332659.479063148377463, 5536201.486475289799273 ], [ 332659.372774803254288, 5536201.452962703071535 ], [ 332659.267087521613576, 5536201.417600234039128 ], [ 332659.162033496890217, 5536201.380398652516305 ], [ 332659.057644729502499, 5536201.341369291767478 ], [ 332658.953953017247841, 5536201.30052404012531 ], [ 332658.850989945756737, 5536201.257875339128077 ], [ 332658.748786878481042, 5536201.213436180725694 ], [ 332658.647374947438948, 5536201.16722010076046 ], [ 332658.546785043785349, 5536201.119241178035736 ], [ 332658.447047808091156, 5536201.069514026865363 ], [ 332658.348193621321116, 5536201.018053794279695 ], [ 332658.250252595404163, 5536200.964876156300306 ], [ 332658.153254564153031, 5536200.909997310489416 ], [ 332658.057229074067436, 5536200.853433974087238 ], [ 332657.962205375486519, 5536200.795203376561403 ], [ 332657.868212413566653, 5536200.735323255881667 ], [ 332657.775278819375671, 5536200.673811852000654 ], [ 332657.683432901452761, 5536200.610687901265919 ], [ 332657.592702636960894, 5536200.545970632694662 ], [ 332657.503115663246717, 5536200.479679759591818 ], [ 332657.414699269284029, 5536200.411835473962128 ], [ 332657.327480387582909, 5536200.342458442784846 ], [ 332657.241485585924238, 5536200.271569798700511 ], [ 332657.156741059094202, 5536200.19919113535434 ], [ 332657.073272621142678, 5536200.125344499014318 ], [ 332656.991105697350577, 5536200.050052385777235 ], [ 332656.910265316488221, 5536199.973337728530169 ], [ 332656.830776103422977, 5536199.895223896950483 ], [ 332656.752662271319423, 5536199.815734683535993 ], [ 332656.675947614363395, 5536199.734894302673638 ], [ 332656.600655500602443, 5536199.65272737853229 ], [ 332656.526808864728082, 5536199.569258941337466 ], [ 332656.45443020114908, 5536199.484514414332807 ], [ 332656.383541557181161, 5536199.398519611917436 ], [ 332656.314164526062086, 5536199.311300730332732 ], [ 332656.246320240781642, 5536199.222884336486459 ], [ 332656.18002936738776, 5536199.133297363296151 ], [ 332656.115312098700088, 5536199.042567098513246 ], [ 332656.052188148198184, 5536198.950721180997789 ], [ 332655.990676744026132, 5536198.8577875867486 ], [ 332655.930796623288188, 5536198.763794624246657 ], [ 332655.872566025878768, 5536198.668770926073194 ], [ 332655.816002689534798, 5536198.572745435871184 ], [ 332655.761123843898531, 5536198.475747404620051 ], [ 332655.707946205628105, 5536198.377806378528476 ], [ 332655.656485973217059, 5536198.278952191583812 ], [ 332655.606758821872063, 5536198.179214956238866 ], [ 332655.558779898972716, 5536198.078625052236021 ], [ 332655.512563819356728, 5536197.977213121019304 ], [ 332655.468124660954345, 5536197.875010054558516 ], [ 332655.425475960306358, 5536197.772046982310712 ], [ 332655.38463070866419, 5536197.668355270288885 ], [ 332655.345601347798947, 5536197.563966503366828 ], [ 332655.308399766508956, 5536197.458912478759885 ], [ 332655.273037296778057, 5536197.353225196711719 ], [ 332655.239524710283149, 5536197.24693685118109 ], [ 332655.20787221530918, 5536197.140079819597304 ], [ 332655.178089453547727, 5536197.032686649821699 ], [ 332655.150185497070197, 5536196.92479005549103 ], [ 332655.124168845708482, 5536196.816422903910279 ], [ 332655.100047424377408, 5536196.707618203945458 ], [ 332655.077828580746427, 5536196.598409098573029 ], [ 332655.057519082794897, 5536196.488828853704035 ], [ 332655.039125117065851, 5536196.378910848870873 ], [ 332655.022652286570519, 5536196.268688566051424 ], [ 332655.008105608983897, 5536196.1581955794245 ], [ 332654.995489515480585, 5536196.047465547919273 ], [ 332654.984807848930359, 5536195.936532199382782 ], [ 332654.97606386319967, 5536195.825429325923324 ], [ 332654.969260221638251, 5536195.714190770871937 ], [ 332654.964398996846285, 5536195.602850417606533 ], [ 332654.961481669510249, 5536195.491442182101309 ], [ 332654.960509128344711, 5536195.379999999888241 ], [ 332654.961481669510249, 5536195.268557817675173 ], [ 332654.964398996846285, 5536195.15714958216995 ], [ 332654.969260221638251, 5536195.045809228904545 ], [ 332654.97606386319967, 5536194.934570673853159 ], [ 332654.984807848930359, 5536194.823467800393701 ], [ 332654.995489515480585, 5536194.712534451857209 ], [ 332655.008105608983897, 5536194.601804420351982 ], [ 332655.022652286570519, 5536194.491311433725059 ], [ 332655.039125117065851, 5536194.381089150905609 ], [ 332655.057519082794897, 5536194.271171146072447 ], [ 332655.077828580746427, 5536194.161590901203454 ], [ 332655.100047424377408, 5536194.052381795831025 ], [ 332655.124168845708482, 5536193.943577095866203 ], [ 332655.150185497070197, 5536193.835209944285452 ], [ 332655.178089453547727, 5536193.727313349954784 ], [ 332655.20787221530918, 5536193.619920180179179 ], [ 332655.239524710283149, 5536193.513063148595393 ], [ 332655.273037296778057, 5536193.406774803064764 ], [ 332655.308399766508956, 5536193.301087521016598 ], [ 332655.345601347798947, 5536193.196033496409655 ], [ 332655.38463070866419, 5536193.091644729487598 ], [ 332655.425475960306358, 5536192.98795301746577 ], [ 332655.468124660954345, 5536192.884989945217967 ], [ 332655.512563819356728, 5536192.782786878757179 ], [ 332655.558779898972716, 5536192.681374947540462 ], [ 332655.606758821872063, 5536192.580785043537617 ], [ 332655.656485973217059, 5536192.48104780819267 ], [ 332655.707946205628105, 5536192.382193621248007 ], [ 332655.761123843898531, 5536192.284252595156431 ], [ 332655.816002689534798, 5536192.187254563905299 ], [ 332655.872566025878768, 5536192.091229073703289 ], [ 332655.930796623288188, 5536191.996205375529826 ], [ 332655.990676744026132, 5536191.902212413027883 ], [ 332656.052188148198184, 5536191.809278818778694 ], [ 332656.115312098700088, 5536191.717432901263237 ], [ 332656.18002936738776, 5536191.626702636480331 ], [ 332656.246320240781642, 5536191.537115663290024 ], [ 332656.314164526062086, 5536191.44869926944375 ], [ 332656.383541557181161, 5536191.361480387859046 ], [ 332656.45443020114908, 5536191.275485585443676 ], [ 332656.526808864728082, 5536191.190741058439016 ], [ 332656.600655500602443, 5536191.107272621244192 ], [ 332656.675947614363395, 5536191.025105697102845 ], [ 332656.752662271319423, 5536190.944265316240489 ], [ 332656.830776103422977, 5536190.864776102825999 ], [ 332656.910265316488221, 5536190.786662271246314 ], [ 332656.991105697350577, 5536190.709947613999248 ], [ 332657.073272621142678, 5536190.634655500762165 ], [ 332657.156741059094202, 5536190.560808864422143 ], [ 332657.241485585924238, 5536190.488430201075971 ], [ 332657.327480387582909, 5536190.417541556991637 ], [ 332657.414699269284029, 5536190.348164525814354 ], [ 332657.503115663246717, 5536190.280320240184665 ], [ 332657.592702636960894, 5536190.214029367081821 ], [ 332657.683432901452761, 5536190.149312098510563 ], [ 332657.775278819375671, 5536190.086188147775829 ], [ 332657.868212413566653, 5536190.024676743894815 ], [ 332657.962205375486519, 5536189.964796623215079 ], [ 332658.057229074067436, 5536189.906566025689244 ], [ 332658.153254564153031, 5536189.850002689287066 ], [ 332658.250252595404163, 5536189.795123843476176 ], [ 332658.348193621321116, 5536189.741946205496788 ], [ 332658.447047808091156, 5536189.690485972911119 ], [ 332658.546785043785349, 5536189.640758821740746 ], [ 332658.647374947438948, 5536189.592779899016023 ], [ 332658.748786878481042, 5536189.546563819050789 ], [ 332658.850989945756737, 5536189.502124660648406 ], [ 332658.953953017247841, 5536189.459475959651172 ], [ 332659.057644729502499, 5536189.418630708009005 ], [ 332659.162033496890217, 5536189.379601347260177 ], [ 332659.267087521613576, 5536189.342399765737355 ], [ 332659.372774803254288, 5536189.307037296704948 ], [ 332659.479063148377463, 5536189.27352470997721 ], [ 332659.585920180543326, 5536189.241872214712203 ], [ 332659.6933133500861, 5536189.212089452892542 ], [ 332659.801209944009315, 5536189.184185496531427 ], [ 332659.909577095939312, 5536189.158168844878674 ], [ 332660.018381796195172, 5536189.134047424420714 ], [ 332660.127590901800431, 5536189.111828580498695 ], [ 332660.237171146611217, 5536189.091519082896411 ], [ 332660.347089151502587, 5536189.073125116527081 ], [ 332660.457311434263829, 5536189.056652286089957 ], [ 332660.567804420134053, 5536189.04210560861975 ], [ 332660.678534451988526, 5536189.029489515349269 ], [ 332660.789467800292186, 5536189.018807848915458 ], [ 332660.900570673693437, 5536189.010063862428069 ], [ 332661.011809229152277, 5536189.003260221332312 ], [ 332661.123149582417682, 5536188.998398996889591 ], [ 332661.23455781803932, 5536188.995481668971479 ], [ 332661.346000000019558, 5536188.994509127922356 ], [ 332661.457442181999795, 5536188.995481668971479 ], [ 332661.568850417621434, 5536188.998398996889591 ], [ 332661.680190770886838, 5536189.003260221332312 ], [ 332661.791429326345678, 5536189.010063862428069 ], [ 332661.902532199746929, 5536189.018807848915458 ], [ 332662.01346554805059, 5536189.029489515349269 ], [ 332662.124195579905063, 5536189.04210560861975 ], [ 332662.234688565775286, 5536189.056652286089957 ], [ 332662.344910848536529, 5536189.073125116527081 ], [ 332662.454828853427898, 5536189.091519082896411 ], [ 332662.564409098238684, 5536189.111828580498695 ], [ 332662.673618203843944, 5536189.134047424420714 ], [ 332662.782422904099803, 5536189.158168844878674 ], [ 332662.8907900560298, 5536189.184185496531427 ], [ 332662.998686649953015, 5536189.212089452892542 ], [ 332663.10607981949579, 5536189.241872214712203 ], [ 332663.212936851661652, 5536189.27352470997721 ], [ 332663.319225196784828, 5536189.307037296704948 ], [ 332663.42491247842554, 5536189.342399765737355 ], [ 332663.529966503148898, 5536189.379601347260177 ], [ 332663.634355270536616, 5536189.418630708009005 ], [ 332663.738046982791275, 5536189.459475959651172 ], [ 332663.841010054282378, 5536189.502124660648406 ], [ 332663.943213121558074, 5536189.546563819050789 ], [ 332664.044625052600168, 5536189.592779899016023 ], [ 332664.145214956253767, 5536189.640758821740746 ], [ 332664.244952191947959, 5536189.690485972911119 ], [ 332664.343806378718, 5536189.741946205496788 ], [ 332664.441747404634953, 5536189.795123843476176 ], [ 332664.538745435886085, 5536189.850002689287066 ], [ 332664.634770925971679, 5536189.906566025689244 ], [ 332664.729794624552596, 5536189.964796623215079 ], [ 332664.823787586472463, 5536190.024676743894815 ], [ 332664.916721180663444, 5536190.086188147775829 ], [ 332665.008567098586354, 5536190.149312098510563 ], [ 332665.099297363078222, 5536190.214029367081821 ], [ 332665.188884336792398, 5536190.280320240184665 ], [ 332665.277300730755087, 5536190.348164525814354 ], [ 332665.364519612456206, 5536190.417541556991637 ], [ 332665.450514414114878, 5536190.488430201075971 ], [ 332665.535258940944914, 5536190.560808864422143 ], [ 332665.618727378896438, 5536190.634655500762165 ], [ 332665.700894302688539, 5536190.709947613999248 ], [ 332665.781734683550894, 5536190.786662271246314 ], [ 332665.861223896616139, 5536190.864776102825999 ], [ 332665.939337728719693, 5536190.944265316240489 ], [ 332666.016052385675721, 5536191.025105697102845 ], [ 332666.091344499436673, 5536191.107272621244192 ], [ 332666.165191135311034, 5536191.190741058439016 ], [ 332666.237569798890036, 5536191.275485585443676 ], [ 332666.308458442857955, 5536191.361480387859046 ], [ 332666.377835473977029, 5536191.44869926944375 ], [ 332666.445679759257473, 5536191.537115663290024 ], [ 332666.511970632651355, 5536191.626702636480331 ], [ 332666.576687901339028, 5536191.717432901263237 ], [ 332666.639811851840932, 5536191.809278818778694 ], [ 332666.701323256012984, 5536191.902212413027883 ], [ 332666.761203376750927, 5536191.996205375529826 ], [ 332666.819433974160347, 5536192.091229073703289 ], [ 332666.875997310504317, 5536192.187254563905299 ], [ 332666.930876156140584, 5536192.284252595156431 ], [ 332666.984053794411011, 5536192.382193621248007 ], [ 332667.035514026822057, 5536192.48104780819267 ], [ 332667.085241178167053, 5536192.580785043537617 ], [ 332667.133220101066399, 5536192.681374947540462 ], [ 332667.179436180682387, 5536192.782786878757179 ], [ 332667.223875339084771, 5536192.884989945217967 ], [ 332667.266524039732758, 5536192.98795301746577 ], [ 332667.307369291374926, 5536193.091644729487598 ], [ 332667.346398652240168, 5536193.196033496409655 ], [ 332667.38360023353016, 5536193.301087521016598 ], [ 332667.418962703261059, 5536193.406774803064764 ], [ 332667.452475289755967, 5536193.513063148595393 ], [ 332667.484127784729935, 5536193.619920180179179 ], [ 332667.513910546491388, 5536193.727313349954784 ], [ 332667.541814502968919, 5536193.835209944285452 ], [ 332667.567831154330634, 5536193.943577095866203 ], [ 332667.591952575661708, 5536194.052381795831025 ], [ 332667.614171419292688, 5536194.161590901203454 ], [ 332667.634480917244218, 5536194.271171146072447 ], [ 332667.652874882973265, 5536194.381089150905609 ], [ 332667.669347713468596, 5536194.491311433725059 ], [ 332667.683894391055219, 5536194.601804420351982 ], [ 332667.69651048455853, 5536194.712534451857209 ], [ 332667.707192151108757, 5536194.823467800393701 ], [ 332667.715936136839446, 5536194.934570673853159 ], [ 332667.722739778400864, 5536195.045809228904545 ], [ 332667.727601003192831, 5536195.15714958216995 ], [ 332667.730518330528866, 5536195.268557817675173 ], [ 332667.731490871694405, 5536195.379999999888241 ], [ 332667.730518330528866, 5536195.491442182101309 ], [ 332667.727601003192831, 5536195.602850417606533 ], [ 332667.722739778400864, 5536195.714190770871937 ], [ 332667.715936136839446, 5536195.825429325923324 ], [ 332667.707192151108757, 5536195.936532199382782 ], [ 332667.69651048455853, 5536196.047465547919273 ], [ 332667.683894391055219, 5536196.1581955794245 ], [ 332667.669347713468596, 5536196.268688566051424 ], [ 332667.652874882973265, 5536196.378910848870873 ], [ 332667.634480917244218, 5536196.488828853704035 ], [ 332667.614171419292688, 5536196.598409098573029 ], [ 332667.591952575661708, 5536196.707618203945458 ], [ 332667.567831154330634, 5536196.816422903910279 ], [ 332667.541814502968919, 5536196.92479005549103 ], [ 332667.513910546491388, 5536197.032686649821699 ], [ 332667.484127784729935, 5536197.140079819597304 ], [ 332667.452475289755967, 5536197.24693685118109 ], [ 332667.418962703261059, 5536197.353225196711719 ], [ 332667.38360023353016, 5536197.458912478759885 ], [ 332667.346398652240168, 5536197.563966503366828 ], [ 332667.307369291374926, 5536197.668355270288885 ], [ 332667.266524039732758, 5536197.772046982310712 ], [ 332667.223875339084771, 5536197.875010054558516 ], [ 332667.179436180682387, 5536197.977213121019304 ], [ 332667.133220101066399, 5536198.078625052236021 ], [ 332667.085241178167053, 5536198.179214956238866 ], [ 332667.035514026822057, 5536198.278952191583812 ], [ 332666.984053794411011, 5536198.377806378528476 ], [ 332666.930876156140584, 5536198.475747404620051 ], [ 332666.875997310504317, 5536198.572745435871184 ], [ 332666.819433974160347, 5536198.668770926073194 ], [ 332666.761203376750927, 5536198.763794624246657 ], [ 332666.701323256012984, 5536198.8577875867486 ], [ 332666.639811851840932, 5536198.950721180997789 ], [ 332666.576687901339028, 5536199.042567098513246 ], [ 332666.511970632651355, 5536199.133297363296151 ], [ 332666.445679759257473, 5536199.222884336486459 ], [ 332666.377835473977029, 5536199.311300730332732 ], [ 332666.308458442857955, 5536199.398519611917436 ], [ 332666.237569798890036, 5536199.484514414332807 ], [ 332666.165191135311034, 5536199.569258941337466 ], [ 332666.091344499436673, 5536199.65272737853229 ], [ 332666.016052385675721, 5536199.734894302673638 ], [ 332665.939337728719693, 5536199.815734683535993 ], [ 332665.861223896616139, 5536199.895223896950483 ], [ 332665.781734683550894, 5536199.973337728530169 ], [ 332665.700894302688539, 5536200.050052385777235 ], [ 332665.618727378896438, 5536200.125344499014318 ], [ 332665.535258940944914, 5536200.19919113535434 ], [ 332665.450514414114878, 5536200.271569798700511 ], [ 332665.364519612456206, 5536200.342458442784846 ], [ 332665.277300730755087, 5536200.411835473962128 ], [ 332665.188884336792398, 5536200.479679759591818 ], [ 332665.099297363078222, 5536200.545970632694662 ], [ 332665.008567098586354, 5536200.610687901265919 ], [ 332664.916721180663444, 5536200.673811852000654 ], [ 332664.823787586472463, 5536200.735323255881667 ], [ 332664.729794624552596, 5536200.795203376561403 ], [ 332664.634770925971679, 5536200.853433974087238 ], [ 332664.538745435886085, 5536200.909997310489416 ], [ 332664.441747404634953, 5536200.964876156300306 ], [ 332664.343806378718, 5536201.018053794279695 ], [ 332664.244952191947959, 5536201.069514026865363 ], [ 332664.145214956253767, 5536201.119241178035736 ], [ 332664.044625052600168, 5536201.16722010076046 ], [ 332663.943213121558074, 5536201.213436180725694 ], [ 332663.841010054282378, 5536201.257875339128077 ], [ 332663.738046982791275, 5536201.30052404012531 ], [ 332663.634355270536616, 5536201.341369291767478 ], [ 332663.529966503148898, 5536201.380398652516305 ], [ 332663.42491247842554, 5536201.417600234039128 ], [ 332663.319225196784828, 5536201.452962703071535 ], [ 332663.212936851661652, 5536201.486475289799273 ], [ 332663.10607981949579, 5536201.51812778506428 ], [ 332662.998686649953015, 5536201.547910546883941 ], [ 332662.8907900560298, 5536201.575814503245056 ], [ 332662.782422904099803, 5536201.601831154897809 ], [ 332662.673618203843944, 5536201.625952575355768 ], [ 332662.564409098238684, 5536201.648171419277787 ], [ 332662.454828853427898, 5536201.668480916880071 ], [ 332662.344910848536529, 5536201.686874883249402 ], [ 332662.234688565775286, 5536201.703347713686526 ], [ 332662.124195579905063, 5536201.717894391156733 ], [ 332662.01346554805059, 5536201.730510484427214 ], [ 332661.902532199746929, 5536201.741192150861025 ], [ 332661.791429326345678, 5536201.749936137348413 ], [ 332661.680190770886838, 5536201.756739778444171 ], [ 332661.568850417621434, 5536201.761601002886891 ], [ 332661.457442181999795, 5536201.764518330805004 ], [ 332661.346000000019558, 5536201.765490871854126 ] ] ] ] } },
{ "type": "Feature", "properties": { "fid": 10.0, "Text": null, "LOT_ID": 1.0, "area_m2": 10775.479703975185, "ESA1_pct": 0.0, "ESA2_pct": 0.01, "ESA3_pct": 99.98, "ESA4_pct": 0.0, "pct_LOT": 0.26888616730710202, "area": 10775.479703975185, "mean_slp": 8.42, "max_slp": 31.65, "p95_slp": 17.49, "slp_count": 10791 }, "geometry": { "type": "MultiPolygon", "coordinates": [ [ [ [ 332415.419056368584279, 5536356.884537795558572 ], [ 332431.584103663743008, 5536405.202820176258683 ], [ 332484.231425971491262, 5536381.068839001469314 ], [ 332513.248930319037754, 5536329.776328853331506 ], [ 332512.715625349082984, 5536324.290906304493546 ], [ 332495.387975476740394, 5536326.252706730738282 ], [ 332492.494074439513497, 5536279.553229968994856 ], [ 332479.103729898924939, 5536254.711351183243096 ], [ 332477.633063329791185, 5536215.348407652229071 ], [ 332440.195602481602691, 5536214.43636788520962 ], [ 332419.627675160416402, 5536292.567339324392378 ], [ 332449.832886056276038, 5536330.898241106420755 ], [ 332415.419056368584279, 5536356.884537795558572 ] ], [ [ 332456.619, 5536317.167247384786606 ], [ 332456.516288270649966, 5536317.166351033374667 ], [ 332456.413607828319073, 5536317.163662251085043 ], [ 332456.310989950376097, 5536317.159181857481599 ], [ 332456.20846589532448, 5536317.152911217883229 ], [ 332456.106066892913077, 5536317.144852241501212 ], [ 332456.003824134881143, 5536317.135007384233177 ], [ 332455.901768765412271, 5536317.123379643075168 ], [ 332455.799931871530134, 5536317.109972561709583 ], [ 332455.698344473727047, 5536317.094790223054588 ], [ 332455.597037516476121, 5536317.077837252989411 ], [ 332455.496041858918034, 5536317.059118813835084 ], [ 332455.395388265314978, 5536317.038640609011054 ], [ 332455.295107395679224, 5536317.016408875584602 ], [ 332455.195229796576314, 5536316.992430385202169 ], [ 332455.095785891637206, 5536316.966712443158031 ], [ 332454.996805972477887, 5536316.939262881875038 ], [ 332454.898320189327933, 5536316.91009006369859 ], [ 332454.800358541950118, 5536316.879202875308692 ], [ 332454.702950870327186, 5536316.846610723994672 ], [ 332454.606126845872495, 5536316.812323538586497 ], [ 332454.509915962058585, 5536316.776351763866842 ], [ 332454.414347525686026, 5536316.738706354983151 ], [ 332454.319450647803023, 5536316.699398781172931 ], [ 332454.225254234974273, 5536316.658441015519202 ], [ 332454.131786980258767, 5536316.61584553308785 ], [ 332454.03907735471148, 5536316.571625309996307 ], [ 332453.947153598594014, 5536316.52579381596297 ], [ 332453.856043712818064, 5536316.478365011513233 ], [ 332453.765775450214278, 5536316.429353344254196 ], [ 332453.676376307499595, 5536316.378773742355406 ], [ 332453.587873516487889, 5536316.326641614548862 ], [ 332453.500294035940897, 5536316.27297283988446 ], [ 332453.413664543419145, 5536316.217783766798675 ], [ 332453.328011427132878, 5536316.161091205663979 ], [ 332453.243360777909402, 5536316.102912425994873 ], [ 332453.159738381044008, 5536316.043265149928629 ], [ 332453.077169708732981, 5536315.982167546637356 ], [ 332452.99567991233198, 5536315.919638226740062 ], [ 332452.915293814265169, 5536315.855696236714721 ], [ 332452.836035900982097, 5536315.79036105517298 ], [ 332452.75793031527428, 5536315.723652583546937 ], [ 332452.681000848708209, 5536315.655591140501201 ], [ 332452.605270934873261, 5536315.586197460070252 ], [ 332452.530763641814701, 5536315.515492678619921 ], [ 332452.457501665106975, 5536315.443498334847391 ], [ 332452.385507321159821, 5536315.370236357674003 ], [ 332452.314802540058736, 5536315.295729064382613 ], [ 332452.245408859220333, 5536315.219999151304364 ], [ 332452.177347416582052, 5536315.143069684505463 ], [ 332452.110638944373932, 5536315.064964098855853 ], [ 332452.04530376259936, 5536314.985706184990704 ], [ 332451.98136177303968, 5536314.905320087447762 ], [ 332451.918832452967763, 5536314.823830290697515 ], [ 332451.857734849443659, 5536314.741261618211865 ], [ 332451.798087573493831, 5536314.657639222219586 ], [ 332451.739908794115763, 5536314.572988572530448 ], [ 332451.68321623315569, 5536314.48733545653522 ], [ 332451.628027159778867, 5536314.400705963373184 ], [ 332451.574358385056257, 5536314.313126483000815 ], [ 332451.52222625707509, 5536314.22462369222194 ], [ 332451.47164665570017, 5536314.135224549099803 ], [ 332451.422634988091886, 5536314.044956286437809 ], [ 332451.375206183525734, 5536313.953846401534975 ], [ 332451.329374689434189, 5536313.861922645010054 ], [ 332451.285154466400854, 5536313.769213019870222 ], [ 332451.242558984376956, 5536313.675745764747262 ], [ 332451.20160121837398, 5536313.581549352034926 ], [ 332451.162293644563761, 5536313.486652473919094 ], [ 332451.124648236320354, 5536313.391084037721157 ], [ 332451.088676460843999, 5536313.294873153790832 ], [ 332451.054389275552239, 5536313.198049128986895 ], [ 332451.021797124529257, 5536313.100641457363963 ], [ 332450.990909935731906, 5536313.00267980992794 ], [ 332450.961737117730081, 5536312.90419402718544 ], [ 332450.934287556796335, 5536312.805214107967913 ], [ 332450.908569614286534, 5536312.70577020291239 ], [ 332450.884591124253348, 5536312.605892604216933 ], [ 332450.862359390710481, 5536312.505611734464765 ], [ 332450.841881185595412, 5536312.404958141036332 ], [ 332450.823162746906746, 5536312.303962483070791 ], [ 332450.806209776375908, 5536312.202655525878072 ], [ 332450.791027438011952, 5536312.101068127900362 ], [ 332450.777620356588159, 5536311.999231234192848 ], [ 332450.765992616012227, 5536311.897175864316523 ], [ 332450.756147758162115, 5536311.79493310675025 ], [ 332450.748088781896513, 5536311.692534103989601 ], [ 332450.741818142065313, 5536311.590010048821568 ], [ 332450.737337748752907, 5536311.487392171286047 ], [ 332450.734648966754321, 5536311.384711729362607 ], [ 332450.733752615051344, 5536311.281999999657273 ], [ 332450.734648966754321, 5536311.17928826995194 ], [ 332450.737337748752907, 5536311.0766078280285 ], [ 332450.741818142065313, 5536310.973989950492978 ], [ 332450.748088781896513, 5536310.871465895324945 ], [ 332450.756147758162115, 5536310.769066892564297 ], [ 332450.765992616012227, 5536310.666824134998024 ], [ 332450.777620356588159, 5536310.564768765121698 ], [ 332450.791027438011952, 5536310.462931871414185 ], [ 332450.806209776375908, 5536310.361344473436475 ], [ 332450.823162746906746, 5536310.260037516243756 ], [ 332450.841881185595412, 5536310.159041858278215 ], [ 332450.862359390710481, 5536310.058388264849782 ], [ 332450.884591124253348, 5536309.958107395097613 ], [ 332450.908569614286534, 5536309.858229796402156 ], [ 332450.934287556796335, 5536309.758785891346633 ], [ 332450.961737117730081, 5536309.659805972129107 ], [ 332450.990909935731906, 5536309.561320189386606 ], [ 332451.021797124529257, 5536309.463358541950583 ], [ 332451.054389275552239, 5536309.365950870327652 ], [ 332451.088676460843999, 5536309.269126845523715 ], [ 332451.124648236320354, 5536309.17291596159339 ], [ 332451.162293644563761, 5536309.077347525395453 ], [ 332451.20160121837398, 5536308.98245064727962 ], [ 332451.242558984376956, 5536308.888254234567285 ], [ 332451.285154466400854, 5536308.794786979444325 ], [ 332451.329374689434189, 5536308.702077354304492 ], [ 332451.375206183525734, 5536308.610153597779572 ], [ 332451.422634988091886, 5536308.519043712876737 ], [ 332451.47164665570017, 5536308.428775450214744 ], [ 332451.52222625707509, 5536308.339376307092607 ], [ 332451.574358385056257, 5536308.250873516313732 ], [ 332451.628027159778867, 5536308.163294035941362 ], [ 332451.68321623315569, 5536308.076664542779326 ], [ 332451.739908794115763, 5536307.991011426784098 ], [ 332451.798087573493831, 5536307.90636077709496 ], [ 332451.857734849443659, 5536307.822738381102681 ], [ 332451.918832452967763, 5536307.740169708617032 ], [ 332451.98136177303968, 5536307.658679911866784 ], [ 332452.04530376259936, 5536307.578293814323843 ], [ 332452.110638944373932, 5536307.499035900458694 ], [ 332452.177347416582052, 5536307.420930314809084 ], [ 332452.245408859220333, 5536307.344000848010182 ], [ 332452.314802540058736, 5536307.268270934931934 ], [ 332452.385507321159821, 5536307.193763641640544 ], [ 332452.457501665106975, 5536307.120501664467156 ], [ 332452.530763641814701, 5536307.048507320694625 ], [ 332452.605270934873261, 5536306.977802539244294 ], [ 332452.681000848708209, 5536306.908408858813345 ], [ 332452.75793031527428, 5536306.84034741576761 ], [ 332452.836035900982097, 5536306.773638944141567 ], [ 332452.915293814265169, 5536306.708303762599826 ], [ 332452.99567991233198, 5536306.644361772574484 ], [ 332453.077169708732981, 5536306.58183245267719 ], [ 332453.159738381044008, 5536306.520734849385917 ], [ 332453.243360777909402, 5536306.461087573319674 ], [ 332453.328011427132878, 5536306.402908793650568 ], [ 332453.413664543419145, 5536306.346216232515872 ], [ 332453.500294035940897, 5536306.291027159430087 ], [ 332453.587873516487889, 5536306.237358384765685 ], [ 332453.676376307499595, 5536306.18522625695914 ], [ 332453.765775450214278, 5536306.134646655060351 ], [ 332453.856043712818064, 5536306.085634987801313 ], [ 332453.947153598594014, 5536306.038206183351576 ], [ 332454.03907735471148, 5536305.99237468931824 ], [ 332454.131786980258767, 5536305.948154466226697 ], [ 332454.225254234974273, 5536305.905558983795345 ], [ 332454.319450647803023, 5536305.864601218141615 ], [ 332454.414347525686026, 5536305.825293644331396 ], [ 332454.509915962058585, 5536305.787648235447705 ], [ 332454.606126845872495, 5536305.751676460728049 ], [ 332454.702950870327186, 5536305.717389275319874 ], [ 332454.800358541950118, 5536305.684797124005854 ], [ 332454.898320189327933, 5536305.653909935615957 ], [ 332454.996805972477887, 5536305.624737117439508 ], [ 332455.095785891637206, 5536305.597287556156516 ], [ 332455.195229796576314, 5536305.571569614112377 ], [ 332455.295107395679224, 5536305.547591123729944 ], [ 332455.395388265314978, 5536305.525359390303493 ], [ 332455.496041858918034, 5536305.504881185479462 ], [ 332455.597037516476121, 5536305.486162746325135 ], [ 332455.698344473727047, 5536305.469209776259959 ], [ 332455.799931871530134, 5536305.454027437604964 ], [ 332455.901768765412271, 5536305.440620356239378 ], [ 332456.003824134881143, 5536305.42899261508137 ], [ 332456.106066892913077, 5536305.419147757813334 ], [ 332456.20846589532448, 5536305.411088781431317 ], [ 332456.310989950376097, 5536305.404818141832948 ], [ 332456.413607828319073, 5536305.400337748229504 ], [ 332456.516288270649966, 5536305.397648965939879 ], [ 332456.619, 5536305.396752614527941 ], [ 332456.721711729362141, 5536305.397648965939879 ], [ 332456.824392171693034, 5536305.400337748229504 ], [ 332456.92701004963601, 5536305.404818141832948 ], [ 332457.029534104687627, 5536305.411088781431317 ], [ 332457.13193310709903, 5536305.419147757813334 ], [ 332457.234175865130965, 5536305.42899261508137 ], [ 332457.336231234599836, 5536305.440620356239378 ], [ 332457.438068128481973, 5536305.454027437604964 ], [ 332457.53965552628506, 5536305.469209776259959 ], [ 332457.640962483535986, 5536305.486162746325135 ], [ 332457.741958141094074, 5536305.504881185479462 ], [ 332457.84261173469713, 5536305.525359390303493 ], [ 332457.942892604332883, 5536305.547591123729944 ], [ 332458.042770203435794, 5536305.571569614112377 ], [ 332458.142214108374901, 5536305.597287556156516 ], [ 332458.24119402753422, 5536305.624737117439508 ], [ 332458.339679810684174, 5536305.653909935615957 ], [ 332458.437641458061989, 5536305.684797124005854 ], [ 332458.535049129684921, 5536305.717389275319874 ], [ 332458.631873154139612, 5536305.751676460728049 ], [ 332458.728084037953522, 5536305.787648235447705 ], [ 332458.823652474326082, 5536305.825293644331396 ], [ 332458.918549352209084, 5536305.864601218141615 ], [ 332459.012745765037835, 5536305.905558983795345 ], [ 332459.106213019753341, 5536305.948154466226697 ], [ 332459.198922645300627, 5536305.99237468931824 ], [ 332459.290846401418094, 5536306.038206183351576 ], [ 332459.381956287194043, 5536306.085634987801313 ], [ 332459.472224549797829, 5536306.134646655060351 ], [ 332459.561623692512512, 5536306.18522625695914 ], [ 332459.650126483524218, 5536306.237358384765685 ], [ 332459.73770596407121, 5536306.291027159430087 ], [ 332459.824335456592962, 5536306.346216232515872 ], [ 332459.909988572879229, 5536306.402908793650568 ], [ 332459.994639222102705, 5536306.461087573319674 ], [ 332460.078261618968099, 5536306.520734849385917 ], [ 332460.160830291279126, 5536306.58183245267719 ], [ 332460.242320087680127, 5536306.644361772574484 ], [ 332460.322706185746938, 5536306.708303762599826 ], [ 332460.40196409903001, 5536306.773638944141567 ], [ 332460.480069684737828, 5536306.84034741576761 ], [ 332460.556999151303899, 5536306.908408858813345 ], [ 332460.632729065138847, 5536306.977802539244294 ], [ 332460.707236358197406, 5536307.048507320694625 ], [ 332460.780498334905133, 5536307.120501664467156 ], [ 332460.852492678852286, 5536307.193763641640544 ], [ 332460.923197459953371, 5536307.268270934931934 ], [ 332460.992591140791774, 5536307.344000848010182 ], [ 332461.060652583430056, 5536307.420930314809084 ], [ 332461.127361055638175, 5536307.499035900458694 ], [ 332461.192696237412747, 5536307.578293814323843 ], [ 332461.256638226972427, 5536307.658679911866784 ], [ 332461.319167547044344, 5536307.740169708617032 ], [ 332461.380265150568448, 5536307.822738381102681 ], [ 332461.439912426518276, 5536307.90636077709496 ], [ 332461.498091205896344, 5536307.991011426784098 ], [ 332461.554783766856417, 5536308.076664542779326 ], [ 332461.60997284023324, 5536308.163294035941362 ], [ 332461.66364161495585, 5536308.250873516313732 ], [ 332461.715773742937017, 5536308.339376307092607 ], [ 332461.766353344311938, 5536308.428775450214744 ], [ 332461.815365011920221, 5536308.519043712876737 ], [ 332461.862793816486374, 5536308.610153597779572 ], [ 332461.908625310577918, 5536308.702077354304492 ], [ 332461.952845533611253, 5536308.794786979444325 ], [ 332461.995441015635151, 5536308.888254234567285 ], [ 332462.036398781638127, 5536308.98245064727962 ], [ 332462.075706355448347, 5536309.077347525395453 ], [ 332462.113351763691753, 5536309.17291596159339 ], [ 332462.149323539168108, 5536309.269126845523715 ], [ 332462.183610724459868, 5536309.365950870327652 ], [ 332462.21620287548285, 5536309.463358541950583 ], [ 332462.247090064280201, 5536309.561320189386606 ], [ 332462.276262882282026, 5536309.659805972129107 ], [ 332462.303712443215773, 5536309.758785891346633 ], [ 332462.329430385725573, 5536309.858229796402156 ], [ 332462.35340887575876, 5536309.958107395097613 ], [ 332462.375640609301627, 5536310.058388264849782 ], [ 332462.396118814416695, 5536310.159041858278215 ], [ 332462.414837253105361, 5536310.260037516243756 ], [ 332462.431790223636199, 5536310.361344473436475 ], [ 332462.446972562000155, 5536310.462931871414185 ], [ 332462.460379643423948, 5536310.564768765121698 ], [ 332462.47200738399988, 5536310.666824134998024 ], [ 332462.481852241849992, 5536310.769066892564297 ], [ 332462.489911218115594, 5536310.871465895324945 ], [ 332462.496181857946794, 5536310.973989950492978 ], [ 332462.5006622512592, 5536311.0766078280285 ], [ 332462.503351033257786, 5536311.17928826995194 ], [ 332462.504247384960763, 5536311.281999999657273 ], [ 332462.503351033257786, 5536311.384711729362607 ], [ 332462.5006622512592, 5536311.487392171286047 ], [ 332462.496181857946794, 5536311.590010048821568 ], [ 332462.489911218115594, 5536311.692534103989601 ], [ 332462.481852241849992, 5536311.79493310675025 ], [ 332462.47200738399988, 5536311.897175864316523 ], [ 332462.460379643423948, 5536311.999231234192848 ], [ 332462.446972562000155, 5536312.101068127900362 ], [ 332462.431790223636199, 5536312.202655525878072 ], [ 332462.414837253105361, 5536312.303962483070791 ], [ 332462.396118814416695, 5536312.404958141036332 ], [ 332462.375640609301627, 5536312.505611734464765 ], [ 332462.35340887575876, 5536312.605892604216933 ], [ 332462.329430385725573, 5536312.70577020291239 ], [ 332462.303712443215773, 5536312.805214107967913 ], [ 332462.276262882282026, 5536312.90419402718544 ], [ 332462.247090064280201, 5536313.00267980992794 ], [ 332462.21620287548285, 5536313.100641457363963 ], [ 332462.183610724459868, 5536313.198049128986895 ], [ 332462.149323539168108, 5536313.294873153790832 ], [ 332462.113351763691753, 5536313.391084037721157 ], [ 332462.075706355448347, 5536313.486652473919094 ], [ 332462.036398781638127, 5536313.581549352034926 ], [ 332461.995441015635151, 5536313.675745764747262 ], [ 332461.952845533611253, 5536313.769213019870222 ], [ 332461.908625310577918, 5536313.861922645010054 ], [ 332461.862793816486374, 5536313.953846401534975 ], [ 332461.815365011920221, 5536314.044956286437809 ], [ 332461.766353344311938, 5536314.135224549099803 ], [ 332461.715773742937017, 5536314.22462369222194 ], [ 332461.66364161495585, 5536314.313126483000815 ], [ 332461.60997284023324, 5536314.400705963373184 ], [ 332461.554783766856417, 5536314.48733545653522 ], [ 332461.498091205896344, 5536314.572988572530448 ], [ 332461.439912426518276, 5536314.657639222219586 ], [ 332461.380265150568448, 5536314.741261618211865 ], [ 332461.319167547044344, 5536314.823830290697515 ], [ 332461.256638226972427, 5536314.905320087447762 ], [ 332461.192696237412747, 5536314.985706184990704 ], [ 332461.127361055638175, 5536315.064964098855853 ], [ 332461.060652583430056, 5536315.143069684505463 ], [ 332460.992591140791774, 5536315.219999151304364 ], [ 332460.923197459953371, 5536315.295729064382613 ], [ 332460.852492678852286, 5536315.370236357674003 ], [ 332460.780498334905133, 5536315.443498334847391 ], [ 332460.707236358197406, 5536315.515492678619921 ], [ 332460.632729065138847, 5536315.586197460070252 ], [ 332460.556999151303899, 5536315.655591140501201 ], [ 332460.480069684737828, 5536315.723652583546937 ], [ 332460.40196409903001, 5536315.79036105517298 ], [ 332460.322706185746938, 5536315.855696236714721 ], [ 332460.242320087680127, 5536315.919638226740062 ], [ 332460.160830291279126, 5536315.982167546637356 ], [ 332460.078261618968099, 5536316.043265149928629 ], [ 332459.994639222102705, 5536316.102912425994873 ], [ 332459.909988572879229, 5536316.161091205663979 ], [ 332459.824335456592962, 5536316.217783766798675 ], [ 332459.73770596407121, 5536316.27297283988446 ], [ 332459.650126483524218, 5536316.326641614548862 ], [ 332459.561623692512512, 5536316.378773742355406 ], [ 332459.472224549797829, 5536316.429353344254196 ], [ 332459.381956287194043, 5536316.478365011513233 ], [ 332459.290846401418094, 5536316.52579381596297 ], [ 332459.198922645300627, 5536316.571625309996307 ], [ 332459.106213019753341, 5536316.61584553308785 ], [ 332459.012745765037835, 5536316.658441015519202 ], [ 332458.918549352209084, 5536316.699398781172931 ], [ 332458.823652474326082, 5536316.738706354983151 ], [ 332458.728084037953522, 5536316.776351763866842 ], [ 332458.631873154139612, 5536316.812323538586497 ], [ 332458.535049129684921, 5536316.846610723994672 ], [ 332458.437641458061989, 5536316.879202875308692 ], [ 332458.339679810684174, 5536316.91009006369859 ], [ 332458.24119402753422, 5536316.939262881875038 ], [ 332458.142214108374901, 5536316.966712443158031 ], [ 332458.042770203435794, 5536316.992430385202169 ], [ 332457.942892604332883, 5536317.016408875584602 ], [ 332457.84261173469713, 5536317.038640609011054 ], [ 332457.741958141094074, 5536317.059118813835084 ], [ 332457.640962483535986, 5536317.077837252989411 ], [ 332457.53965552628506, 5536317.094790223054588 ], [ 332457.438068128481973, 5536317.109972561709583 ], [ 332457.336231234599836, 5536317.123379643075168 ], [ 332457.234175865130965, 5536317.135007384233177 ], [ 332457.13193310709903, 5536317.144852241501212 ], [ 332457.029534104687627, 5536317.152911217883229 ], [ 332456.92701004963601, 5536317.159181857481599 ], [ 332456.824392171693034, 5536317.163662251085043 ], [ 332456.721711729362141, 5536317.166351033374667 ], [ 332456.619, 5536317.167247384786606 ] ] ] ] } }
]
}
