{
"type": "FeatureCollection",
"name": "BNDRY_4",
"crs": { "type": "name", "properties": { "name": "urn:ogc:def:crs:EPSG::2955" } },
"features": [
{ "type": "Feature", "properties": { "fid": 1, "total area": 430803, "area_m2": 430803, "CE_total_area": 89572.780400317541, "pct_CE_in_BNDRY": 20.792050295272787, "SRW_total_area": 44518.896014474332, "pct_SRW_in_BNDRY": 10.335083401980951, "CRK_total_area": 43382.115455508232, "pct_CRK_in_BNDRY": 10.071179241310718, "CE+SRW_area": 134091.67641479187, "pct_SRW+CE": 0.31125984827123271, "CE_ANY_m2": 89572.77643354403, "CE_1_0_m2": 0.0, "CE_2_0_m2": 17708.174158712543, "CE_3_0_m2": 63149.551200000613, "CE_4_0_m2": 8715.051429838526, "mean_slp": 12.69, "max_slp": 67.03, "p95_slp": 26.57, "slp_count": 431048 }, "geometry": { "type": "MultiPolygon", "coordinates": [ [ [ [ 332497.751847655978054, 5536974.782712592743337 ], [ 332843.39316159900045, 5536956.693074543960392 ], [ 332864.371146872697864, 5536913.579688723199069 ], [ 332863.144954584480729, 5536870.448916063643992 ], [ 332880.116708219924476, 5536842.520231992006302 ], [ 332854.008297917607706, 5536141.176365149207413 ], [ 332236.247260871925391, 5536171.251678504049778 ], [ 332252.483311788120773, 5536558.387604873627424 ], [ 332381.399774653022178, 5536608.443536713719368 ], [ 332497.751847655978054, 5536974.782712592743337 ] ] ] ] } }
]
}
