{
"type": "FeatureCollection",
"name": "CE_14",
"crs": { "type": "name", "properties": { "name": "urn:ogc:def:crs:EPSG::2955" } },
"features": [
{ "type": "Feature", "properties": { "fid": 2.0, "LOT_ID": 9.0, "area_m2": 11641.198809906607, "ESA1_pct": 0.0, "ESA2_pct": 0.0, "ESA3_pct": 99.99, "ESA4_pct": 0.0, "pct_LOT": 0.28696805847194201, "area": 11641.198809906607, "LOT_ID_REF": "9", "ESA2_AREA_": 10010.76, "ESA2_IN_CE": 0.0, "ESA2_CE_RA": 0.0, "mean_slp": 12.96, "max_slp": 35.72, "p95_slp": 17.39, "slp_count": 11647, "CE": "LOT 9 CE", "Layer": "CE" }, "geometry": { "type": "MultiPolygon", "coordinates": [ [ [ [ 332597.626715728314593, 5536156.548034775070846 ], [ 332597.754023106186651, 5536157.116476966068149 ], [ 332597.888678129180335, 5536157.683223571628332 ], [ 332598.030658233095892, 5536158.248179624788463 ], [ 332598.179939625610132, 5536158.811250451952219 ], [ 332598.336497291573323, 5536159.372341699898243 ], [ 332598.500304996210616, 5536159.931359344162047 ], [ 332598.671335290011484, 5536160.488209710456431 ], [ 332598.849559512804262, 5536161.042799484916031 ], [ 332599.034947799402289, 5536161.59503573179245 ], [ 332599.227469083678443, 5536162.144825915805995 ], [ 332599.427091104676947, 5536162.692077906802297 ], [ 332599.633780411211774, 5536163.236699998378754 ], [ 332599.847502367570996, 5536163.778600925579667 ], [ 332600.068221160385292, 5536164.317689885385334 ], [ 332600.295899803109933, 5536164.853876537643373 ], [ 332600.530500143009704, 5536165.387071034871042 ], [ 332600.771982867794577, 5536165.917184026911855 ], [ 332601.020307511615101, 5536166.444126684218645 ], [ 332601.275432462105528, 5536166.967810701578856 ], [ 332601.537314967485145, 5536167.488148326054215 ], [ 332601.805911143484991, 5536168.005052366293967 ], [ 332602.08117598091485, 5536168.518436198122799 ], [ 332602.363063352997415, 5536169.028213798068464 ], [ 332602.651526023226324, 5536169.534299738705158 ], [ 332602.946515653282404, 5536170.036609213799238 ], [ 332603.247982811182737, 5536170.535058053210378 ], [ 332603.555876979313325, 5536171.029562724754214 ], [ 332603.870146563276649, 5536171.520040369592607 ], [ 332604.19073890009895, 5536172.006408794783056 ], [ 332604.517600267601665, 5536172.488586498424411 ], [ 332604.850675892608706, 5536172.966492680832744 ], [ 332605.189909961307421, 5536173.440047257579863 ], [ 332605.535245627223048, 5536173.909170877188444 ], [ 332605.886625021812506, 5536174.373784922994673 ], [ 332606.243989263486583, 5536174.833811542019248 ], [ 332606.607278468203731, 5536175.289173644967377 ], [ 332606.976431758608669, 5536175.739794925786555 ], [ 332607.3513872748008, 5536176.185599874705076 ], [ 332607.732082184928004, 5536176.626513784751296 ], [ 332608.118452695023734, 5536177.062462773174047 ], [ 332608.51043405989185, 5536177.493373786099255 ], [ 332608.907960594573524, 5536177.919174614362419 ], [ 332609.310965684708208, 5536178.339793905615807 ], [ 332609.719381797825918, 5536178.755161178298295 ], [ 332610.133140494581312, 5536179.165206822566688 ], [ 332610.552172440686263, 5536179.569862133823335 ], [ 332610.976407418085728, 5536179.96905929595232 ], [ 332629.34681862272555, 5536197.032440821640193 ], [ 332656.384761956345756, 5536209.050879500806332 ], [ 332817.678045058215503, 5536203.094405559822917 ], [ 332810.986780337523669, 5536143.2708410769701 ], [ 332597.101096888480242, 5536153.683733061887324 ], [ 332597.19137078919448, 5536154.259219217114151 ], [ 332597.289086619683076, 5536154.833488585427403 ], [ 332597.39422800578177, 5536155.40644493792206 ], [ 332597.506777328671888, 5536155.977992258965969 ], [ 332597.626715728314593, 5536156.548034775070846 ] ] ] ] } },
{ "type": "Feature", "properties": { "fid": 5.0, "LOT_ID": 3.0, "area_m2": 13247.407420963049, "ESA1_pct": 0.0, "ESA2_pct": 8.73, "ESA3_pct": 91.26, "ESA4_pct": 0.0, "pct_LOT": 0.33061314267874797, "area": 13247.407420963049, "LOT_ID_REF": "3", "ESA2_AREA_": 6237.15, "ESA2_IN_CE": 1156.23, "ESA2_CE_RA": 0.1854, "mean_slp": 9.33, "max_slp": 39.18, "p95_slp": 18.68, "slp_count": 13243, "CE": "LOT 3 CE", "Layer": "CE" }, "geometry": { "type": "MultiPolygon", "coordinates": [ [ [ [ 332594.531354659295175, 5536404.086095130071044 ], [ 332594.076540056208614, 5536403.57037821225822 ], [ 332553.494946909369901, 5536466.479016283527017 ], [ 332472.218170771375299, 5536433.86922147590667 ], [ 332460.776102410280146, 5536438.162136439234018 ], [ 332460.165333320735954, 5536579.71270746178925 ], [ 332484.725629794993438, 5536555.386318575590849 ], [ 332549.333481667330489, 5536555.376544862054288 ], [ 332596.492090376152191, 5536528.117582916282117 ], [ 332567.498210823745467, 5536472.578481680713594 ], [ 332599.521639412501827, 5536410.649768376722932 ], [ 332599.139898869616445, 5536410.077846689149737 ], [ 332598.751787744578905, 5536409.51022884529084 ], [ 332598.357354555511847, 5536408.946985805407166 ], [ 332597.956648610474076, 5536408.388187984004617 ], [ 332597.549720001989044, 5536407.833905232138932 ], [ 332597.136619600292761, 5536407.284206843003631 ], [ 332596.717399046989158, 5536406.739161533303559 ], [ 332596.292110749403946, 5536406.198837442323565 ], [ 332595.860807872493751, 5536405.663302112370729 ], [ 332595.423544333898462, 5536405.132622490637004 ], [ 332594.980374795908574, 5536404.606864921748638 ], [ 332594.531354659295175, 5536404.086095130071044 ] ] ] ] } },
{ "type": "Feature", "properties": { "fid": 6.0, "LOT_ID": 4.0, "area_m2": 11913.155720965704, "ESA1_pct": 0.0, "ESA2_pct": 23.47, "ESA3_pct": 10.41, "ESA4_pct": 66.11, "pct_LOT": 0.29677083016802203, "area": 11913.155720965704, "LOT_ID_REF": "4", "ESA2_AREA_": 12527.05, "ESA2_IN_CE": 2446.91, "ESA2_CE_RA": 0.1953, "mean_slp": 8.39, "max_slp": 62.72, "p95_slp": 23.47, "slp_count": 11923, "CE": "LOT 4 CE", "Layer": "CE" }, "geometry": { "type": "MultiPolygon", "coordinates": [ [ [ [ 332604.96499976341147, 5536688.231738617643714 ], [ 332632.587915713374969, 5536635.916987435892224 ], [ 332629.716370308131445, 5536549.126272844150662 ], [ 332622.125415688904468, 5536513.267696663737297 ], [ 332617.648519924492575, 5536515.861249863170087 ], [ 332619.927263936493546, 5536583.624246172606945 ], [ 332609.326874038786627, 5536589.277778988704085 ], [ 332561.478325845615473, 5536548.401740910485387 ], [ 332549.333481667330489, 5536555.376544862054288 ], [ 332568.775645588873886, 5536600.455093510448933 ], [ 332518.300306703255046, 5536643.919792684726417 ], [ 332538.887848548940383, 5536679.909168950282037 ], [ 332517.360229429032188, 5536697.382742564193904 ], [ 332563.44391400332097, 5536720.401561620645225 ], [ 332604.96499976341147, 5536688.231738617643714 ] ] ] ] } },
{ "type": "Feature", "properties": { "fid": 7.0, "LOT_ID": 6.0, "area_m2": 10120.292911891825, "ESA1_pct": 0.0, "ESA2_pct": 20.39, "ESA3_pct": 79.6, "ESA4_pct": 0.0, "pct_LOT": 0.25282793075131799, "area": 10120.292911891825, "LOT_ID_REF": "6", "ESA2_AREA_": 28166.42, "ESA2_IN_CE": 2063.54, "ESA2_CE_RA": 0.0733, "mean_slp": 6.64, "max_slp": 25.29, "p95_slp": 12.54, "slp_count": 10115, "CE": "LOT 6 CE", "Layer": "CE" }, "geometry": { "type": "MultiPolygon", "coordinates": [ [ [ [ 332739.820378596195951, 5536800.848663435317576 ], [ 332727.372647902520839, 5536788.404029250144958 ], [ 332726.815560461604036, 5536787.841724250465631 ], [ 332726.263880190090276, 5536787.27411328535527 ], [ 332725.717657622182742, 5536786.701248347759247 ], [ 332725.176942792080808, 5536786.123181914910674 ], [ 332724.641785229672678, 5536785.539966936223209 ], [ 332724.112233955413103, 5536784.951656832359731 ], [ 332723.588337476481684, 5536784.358305495232344 ], [ 332723.070143782300875, 5536783.759967275895178 ], [ 332722.557700339297298, 5536783.156696982681751 ], [ 332722.051054087816738, 5536782.548549873754382 ], [ 332721.550251436827239, 5536781.935581658035517 ], [ 332721.055338259902783, 5536781.317848482169211 ], [ 332720.566359891497996, 5536780.695406929589808 ], [ 332720.08336112217512, 5536780.068314019590616 ], [ 332719.606386195111554, 5536779.436627192422748 ], [ 332719.13547880097758, 5536778.80040431022644 ], [ 332718.670682075608056, 5536778.159703652374446 ], [ 332718.212038594181649, 5536777.514583907090127 ], [ 332717.759590369008947, 5536776.865104166790843 ], [ 332717.313378844119143, 5536776.211323924362659 ], [ 332716.873444893222768, 5536775.553303066641092 ], [ 332716.439828814007342, 5536774.891101870685816 ], [ 332716.056543813960161, 5536774.259651224128902 ], [ 332631.430694228969514, 5536839.905805034562945 ], [ 332655.493982081825379, 5536867.33987551368773 ], [ 332762.325967861921526, 5536881.495051621459424 ], [ 332765.808652970648836, 5536930.680341311730444 ], [ 332777.115734326594975, 5536884.326812781393528 ], [ 332812.104451618215535, 5536888.234988752752542 ], [ 332825.836933316721115, 5536860.41495249979198 ], [ 332766.537538544274867, 5536852.273795145563781 ], [ 332733.076286531402729, 5536826.921537352725863 ], [ 332749.530325526313391, 5536809.787962510250509 ], [ 332749.183680269517936, 5536809.563690210692585 ], [ 332748.841208538680803, 5536809.333095086738467 ], [ 332748.503025648475159, 5536809.096254780888557 ], [ 332748.169245469325688, 5536808.853249040432274 ], [ 332747.839980389573611, 5536808.604159690439701 ], [ 332747.515341277176049, 5536808.349070601165295 ], [ 332747.195437442103866, 5536808.088067661039531 ], [ 332746.880376600427553, 5536807.821238758042455 ], [ 332746.570264836889692, 5536807.548673734068871 ], [ 332746.265206570620649, 5536807.270464367233217 ], [ 332745.965304518409539, 5536806.986704333685338 ], [ 332745.67065966129303, 5536806.697489179670811 ], [ 332739.820378596195951, 5536800.848663435317576 ] ] ] ] } },
{ "type": "Feature", "properties": { "fid": 8.0, "LOT_ID": 5.0, "area_m2": 13730.852328163101, "ESA1_pct": 0.0, "ESA2_pct": 18.12, "ESA3_pct": 79.8, "ESA4_pct": 2.07, "pct_LOT": 0.34206650835276597, "area": 13730.852328163101, "LOT_ID_REF": "5", "ESA2_AREA_": 16932.47, "ESA2_IN_CE": 2488.1, "ESA2_CE_RA": 0.1469, "mean_slp": 6.29, "max_slp": 36.88, "p95_slp": 15.15, "slp_count": 13736, "CE": "LOT 5 CE", "Layer": "CE" }, "geometry": { "type": "MultiPolygon", "coordinates": [ [ [ [ 332705.38491384300869, 5536674.240495805628598 ], [ 332705.35552720958367, 5536673.723048763349652 ], [ 332705.318481639784295, 5536673.206093598157167 ], [ 332705.273785257188138, 5536672.68974366877228 ], [ 332705.221447862684727, 5536672.174112197943032 ], [ 332705.161480932671111, 5536671.659312252886593 ], [ 332705.093897616490722, 5536671.145456714555621 ], [ 332705.018712733872235, 5536670.632658266462386 ], [ 332704.935942770913243, 5536670.12102934718132 ], [ 332704.845605877228081, 5536669.610682150349021 ], [ 332704.747721861582249, 5536669.101728580892086 ], [ 332704.642312188108917, 5536668.594280241988599 ], [ 332704.529399970488157, 5536668.088448404334486 ], [ 332704.409009967988823, 5536667.584343985654414 ], [ 332704.281168579414953, 5536667.082077527418733 ], [ 332704.145903837285005, 5536666.581759162247181 ], [ 332704.00324540247675, 5536666.083498600870371 ], [ 332703.853224556485657, 5536665.587405098602176 ], [ 332703.695874195778742, 5536665.093587440438569 ], [ 332703.531228823587298, 5536664.602153905667365 ], [ 332703.359324542980175, 5536664.113212257623672 ], [ 332703.18019904877292, 5536663.626869710162282 ], [ 332702.993891618971247, 5536663.143232906237245 ], [ 332665.479917511926033, 5536713.476303420960903 ], [ 332604.96499976341147, 5536688.231738617643714 ], [ 332563.44391400332097, 5536720.401561620645225 ], [ 332607.949710558110382, 5536811.757282393053174 ], [ 332594.098237525613513, 5536837.261054238304496 ], [ 332607.360101707512513, 5536858.577899042516947 ], [ 332631.430694228969514, 5536839.905805034562945 ], [ 332675.160651917394716, 5536805.98350419383496 ], [ 332704.991590623976663, 5536681.472819273360074 ], [ 332705.069340595393442, 5536680.960403465665877 ], [ 332705.139494384988211, 5536680.44689254835248 ], [ 332705.202036609582137, 5536679.932399120181799 ], [ 332705.256953554984648, 5536679.417035999707878 ], [ 332705.304233179485891, 5536678.900916194543242 ], [ 332705.343865115486551, 5536678.384152879007161 ], [ 332705.375840672524646, 5536677.866859362460673 ], [ 332705.400152839079965, 5536677.349149081856012 ], [ 332705.416796284087468, 5536676.831135557964444 ], [ 332705.425767358217854, 5536676.312932375818491 ], [ 332705.427064094110392, 5536675.794653170742095 ], [ 332705.420686207420658, 5536675.2764115864411 ], [ 332705.406635096587706, 5536674.758321262896061 ], [ 332705.38491384300869, 5536674.240495805628598 ] ] ] ] } },
{ "type": "Feature", "properties": { "fid": 9.0, "LOT_ID": 2.0, "area_m2": 7281.601887508712, "ESA1_pct": 0.0, "ESA2_pct": 20.37, "ESA3_pct": 79.62, "ESA4_pct": 0.0, "pct_LOT": 0.118958125526618, "area": 7285.0082727740037, "LOT_ID_REF": "2", "ESA2_AREA_": 27951.45, "ESA2_IN_CE": 1483.9, "ESA2_CE_RA": 0.0531, "mean_slp": 10.09, "max_slp": 30.26, "p95_slp": 20.64, "slp_count": 7293, "CE": "LOT 2 CE", "Layer": "CE" }, "geometry": { "type": "MultiPolygon", "coordinates": [ [ [ [ 332558.943761779228225, 5536401.330909728072584 ], [ 332581.58070637617493, 5536392.866587760858238 ], [ 332581.018323622411117, 5536392.507140727713704 ], [ 332580.452073078602552, 5536392.153818137943745 ], [ 332579.88202143838862, 5536391.806661604903638 ], [ 332579.308235842909198, 5536391.465712017379701 ], [ 332578.730783872888424, 5536391.131009533070028 ], [ 332578.14973354130052, 5536390.802593571133912 ], [ 332577.565153284696862, 5536390.480502814985812 ], [ 332576.977111955406144, 5536390.164775201119483 ], [ 332576.385678813385312, 5536389.855447915382683 ], [ 332575.790923518186901, 5536389.552557389251888 ], [ 332575.192916120577138, 5536389.256139300763607 ], [ 332574.591727054328658, 5536388.96622856054455 ], [ 332573.987427128013223, 5536388.682859311811626 ], [ 332573.380087516386993, 5536388.406064935028553 ], [ 332572.769779752707109, 5536388.135878028348088 ], [ 332572.15657571941847, 5536387.872330414131284 ], [ 332571.540547640121076, 5536387.615453134290874 ], [ 332570.92176807107171, 5536387.365276444703341 ], [ 332570.300309892918449, 5536387.121829808689654 ], [ 332569.676246301271021, 5536386.885141902603209 ], [ 332569.049650798900984, 5536386.655240602791309 ], [ 332568.420597186777741, 5536386.432152989320457 ], [ 332563.794718041608576, 5536384.819835665635765 ], [ 332563.271999827004038, 5536384.633569728583097 ], [ 332562.751915888627991, 5536384.440070301294327 ], [ 332562.234566320083104, 5536384.239374621771276 ], [ 332561.720050687901676, 5536384.031521316617727 ], [ 332561.208468014025129, 5536383.816550389863551 ], [ 332560.699916755198501, 5536383.594503213651478 ], [ 332560.194494785217103, 5536383.365422520786524 ], [ 332559.692299375426956, 5536383.12935240007937 ], [ 332559.193427176272962, 5536382.886338284239173 ], [ 332558.697974198672455, 5536382.636426942422986 ], [ 332558.206035795388743, 5536382.379666471853852 ], [ 332557.717706642986741, 5536382.116106287576258 ], [ 332557.233080722973682, 5536381.845797115005553 ], [ 332556.752251304686069, 5536381.568790974095464 ], [ 332556.275310926372185, 5536381.28514117654413 ], [ 332555.802351378195453, 5536380.99490231461823 ], [ 332555.333463683899026, 5536380.698130244389176 ], [ 332554.868738083401695, 5536380.394882082007825 ], [ 332554.408264016208705, 5536380.085216188803315 ], [ 332553.952130103192758, 5536379.769192161969841 ], [ 332553.500424129713792, 5536379.446870825253427 ], [ 332553.053233029495459, 5536379.118314205668867 ], [ 332552.610642866871785, 5536378.783585540018976 ], [ 332552.172738821187522, 5536378.442749246954918 ], [ 332551.739605169277638, 5536378.095870925113559 ], [ 332551.311325270624366, 5536377.743017327971756 ], [ 332550.88798154972028, 5536377.38425637036562 ], [ 332550.469655481982045, 5536377.01965709310025 ], [ 332550.056427576404531, 5536376.649289667606354 ], [ 332549.64837736118352, 5536376.27322537265718 ], [ 332549.245583368116058, 5536375.891536585986614 ], [ 332548.848123117117211, 5536375.504296762868762 ], [ 332548.456073101726361, 5536375.111580431461334 ], [ 332548.069508774322458, 5536374.713463173247874 ], [ 332547.688504531281069, 5536374.310021605342627 ], [ 332547.313133699179161, 5536373.901333373039961 ], [ 332546.943468520592432, 5536373.487477133050561 ], [ 332546.57958013942698, 5536373.068532533943653 ], [ 332546.22153858828824, 5536372.644580202177167 ], [ 332545.869412774103694, 5536372.215701731853187 ], [ 332545.523270465782844, 5536371.781979661434889 ], [ 332545.183178280596621, 5536371.343497465364635 ], [ 332544.849201670789625, 5536370.900339528918266 ], [ 332544.521404912520666, 5536370.452591142617166 ], [ 332544.199851092009339, 5536370.000338478945196 ], [ 332543.884602094010916, 5536369.543668575584888 ], [ 332537.90872904000571, 5536360.757274045608938 ], [ 332537.908729037328158, 5536360.757274050265551 ], [ 332517.479955432820134, 5536370.045796969905496 ], [ 332486.155198166728951, 5536384.364382756873965 ], [ 332388.12315949605545, 5536429.081196373328567 ], [ 332385.492579763580579, 5536466.407533223740757 ], [ 332558.943761779228225, 5536401.330909728072584 ] ] ] ] } },
{ "type": "Feature", "properties": { "fid": 10.0, "LOT_ID": 8.0, "area_m2": 4000.663410888119, "ESA1_pct": 0.0, "ESA2_pct": 99.99, "ESA3_pct": 0.0, "ESA4_pct": 0.0, "pct_LOT": 0.098480036778666999, "area": 4000.663410888119, "LOT_ID_REF": "8", "ESA2_AREA_": 20020.66, "ESA2_IN_CE": 4000.66, "ESA2_CE_RA": 0.1998, "mean_slp": 10.92, "max_slp": 27.95, "p95_slp": 18.38, "slp_count": 4003, "CE": "LOT 8 CE", "Layer": "CE" }, "geometry": { "type": "MultiPolygon", "coordinates": [ [ [ [ 332653.842615780304186, 5536470.290267581120133 ], [ 332677.667737995274365, 5536403.166572402231395 ], [ 332682.372542711731512, 5536400.881934720091522 ], [ 332675.689102219243068, 5536478.387602094560862 ], [ 332685.245526563201565, 5536498.827156415209174 ], [ 332709.235912348958664, 5536497.91294530685991 ], [ 332727.185554092400707, 5536463.679090869612992 ], [ 332695.969349324412178, 5536400.013471665792167 ], [ 332681.578727924148552, 5536394.105467023327947 ], [ 332671.112502566946205, 5536398.307058672420681 ], [ 332654.635347392701078, 5536443.054102497175336 ], [ 332654.483285970170982, 5536443.821508917026222 ], [ 332654.338736261823215, 5536444.590365647338331 ], [ 332654.201712090871297, 5536445.36059916112572 ], [ 332654.072226561314892, 5536446.132135799154639 ], [ 332653.950292055727914, 5536446.904901783913374 ], [ 332653.835920234618243, 5536447.678823211230338 ], [ 332653.729122035787441, 5536448.453826070763171 ], [ 332653.629907672118861, 5536449.229836250655353 ], [ 332653.538286631519441, 5536450.006779540330172 ], [ 332653.454267675988376, 5536450.784581637941301 ], [ 332653.377858840220142, 5536451.563168165273964 ], [ 332653.309067431022413, 5536452.342464662156999 ], [ 332653.247900027199648, 5536453.122396606020629 ], [ 332653.194362478097901, 5536453.902889411896467 ], [ 332653.148459903604817, 5536454.683868439868093 ], [ 332653.110196693392936, 5536455.465259006246924 ], [ 332653.079576506628655, 5536456.246986382640898 ], [ 332653.056602271273732, 5536457.028975816443563 ], [ 332653.041276184725575, 5536457.811152522452176 ], [ 332653.033599712478463, 5536458.59344170242548 ], [ 332653.033573588589206, 5536459.375768544152379 ], [ 332653.041197815677151, 5536460.158058235421777 ], [ 332653.056471664516721, 5536460.940235963091254 ], [ 332653.079393674619496, 5536461.722226928919554 ], [ 332653.109961653710343, 5536462.503956349566579 ], [ 332653.148172678716946, 5536463.285349468700588 ], [ 332653.194023095304146, 5536464.066331561654806 ], [ 332653.2475085190963, 5536464.846827941015363 ], [ 332653.308623835095204, 5536465.626763968728483 ], [ 332653.377363198727835, 5536466.40606505703181 ], [ 332653.453720036486629, 5536467.184656686149538 ], [ 332653.537687046278734, 5536467.962464392185211 ], [ 332653.62925619847374, 5536468.739413799718022 ], [ 332653.728418736078311, 5536469.515430603176355 ], [ 332653.835165176307783, 5536470.290440594777465 ], [ 332653.842615780304186, 5536470.290267581120133 ] ] ] ] } },
{ "type": "Feature", "properties": { "fid": 11.0, "LOT_ID": 7.0, "area_m2": 4068.7893137186766, "ESA1_pct": 0.0, "ESA2_pct": 99.99, "ESA3_pct": 0.0, "ESA4_pct": 0.0, "pct_LOT": 0.093563836248185997, "area": 4068.7893137186766, "LOT_ID_REF": "7", "ESA2_AREA_": 40223.54, "ESA2_IN_CE": 4068.79, "ESA2_CE_RA": 0.1012, "mean_slp": 7.83, "max_slp": 26.57, "p95_slp": 15.84, "slp_count": 4064, "CE": "LOT 7 CE", "Layer": "CE" }, "geometry": { "type": "MultiPolygon", "coordinates": [ [ [ [ 332756.360540582507383, 5536727.482707886956632 ], [ 332772.529060026747175, 5536732.920162519440055 ], [ 332764.410701586690266, 5536772.532363006845117 ], [ 332764.998503807815723, 5536772.816324730403721 ], [ 332765.589634925418068, 5536773.093289916403592 ], [ 332766.184011664183345, 5536773.363219545222819 ], [ 332766.781550291809253, 5536773.626075591892004 ], [ 332767.382166629715357, 5536773.881821026094258 ], [ 332767.985776066721883, 5536774.130419818684459 ], [ 332768.592293569410685, 5536774.371836949139833 ], [ 332769.201633694814518, 5536774.60603841021657 ], [ 332769.813710602582432, 5536774.832991206087172 ], [ 332770.428438066504896, 5536775.052663364447653 ], [ 332784.008756501134485, 5536720.519871996715665 ], [ 332874.130924779106863, 5536681.725589353591204 ], [ 332873.144928286259528, 5536655.239183271303773 ], [ 332859.163459859555587, 5536652.099777941592038 ], [ 332779.599852194660343, 5536682.840659520588815 ], [ 332782.000913244148251, 5536706.940683843567967 ], [ 332756.360540582507383, 5536727.482707886956632 ] ] ] ] } },
{ "type": "Feature", "properties": { "fid": 12.0, "LOT_ID": 1.0, "area_m2": 13568.818596311747, "ESA1_pct": 0.0, "ESA2_pct": 0.0, "ESA3_pct": 99.99, "ESA4_pct": 0.0, "pct_LOT": 0.33858980773372399, "area": 13567.319328313853, "LOT_ID_REF": "1", "ESA2_AREA_": 19.03, "ESA2_IN_CE": 0.0, "ESA2_CE_RA": 0.0, "mean_slp": 8.33, "max_slp": 31.65, "p95_slp": 17.44, "slp_count": 13575, "CE": "LOT 1 CE", "Layer": "CE" }, "geometry": { "type": "MultiPolygon", "coordinates": [ [ [ [ 332526.825859689386562, 5536325.315408920869231 ], [ 332526.82022980687907, 5536324.604891636408865 ], [ 332526.822367078100797, 5536323.894355261698365 ], [ 332526.832271247520112, 5536323.183884701691568 ], [ 332526.849941131484229, 5536322.473564855754375 ], [ 332526.875374618917704, 5536321.763480604626238 ], [ 332526.908568670216482, 5536321.053716797381639 ], [ 332526.94951931911055, 5536320.344358246773481 ], [ 332496.693058793433011, 5536324.317502691410482 ], [ 332494.36312899767654, 5536279.227736912667751 ], [ 332481.084379870502744, 5536254.15609172731638 ], [ 332479.561424628773239, 5536213.393622217699885 ], [ 332438.134270736132748, 5536211.732151833362877 ], [ 332405.591561406676192, 5536336.292177197523415 ], [ 332430.420596427342389, 5536409.787436604499817 ], [ 332486.155198166728951, 5536384.364382756873965 ], [ 332515.424952453118749, 5536330.594496462494135 ], [ 332526.860417295887601, 5536326.736046620644629 ], [ 332526.839256052626297, 5536326.025822213850915 ], [ 332526.825859689386562, 5536325.315408920869231 ] ] ] ] } }
]
}
