{
"type": "FeatureCollection",
"name": "CRK_COV_11",
"crs": { "type": "name", "properties": { "name": "urn:ogc:def:crs:EPSG::2955" } },
"features": [
{ "type": "Feature", "properties": { "fid": 1, "area_m2": 5243.7690907428041, "pct_LOT": 12.058306308428433, "total_area_m2": 43386.998578432074, "pct_total_BNDRY": 10.071192303310811, "LOT_ID": 7 }, "geometry": { "type": "MultiPolygon", "coordinates": [ [ [ [ 332871.214116027811542, 5536604.526241419836879 ], [ 332867.020011327171233, 5536491.955069676041603 ], [ 332771.330611377197783, 5536495.60130363330245 ], [ 332822.611649836879224, 5536532.683693394996226 ], [ 332846.440278457303066, 5536600.436656100675464 ], [ 332871.214116027811542, 5536604.526241419836879 ] ] ] ] } },
{ "type": "Feature", "properties": { "fid": 2, "area_m2": 21607.780891502276, "pct_LOT": 53.189523434531459, "total_area_m2": 43386.998578432074, "pct_total_BNDRY": 10.071192303310811, "LOT_ID": 8 }, "geometry": { "type": "MultiPolygon", "coordinates": [ [ [ [ 332867.020011327113025, 5536491.955069676041603 ], [ 332864.695909019908868, 5536429.575387082062662 ], [ 332803.856925274594687, 5536392.561545150354505 ], [ 332793.880815712211188, 5536362.924144825898111 ], [ 332755.099513233115431, 5536323.784243253991008 ], [ 332668.766998322389554, 5536323.474721433594823 ], [ 332587.701400148682296, 5536300.222092776559293 ], [ 332587.274992806196678, 5536300.4457345046103 ], [ 332586.852229692507535, 5536300.676190996542573 ], [ 332586.433219710714184, 5536300.913402885198593 ], [ 332586.018070797494147, 5536301.157309064641595 ], [ 332585.6068898945814, 5536301.407846705056727 ], [ 332585.199782921583392, 5536301.664951268583536 ], [ 332584.796854748681653, 5536301.928556527942419 ], [ 332584.39820916991448, 5536302.198594575747848 ], [ 332584.003948875702918, 5536302.474995849654078 ], [ 332583.614175426890142, 5536302.75768915284425 ], [ 332583.228989228780847, 5536303.046601659618318 ], [ 332582.848489504889585, 5536303.341658950783312 ], [ 332582.472774271271192, 5536303.642785018309951 ], [ 332582.101940311782528, 5536303.949902288615704 ], [ 332636.248904470121488, 5536328.146000020205975 ], [ 332673.988319507974666, 5536335.764211148023605 ], [ 332690.940170531976037, 5536389.756434197537601 ], [ 332727.185554092400707, 5536463.679090869612992 ], [ 332771.33061137777986, 5536495.60130363330245 ], [ 332867.020011327113025, 5536491.955069676041603 ] ] ] ] } },
{ "type": "Feature", "properties": { "fid": 3, "area_m2": 8301.6861238265192, "pct_LOT": 20.464554412203562, "total_area_m2": 43386.998578432074, "pct_total_BNDRY": 10.071192303310811, "LOT_ID": 9 }, "geometry": { "type": "MultiPolygon", "coordinates": [ [ [ [ 332591.977146027376875, 5536298.426202933304012 ], [ 332591.537678422988392, 5536298.575755006633699 ], [ 332591.100577517529018, 5536298.732089254073799 ], [ 332590.665947971283458, 5536298.895168242044747 ], [ 332590.233893852797337, 5536299.06495292019099 ], [ 332589.804518613615073, 5536299.241402636282146 ], [ 332589.37792506441474, 5536299.424475139938295 ], [ 332588.954215349222068, 5536299.614126598462462 ], [ 332588.533490922127385, 5536299.810311597771943 ], [ 332588.115852521907073, 5536300.012983167544007 ], [ 332587.701400148682296, 5536300.222092776559293 ], [ 332668.766998322273139, 5536323.474721433594823 ], [ 332755.0995132328826, 5536323.784243253991008 ], [ 332735.35393489751732, 5536303.856083466671407 ], [ 332733.899252605391666, 5536272.715155778452754 ], [ 332706.394295426725876, 5536249.099343784153461 ], [ 332658.226323945971671, 5536231.982258141040802 ], [ 332646.993265352328308, 5536230.083240833133459 ], [ 332647.09512938890839, 5536230.744974489323795 ], [ 332647.189281447092071, 5536231.40784936863929 ], [ 332647.275708761822898, 5536232.071775594726205 ], [ 332647.354399614792783, 5536232.736663152463734 ], [ 332647.425343337119557, 5536233.402421893551946 ], [ 332647.48853031010367, 5536234.068961557000875 ], [ 332647.54395196668338, 5536234.736191768199205 ], [ 332647.591600792773534, 5536235.404022064059973 ], [ 332647.63147032802226, 5536236.072361897677183 ], [ 332647.663555166800506, 5536236.741120657883584 ], [ 332647.687850959016941, 5536237.410207669250667 ], [ 332647.704354410525411, 5536238.079532218165696 ], [ 332647.713063283823431, 5536238.749003553763032 ], [ 332647.713976398226805, 5536239.418530910275877 ], [ 332647.707093629811425, 5536240.088023510761559 ], [ 332647.692415911820717, 5536240.757390584796667 ], [ 332647.669945234083571, 5536241.426541375927627 ], [ 332647.639684643596411, 5536242.095385164022446 ], [ 332647.601638242893387, 5536242.76383126154542 ], [ 332647.555811190395616, 5536243.431789042428136 ], [ 332647.502209699479863, 5536244.099167941138148 ], [ 332647.440841037489008, 5536244.76587747503072 ], [ 332647.371713524975348, 5536245.431827248074114 ], [ 332647.294836534303613, 5536246.096926974132657 ], [ 332647.210220488719642, 5536246.761086471378803 ], [ 332647.11787686048774, 5536247.424215696752071 ], [ 332647.017818169726525, 5536248.086224739439785 ], [ 332646.910057982779108, 5536248.74702384416014 ], [ 332646.794610909826588, 5536249.406523418612778 ], [ 332646.671492603316437, 5536250.064634044654667 ], [ 332646.540719756099861, 5536250.721266496926546 ], [ 332646.402310098404996, 5536251.376331746578217 ], [ 332646.256282396090683, 5536252.029740978963673 ], [ 332646.102656448201742, 5536252.681405603885651 ], [ 332645.941453083185479, 5536253.331237266771495 ], [ 332645.772694157494698, 5536253.979147860780358 ], [ 332645.596402551920619, 5536254.625049545429647 ], [ 332645.41260216810042, 5536255.268854743801057 ], [ 332645.221317926421762, 5536255.910476169548929 ], [ 332645.022575761307962, 5536256.549826829694211 ], [ 332644.816402618598659, 5536257.186820038594306 ], [ 332644.602826451824512, 5536257.821369435638189 ], [ 332644.381876217783429, 5536258.453388983383775 ], [ 332644.153581873571966, 5536259.082792992703617 ], [ 332643.917974371812306, 5536259.709496128372848 ], [ 332643.675085656403098, 5536260.333413419313729 ], [ 332643.424948658677749, 5536260.954460275359452 ], [ 332643.167597292980645, 5536261.572552492842078 ], [ 332642.903066451195627, 5536262.187606268562376 ], [ 332642.631391999020707, 5536262.799538214690983 ], [ 332642.35261077049654, 5536263.408265364356339 ], [ 332642.066760563582648, 5536264.013705182820559 ], [ 332641.773880134220235, 5536264.615775584243238 ], [ 332641.474009191675577, 5536265.214394940063357 ], [ 332641.167188393126708, 5536265.809482086449862 ], [ 332640.853459337784443, 5536266.400956341996789 ], [ 332640.532864561828319, 5536266.988737512379885 ], [ 332640.20544753188733, 5536267.572745905257761 ], [ 332639.871252639975864, 5536268.152902339585125 ], [ 332639.530325196683407, 5536268.729128156788647 ], [ 332639.182711425877642, 5536269.301345232874155 ], [ 332638.828458457486704, 5536269.869475983083248 ], [ 332638.467614321911242, 5536270.433443378657103 ], [ 332638.100227942981292, 5536270.993170958943665 ], [ 332637.726349131786264, 5536271.548582833260298 ], [ 332637.346028579515405, 5536272.099603696726263 ], [ 332636.959317850589287, 5536272.646158842369914 ], [ 332636.566269376198761, 5536273.188174165785313 ], [ 332636.166936446505133, 5536273.725576180964708 ], [ 332635.76137320388807, 5536274.258292024955153 ], [ 332635.349634635203984, 5536274.786249472759664 ], [ 332634.93177656509215, 5536275.309376939199865 ], [ 332634.507855647185352, 5536275.827603503130376 ], [ 332634.07792935782345, 5536276.340858899056911 ], [ 332633.642055986972991, 5536276.849073535762727 ], [ 332633.200294631300494, 5536277.352178515866399 ], [ 332632.752705185674131, 5536277.850105621851981 ], [ 332632.299348335189279, 5536278.342787344940007 ], [ 332631.840285546611995, 5536278.830156886950135 ], [ 332631.37557906092843, 5536279.312148169614375 ], [ 332630.905291883391328, 5536279.788695844821632 ], [ 332630.429487776884343, 5536280.259735298343003 ], [ 332629.948231251793914, 5536280.725202665664256 ], [ 332629.461587557627354, 5536281.185034843161702 ], [ 332628.969622674572747, 5536281.639169478788972 ], [ 332628.472403304185718, 5536282.087545005604625 ], [ 332627.969996860309038, 5536282.530100627802312 ], [ 332627.462471460283268, 5536282.96677634678781 ], [ 332626.949895915517118, 5536283.39751295465976 ], [ 332626.432339721592143, 5536283.82225205283612 ], [ 332625.909873049997259, 5536284.240936052985489 ], [ 332625.38256673788419, 5536284.6535081891343 ], [ 332624.850492278288584, 5536285.059912525117397 ], [ 332624.313721810874995, 5536285.460093958303332 ], [ 332623.772328112216201, 5536285.853998232632875 ], [ 332623.226384585199412, 5536286.241571944206953 ], [ 332622.675965250120498, 5536286.622762537561357 ], [ 332622.121144733799156, 5536286.997518338263035 ], [ 332621.561998259974644, 5536287.365788532420993 ], [ 332620.998601638595574, 5536287.727523188106716 ], [ 332620.431031256215647, 5536288.082673262804747 ], [ 332619.859364065108821, 5536288.431190605275333 ], [ 332619.28367757279193, 5536288.773027960211039 ], [ 332618.704049832420424, 5536289.108138983137906 ], [ 332618.120559430622961, 5536289.436478234827518 ], [ 332617.533285478071775, 5536289.758001204580069 ], [ 332616.942307598888874, 5536290.072664296254516 ], [ 332616.34770591877168, 5536290.380424846895039 ], [ 332615.749561054923106, 5536290.681241130456328 ], [ 332615.147954104992095, 5536290.975072362460196 ], [ 332614.542966636014171, 5536291.261878702789545 ], [ 332613.934680673410185, 5536291.541621267795563 ], [ 332613.323178689810447, 5536291.81426212657243 ], [ 332612.708543593471404, 5536292.079764318652451 ], [ 332612.090858718322124, 5536292.338091841898859 ], [ 332611.47020781080937, 5536292.589209673926234 ], [ 332610.846675020176917, 5536292.83308376930654 ], [ 332610.220344886416569, 5536293.069681058637798 ], [ 332609.591302328102756, 5536293.298969469033182 ], [ 332608.959632632322609, 5536293.520917909219861 ], [ 332608.325421441928484, 5536293.735496289096773 ], [ 332607.688754744594917, 5536293.94267551228404 ], [ 332607.049718860711437, 5536294.142427492886782 ], [ 332606.40840043220669, 5536294.334725148044527 ], [ 332605.764886409975588, 5536294.519542402587831 ], [ 332591.977146027376875, 5536298.426202933304012 ] ] ] ] } },
{ "type": "Feature", "properties": { "fid": 4, "area_m2": 8233.7624723604713, "pct_LOT": 20.546124704770705, "total_area_m2": 43386.998578432074, "pct_total_BNDRY": 10.071192303310811, "LOT_ID": 1 }, "geometry": { "type": "MultiPolygon", "coordinates": [ [ [ [ 332547.469276610063389, 5536276.827390338294208 ], [ 332551.312859702913556, 5536272.892607841640711 ], [ 332551.74534228281118, 5536272.455277260392904 ], [ 332552.183171733107883, 5536272.023299724794924 ], [ 332552.626281801785808, 5536271.596740600652993 ], [ 332553.074605437694117, 5536271.175664436072111 ], [ 332553.528074800502509, 5536270.760134946554899 ], [ 332553.986621271295007, 5536270.350215012207627 ], [ 332554.450175462989137, 5536269.945966660045087 ], [ 332554.918667230813298, 5536269.547451061196625 ], [ 332555.392025682609528, 5536269.15472851973027 ], [ 332555.870179190125782, 5536268.76785846054554 ], [ 332556.353055399027653, 5536268.386899425648153 ], [ 332556.840581240772735, 5536268.011909062974155 ], [ 332557.332682943204418, 5536267.64294411521405 ], [ 332557.82928604161134, 5536267.280060411430895 ], [ 332558.330315390077885, 5536266.923312866128981 ], [ 332558.835695173009299, 5536266.5727554615587 ], [ 332559.345348916598596, 5536266.228441243991256 ], [ 332559.859199500118848, 5536265.890422311611474 ], [ 332560.377169167797547, 5536265.558749821037054 ], [ 332560.899179540923797, 5536265.233473954722285 ], [ 332561.425151628616732, 5536264.914643933996558 ], [ 332561.955005841213278, 5536264.602308005094528 ], [ 332562.488662001211196, 5536264.296513429842889 ], [ 332579.558058681024704, 5536254.654414629563689 ], [ 332579.558058680675458, 5536254.654414629563689 ], [ 332579.887030220590532, 5536254.464102801866829 ], [ 332580.212022887484636, 5536254.267073281109333 ], [ 332580.532899523386732, 5536254.06340921856463 ], [ 332580.849524708115496, 5536253.853196567855775 ], [ 332581.161764814925846, 5536253.636524047702551 ], [ 332581.469488068309147, 5536253.413483097217977 ], [ 332581.772564598824829, 5536253.184167850762606 ], [ 332582.07086649799021, 5536252.948675085790455 ], [ 332582.364267872704659, 5536252.707104188390076 ], [ 332582.652644897811115, 5536252.459557106718421 ], [ 332582.935875868482981, 5536252.206138315610588 ], [ 332583.213841252028942, 5536251.946954769082367 ], [ 332583.486423737485893, 5536251.682115849107504 ], [ 332583.753508286492433, 5536251.411733322776854 ], [ 332584.014982180087827, 5536251.135921306908131 ], [ 332584.270735067897476, 5536250.854796199128032 ], [ 332584.520659013418481, 5536250.568476646207273 ], [ 332584.764648540702183, 5536250.27708347979933 ], [ 332585.002600677893497, 5536249.980739681981504 ], [ 332585.234415001410525, 5536249.679570320062339 ], [ 332585.45999367791228, 5536249.373702495358884 ], [ 332585.679241505626123, 5536249.063265293836594 ], [ 332585.892065954511054, 5536248.748389732092619 ], [ 332586.098377205897123, 5536248.429208695888519 ], [ 332586.298088189621922, 5536248.10585689265281 ], [ 332586.49111462070141, 5536247.778470787219703 ], [ 332586.677375035709701, 5536247.447188545949757 ], [ 332586.856790826714132, 5536247.112149980850518 ], [ 332587.029286274104379, 5536246.773496490903199 ], [ 332587.194788579072338, 5536246.431370998732746 ], [ 332587.353227894403972, 5536246.085917891003191 ], [ 332587.504537353117485, 5536245.737282961606979 ], [ 332587.648653097799979, 5536245.385613348335028 ], [ 332587.78551430668449, 5536245.031057463958859 ], [ 332587.91506321990164, 5536244.673764944076538 ], [ 332588.037245163519401, 5536244.313886577263474 ], [ 332588.152008572593331, 5536243.951574247330427 ], [ 332588.259305013285484, 5536243.586980856955051 ], [ 332588.359089202771429, 5536243.220260280184448 ], [ 332588.451319028972648, 5536242.851567285135388 ], [ 332588.535955567786004, 5536242.481057470664382 ], [ 332588.61296309978934, 5536242.108887205831707 ], [ 332588.682309125200845, 5536241.735213559120893 ], [ 332588.743964377674274, 5536241.360194233246148 ], [ 332588.797902836697176, 5536240.983987496234477 ], [ 332588.844101738475729, 5536240.606752121821046 ], [ 332588.882541585480794, 5536240.228647316806018 ], [ 332588.91320615488803, 5536239.849832653068006 ], [ 332588.936082505213562, 5536239.47046800237149 ], [ 332588.951160981785506, 5536239.090713469311595 ], [ 332588.958435220993124, 5536238.710729324258864 ], [ 332588.957902153080795, 5536238.330675928853452 ], [ 332588.949562002671883, 5536237.950713683851063 ], [ 332588.933418289991096, 5536237.57100294623524 ], [ 332588.909477827895898, 5536237.191703960299492 ], [ 332588.877750720072072, 5536236.812976807355881 ], [ 332588.838250356726348, 5536236.434981320984662 ], [ 332588.790993408008944, 5536236.057877029292285 ], [ 332588.735999818018172, 5536235.681823082268238 ], [ 332588.673292795778252, 5536235.306978189386427 ], [ 332588.602898805984296, 5536234.933500543236732 ], [ 332588.524847557127941, 5536234.561547766439617 ], [ 332588.439171989215538, 5536234.191276833415031 ], [ 332588.345908260496799, 5536233.822844015434384 ], [ 332588.245095731108449, 5536233.456404796801507 ], [ 332588.136776947474573, 5536233.092113833874464 ], [ 332588.020997623680159, 5536232.730124862864614 ], [ 332587.897806622320786, 5536232.370590661652386 ], [ 332587.767255934188142, 5536232.013662960380316 ], [ 332587.629400656092912, 5536231.659492397680879 ], [ 332587.48429896729067, 5536231.30822844337672 ], [ 332587.332012105791364, 5536230.960019341669977 ], [ 332587.172604341525584, 5536230.615012051537633 ], [ 332587.006142949976493, 5536230.273352176882327 ], [ 332586.832698183308821, 5536229.935183905996382 ], [ 332586.652343240915798, 5536229.600649961270392 ], [ 332586.4651542386855, 5536229.269891523756087 ], [ 332586.271210176520981, 5536228.943048188462853 ], [ 332586.070592905278318, 5536228.62025789078325 ], [ 332585.863387092307676, 5536228.301656859926879 ], [ 332585.649680185015313, 5536227.987379557453096 ], [ 332585.429562374891248, 5536227.677558614872396 ], [ 332585.203126559092198, 5536227.372324791736901 ], [ 332584.97046830097679, 5536227.071806904859841 ], [ 332584.731685790116899, 5536226.776131781749427 ], [ 332584.486879800504539, 5536226.48542420938611 ], [ 332584.23615364858415, 5536226.199806873686612 ], [ 332583.979613149014767, 5536225.919400314800441 ], [ 332583.717366570315789, 5536225.644322874955833 ], [ 332583.449524589523207, 5536225.374690647237003 ], [ 332583.176200244575739, 5536225.110617420636117 ], [ 332580.094676256703679, 5536222.193993278779089 ], [ 332580.094676256529056, 5536222.193993278779089 ], [ 332579.81825369852595, 5536221.927283977158368 ], [ 332579.547004218620714, 5536221.655315224081278 ], [ 332579.281027869496029, 5536221.37818733882159 ], [ 332579.020422758592758, 5536221.096002543345094 ], [ 332578.765285012428649, 5536220.808864921331406 ], [ 332578.515708740509581, 5536220.516880389302969 ], [ 332578.271786001103465, 5536220.220156645402312 ], [ 332578.033606767188758, 5536219.918803139589727 ], [ 332577.801258892985061, 5536219.612931028939784 ], [ 332577.574828082171734, 5536219.302653135731816 ], [ 332577.354397855408024, 5536218.988083909265697 ], [ 332577.140049520297907, 5536218.669339381158352 ], [ 332576.931862140772864, 5536218.346537124365568 ], [ 332576.729912508686539, 5536218.019796201959252 ], [ 332576.534275114827324, 5536217.689237141050398 ], [ 332576.345022121502552, 5536217.354981869459152 ], [ 332576.162223336286843, 5536217.017153676599264 ], [ 332575.985946186003275, 5536216.675877177156508 ], [ 332575.816255691926926, 5536216.331278252415359 ], [ 332575.653214445803314, 5536215.983484010212123 ], [ 332575.49688258691458, 5536215.632622737437487 ], [ 332575.347317779087462, 5536215.27882385160774 ], [ 332575.204575191019103, 5536214.922217856161296 ], [ 332575.068707474216353, 5536214.562936286441982 ], [ 332574.939764744718559, 5536214.201111665926874 ], [ 332574.817794564005453, 5536213.83687745872885 ], [ 332574.702841921825893, 5536213.470368013717234 ], [ 332574.594949219375849, 5536213.10171852260828 ], [ 332568.296935176185798, 5536211.869685509242117 ], [ 332561.643892375810537, 5536181.244598168879747 ], [ 332551.488932616775855, 5536155.91769446991384 ], [ 332463.660537549119908, 5536160.238173676654696 ], [ 332486.64945568179246, 5536182.509585752151906 ], [ 332502.802593195519876, 5536232.249373286962509 ], [ 332519.13221107411664, 5536257.499853146262467 ], [ 332547.469276610063389, 5536276.827390338294208 ] ] ] ] } }
]
}
