{
"type": "FeatureCollection",
"name": "DW_8",
"crs": { "type": "name", "properties": { "name": "urn:ogc:def:crs:EPSG::2955" } },
"features": [
{ "type": "Feature", "properties": { "fid": 1, "Layer": "EX-DRIVEWAY", "PaperSpace": null, "SubClasses": "AcDbEntity:AcDbPolyline", "Linetype": "ByLayer", "EntityHandle": "833", "Text": null }, "geometry": { "type": "MultiLineString", "coordinates": [ ] } },
{ "type": "Feature", "properties": { "fid": 2, "Layer": "EX-DRIVEWAY", "PaperSpace": null, "SubClasses": "AcDbEntity:AcDbPolyline", "Linetype": "ByLayer", "EntityHandle": "834", "Text": null }, "geometry": { "type": "MultiLineString", "coordinates": [ ] } },
{ "type": "Feature", "properties": { "fid": 3, "Layer": "-proposed driveway", "PaperSpace": null, "SubClasses": "AcDbEntity:AcDbPolyline", "Linetype": "ByLayer", "EntityHandle": "E2D", "Text": null }, "geometry": { "type": "MultiLineString", "coordinates": [ [ [ 332606.595463418692816, 5536397.505032278597355, 0.0 ], [ 332598.526813775009941, 5536407.328770533204079, 0.0 ], [ 332593.07867400161922, 5536416.654257217422128, 0.0 ], [ 332570.7816009640228, 5536453.511729859746993, 0.0 ], [ 332570.7816009640228, 5536453.511729859746993, 0.0 ], [ 332569.704597833042499, 5536455.183458159677684, 0.0 ], [ 332568.534862726810388, 5536456.791665557771921, 0.0 ], [ 332567.276132695144042, 5536458.331214180216193, 0.0 ], [ 332565.932429107022472, 5536459.797185502946377, 0.0 ], [ 332526.92300353088649, 5536489.62585799023509, 0.0 ] ] ] } },
{ "type": "Feature", "properties": { "fid": 4, "Layer": "-proposed driveway", "PaperSpace": null, "SubClasses": "AcDbEntity:AcDbPolyline", "Linetype": "ByLayer", "EntityHandle": "E2E", "Text": null }, "geometry": { "type": "MultiLineString", "coordinates": [ [ [ 332604.680101640871726, 5536395.110376466996968, 0.0 ], [ 332596.056952688726597, 5536405.609228442423046, 0.0 ], [ 332590.499928827921394, 5536415.121090135537088, 0.0 ], [ 332568.214749183272943, 5536451.958902780897915, 0.0 ], [ 332568.214749183272943, 5536451.958902780897915, 0.0 ], [ 332567.260228908853605, 5536453.443261666223407, 0.0 ], [ 332566.22577826154884, 5536454.873066587373614, 0.0 ], [ 332565.114507803809829, 5536456.244018164463341, 0.0 ], [ 332563.929759092978202, 5536457.551993984729052, 0.0 ], [ 332525.09872472519055, 5536487.244259108789265, 0.0 ], [ 332525.096716649713926, 5536487.245794589631259, 0.0 ] ] ] } },
{ "type": "Feature", "properties": { "fid": 5, "Layer": "-proposed driveway", "PaperSpace": null, "SubClasses": "AcDbEntity:AcDbCircle:AcDbArc", "Linetype": "ByLayer", "EntityHandle": "ED7", "Text": null }, "geometry": { "type": "MultiLineString", "coordinates": [ [ [ 332450.310938884329516, 5536253.549501783214509, 0.0 ], [ 332448.562040291260928, 5536256.193844307214022, 0.0 ], [ 332446.998098194249906, 5536258.951611300930381, 0.0 ], [ 332445.626437199360225, 5536261.809886967763305, 0.0 ], [ 332444.453481378557626, 5536264.75528478808701, 0.0 ], [ 332443.484724182868376, 5536267.774010209366679, 0.0 ], [ 332442.724702714418527, 5536270.851925256662071, 0.0 ], [ 332442.176976477028802, 5536273.974614745937288, 0.0 ], [ 332441.844110705598723, 5536277.12745379190892, 0.0 ], [ 332441.727664352220017, 5536280.295676309615374, 0.0 ], [ 332441.828182784665842, 5536283.464444165118039, 0.0 ], [ 332442.145195232413244, 5536286.61891666892916, 0.0 ], [ 332442.677216991200112, 5536289.744320087134838, 0.0 ], [ 332443.421756376861595, 5536292.826016823761165, 0.0 ], [ 332444.375326394801959, 5536295.849573982879519, 0.0 ], [ 332445.533461070910562, 5536298.800830960273743, 0.0 ], [ 332446.890736367844511, 5536301.665965763852, 0.0 ], [ 332448.440795588016044, 5536304.431559748016298, 0.0 ], [ 332450.176379144715611, 5536307.084660461172462, 0.0 ], [ 332452.089358561905101, 5536309.6128423018381, 0.0 ], [ 332454.170774543075822, 5536312.004264721646905, 0.0 ], [ 332456.410878931870684, 5536314.247727669775486, 0.0 ], [ 332458.799180366506334, 5536316.332724056206644, 0.0 ], [ 332461.324493415362667, 5536318.249488955363631, 0.0 ], [ 332463.974990963120945, 5536319.989045342430472, 0.0 ], [ 332466.738259602396283, 5536321.543246134184301, 0.0 ], [ 332469.601357770618051, 5536322.904812348075211, 0.0 ], [ 332472.550876361085102, 5536324.067367188632488, 0.0 ], [ 332475.573001523618586, 5536325.025465918704867, 0.0 ], [ 332478.653579360397998, 5536325.77462135348469, 0.0 ], [ 332481.778182214999106, 5536326.311324879527092, 0.0 ], [ 332484.932176243048161, 5536326.633062886074185, 0.0 ], [ 332488.100789948890451, 5536326.738328536972404, 0.0 ], [ 332491.269183366559446, 5536326.626628829166293, 0.0 ], [ 332494.422517561877612, 5536326.298486898653209, 0.0 ] ] ] } },
{ "type": "Feature", "properties": { "fid": 6, "Layer": "-proposed driveway", "PaperSpace": null, "SubClasses": "AcDbEntity:AcDbCircle:AcDbArc", "Linetype": "ByLayer", "EntityHandle": "ED8", "Text": null }, "geometry": { "type": "MultiLineString", "coordinates": [ [ [ 332447.866785089194309, 5536251.809929356910288, 0.0 ], [ 332446.00463110988494, 5536254.625514533370733, 0.0 ], [ 332444.339411061722785, 5536257.561869335360825, 0.0 ], [ 332442.878923878481146, 5536260.605241563171148, 0.0 ], [ 332441.63000964303501, 5536263.741377810947597, 0.0 ], [ 332440.59851755190175, 5536266.955590217374265, 0.0 ], [ 332439.789278521435335, 5536270.232825259678066, 0.0 ], [ 332439.206082562217489, 5536273.557734251022339, 0.0 ], [ 332438.851661028980743, 5536276.914745229296386, 0.0 ], [ 332438.727673828601837, 5536280.288135882467031, 0.0 ], [ 332438.834701645828318, 5536283.662107189185917, 0.0 ], [ 332439.17224322387483, 5536287.020857404917479, 0.0 ], [ 332439.738717711996287, 5536290.348656074143946, 0.0 ], [ 332440.531472069094889, 5536293.629917700774968, 0.0 ], [ 332441.546793489367701, 5536296.84927473962307, 0.0 ], [ 332442.779926790681202, 5536299.991649572737515, 0.0 ], [ 332444.225096685171593, 5536303.042325121350586, 0.0 ], [ 332445.875534827471711, 5536305.98701377492398, 0.0 ], [ 332447.723511513730045, 5536308.811924303881824, 0.0 ], [ 332449.760371882934123, 5536311.503826450556517, 0.0 ], [ 332451.976576451561414, 5536314.050112891942263, 0.0 ], [ 332454.361745790869463, 5536316.43885828461498, 0.0 ], [ 332456.904709138150793, 5536318.658875118941069, 0.0 ], [ 332459.593556714302395, 5536320.699766110628843, 0.0 ], [ 332462.415695502306335, 5536322.551972900517285, 0.0 ], [ 332465.357908225792926, 5536324.206820814870298, 0.0 ], [ 332468.406415250850841, 5536325.656559497117996, 0.0 ], [ 332471.54693912237417, 5536326.894399205222726, 0.0 ], [ 332474.764771430986002, 5536327.914542607963085, 0.0 ], [ 332478.044841699302197, 5536328.712211941368878, 0.0 ], [ 332481.371787962852977, 5536329.283671379089355, 0.0 ], [ 332484.730028716963716, 5536329.626244533807039, 0.0 ], [ 332488.103835891757626, 5536329.73832699097693, 0.0 ], [ 332491.477408512902912, 5536329.61939381994307, 0.0 ], [ 332494.834946704853792, 5536329.270002034492791, 0.0 ] ] ] } },
{ "type": "Feature", "properties": { "fid": 7, "Layer": "-proposed driveway", "PaperSpace": null, "SubClasses": "AcDbEntity:AcDbPolyline", "Linetype": "ByLayer", "EntityHandle": "EE4", "Text": null }, "geometry": { "type": "MultiLineString", "coordinates": [ [ [ 332709.584056451683864, 5536664.234715402126312, 0.0 ], [ 332706.014249984116759, 5536666.842082772403955, 0.0 ], [ 332706.014249984116759, 5536666.842082772403955, 0.0 ], [ 332704.160722411470488, 5536668.665580600500107, 0.0 ], [ 332702.430567342729773, 5536670.606526820920408, 0.0 ], [ 332700.831210075586569, 5536672.656591484323144, 0.0 ], [ 332699.36951456341194, 5536674.806976338848472, 0.0 ], [ 332698.051753957406618, 5536677.048452587798238, 0.0 ], [ 332696.883583684102632, 5536679.371400500647724, 0.0 ], [ 332695.870017173932865, 5536681.765850692987442, 0.0 ], [ 332695.015404345060233, 5536684.221526914276183, 0.0 ], [ 332694.323412935016677, 5536686.727890151552856, 0.0 ], [ 332693.797012759896461, 5536689.274183860048652, 0.0 ], [ 332693.438462968508247, 5536691.849480122327805, 0.0 ], [ 332693.438462968508247, 5536691.849480122327805, 0.0 ], [ 332692.909720252268016, 5536694.37354853656143, 0.0 ], [ 332692.209215797309298, 5536696.85543969552964, 0.0 ], [ 332691.34024447214324, 5536699.283479863777757, 0.0 ], [ 332690.306893540197052, 5536701.646248592995107, 0.0 ], [ 332689.11402343516238, 5536703.932632448151708, 0.0 ], [ 332687.767244899645448, 5536706.131877271458507, 0.0 ], [ 332686.272892594570294, 5536708.23363877274096, 0.0 ], [ 332684.637995303666685, 5536710.22803117800504, 0.0 ], [ 332682.870242873381358, 5536712.10567373316735, 0.0 ], [ 332680.977950042753946, 5536713.857734822668135, 0.0 ], [ 332678.970017334911972, 5536715.475973512977362, 0.0 ], [ 332676.855889192724135, 5536716.952778313308954, 0.0 ], [ 332676.855889192724135, 5536716.952778313308954, 0.0 ], [ 332674.073807434935588, 5536718.519490990787745, 0.0 ], [ 332671.40716933272779, 5536720.275511706247926, 0.0 ], [ 332668.868835132510867, 5536722.212371796369553, 0.0 ], [ 332666.471046316670254, 5536724.320730473846197, 0.0 ], [ 332664.225366567377932, 5536726.590419876389205, 0.0 ], [ 332662.142625998705626, 5536729.010494099929929, 0.0 ], [ 332660.232868927123491, 5536731.569281985983253, 0.0 ], [ 332658.505305431375746, 5536734.254443412646651, 0.0 ], [ 332656.968266935262363, 5536737.053028802387416, 0.0 ], [ 332655.629166028404143, 5536739.951541572809219, 0.0 ], [ 332654.494460717833135, 5536742.93600322958082, 0.0 ], [ 332653.569623283518013, 5536745.992020775564015, 0.0 ], [ 332641.077150278026238, 5536785.16634480189532, 0.0 ], [ 332641.077150278026238, 5536785.16634480189532, 0.0 ], [ 332640.56042129395064, 5536786.603187453001738, 0.0 ], [ 332639.953024271293543, 5536788.004113755188882, 0.0 ], [ 332639.257436882471666, 5536789.363409098237753, 0.0 ], [ 332638.476496543036774, 5536790.675528693944216, 0.0 ], [ 332637.61338883737335, 5536791.93512018956244, 0.0 ], [ 332636.671634524129331, 5536793.137045503593981, 0.0 ], [ 332635.655075174232479, 5536794.276401784271002, 0.0 ], [ 332634.567857501271646, 5536795.348541410639882, 0.0 ], [ 332624.569336750893854, 5536804.126004653051496, 0.0 ] ] ] } },
{ "type": "Feature", "properties": { "fid": 8, "Layer": "-proposed driveway", "PaperSpace": null, "SubClasses": "AcDbEntity:AcDbPolyline", "Linetype": "ByLayer", "EntityHandle": "EF9", "Text": null }, "geometry": { "type": "MultiLineString", "coordinates": [ [ [ 332630.790766248479486, 5536493.28201727103442, 0.0 ], [ 332640.424522580520716, 5536487.585557692684233, 0.0 ], [ 332640.424522580520716, 5536487.585557692684233, 0.0 ], [ 332641.092796759039629, 5536486.852544928900898, 0.0 ], [ 332641.709893098217435, 5536486.075956108048558, 0.0 ], [ 332642.272977901564445, 5536485.259357311762869, 0.0 ], [ 332642.779465492989402, 5536484.406498350203037, 0.0 ], [ 332643.227030089532491, 5536483.521295536309481, 0.0 ], [ 332643.613616481830832, 5536482.607813708484173, 0.0 ], [ 332643.937449471559376, 5536481.670247559435666, 0.0 ], [ 332644.197042022831738, 5536480.712902378290892, 0.0 ], [ 332644.391202090773731, 5536479.740174277685583, 0.0 ], [ 332669.991421058482956, 5536403.260767046362162, 0.0 ], [ 332669.991421058482956, 5536403.260767046362162, 0.0 ], [ 332670.23353174579097, 5536402.555679656565189, 0.0 ], [ 332670.52405971835833, 5536401.869123535230756, 0.0 ], [ 332670.86160000495147, 5536401.204418813809752, 0.0 ], [ 332671.244520286330953, 5536400.564779954962432, 0.0 ], [ 332671.670968788967002, 5536399.953300204128027, 0.0 ], [ 332672.138883240171708, 5536399.37293662969023, 0.0 ], [ 332672.646000841166824, 5536398.826495827175677, 0.0 ], [ 332673.189869209541939, 5536398.316620343364775, 0.0 ], [ 332673.767858239123598, 5536397.845775896683335, 0.0 ], [ 332674.377172818640247, 5536397.41623945441097, 0.0 ], [ 332675.014866348996293, 5536397.030088224448264, 0.0 ], [ 332675.677854992565699, 5536396.6891896026209, 0.0 ], [ 332676.362932586343959, 5536396.39519215002656, 0.0 ], [ 332677.06678614707198, 5536396.149517616257071, 0.0 ], [ 332677.786011892196257, 5536395.953354064375162, 0.0 ], [ 332678.517131700471509, 5536395.807650126516819, 0.0 ], [ 332679.256609931879211, 5536395.713110416196287, 0.0 ], [ 332680.000870525604114, 5536395.670192119665444, 0.0 ], [ 332680.746314293763135, 5536395.679102786816657, 0.0 ], [ 332681.489336326834746, 5536395.73979932628572, 0.0 ], [ 332682.226343426504172, 5536395.851988214999437, 0.0 ], [ 332682.953771482163575, 5536396.015126914717257, 0.0 ], [ 332683.668102706840727, 5536396.228426499292254, 0.0 ], [ 332684.365882648853585, 5536396.490855469368398, 0.0 ], [ 332685.043736897176132, 5536396.801144736818969, 0.0 ], [ 332685.698387400014326, 5536397.157793766818941, 0.0 ], [ 332685.698387400014326, 5536397.157793766818941, 0.0 ], [ 332686.816629972134251, 5536397.801258031278849, 0.0 ], [ 332687.891501607489772, 5536398.514815091155469, 0.0 ], [ 332688.918615004746243, 5536399.295552422292531, 0.0 ], [ 332689.893777797289658, 5536400.14028328936547, 0.0 ], [ 332690.813009665114805, 5536401.045559757389128, 0.0 ], [ 332691.672558581398334, 5536402.007686760276556, 0.0 ], [ 332692.468916127225384, 5536403.022737187333405, 0.0 ], [ 332692.468916127225384, 5536403.022737187333405, 0.0 ], [ 332698.282572534983046, 5536413.204851066693664, 0.0 ], [ 332698.282572534983046, 5536413.204851066693664, 0.0 ], [ 332707.553092886810191, 5536432.350388268940151, 0.0 ], [ 332707.553092886810191, 5536432.350388268940151, 0.0 ], [ 332708.804224323946983, 5536435.745391694828868, 0.0 ], [ 332709.85453062778106, 5536439.207794732414186, 0.0 ], [ 332710.700411653320771, 5536442.725729271769524, 0.0 ], [ 332711.338967966090422, 5536446.287136854603887, 0.0 ], [ 332711.768010780506302, 5536449.879810009151697, 0.0 ], [ 332711.768010780506302, 5536449.879810009151697, 0.0 ], [ 332711.86612785368925, 5536451.388114240951836, 0.0 ], [ 332711.864056270627771, 5536452.89960500318557, 0.0 ], [ 332711.761805142275989, 5536454.407634619623423, 0.0 ], [ 332711.559824178577401, 5536455.905570634640753, 0.0 ], [ 332711.259001710568555, 5536457.386824987828732, 0.0 ], [ 332710.860660783480853, 5536458.844882984645665, 0.0 ], [ 332710.366553337604273, 5536460.273331950418651, 0.0 ], [ 332709.778852503397502, 5536461.66588943451643, 0.0 ], [ 332709.100143043731805, 5536463.01643083896488, 0.0 ], [ 332708.333409985760227, 5536464.319016357883811, 0.0 ], [ 332707.482025492703542, 5536465.567917098291218, 0.0 ], [ 332706.549734032654669, 5536466.757640280760825, 0.0 ], [ 332705.540635909943376, 5536467.882953390479088, 0.0 ], [ 332704.459169231879059, 5536468.938907195813954, 0.0 ], [ 332703.31009038927732, 5536469.920857515186071, 0.0 ] ] ] } },
{ "type": "Feature", "properties": { "fid": 9, "Layer": "-proposed driveway", "PaperSpace": null, "SubClasses": "AcDbEntity:AcDbPolyline", "Linetype": "ByLayer", "EntityHandle": "EFA", "Text": null }, "geometry": { "type": "MultiLineString", "coordinates": [ [ [ 332632.317706191272009, 5536495.864352340810001, 0.0 ], [ 332642.277695365482941, 5536489.974990624003112, 0.0 ], [ 332642.277695365482941, 5536489.974990624003112, 0.0 ], [ 332643.115712315891869, 5536489.097339602187276, 0.0 ], [ 332643.89139896427514, 5536488.164144045673311, 0.0 ], [ 332644.601083610439673, 5536487.179821218363941, 0.0 ], [ 332645.241406973567791, 5536486.149030397646129, 0.0 ], [ 332645.809338093327824, 5536485.076650816015899, 0.0 ], [ 332646.302188676898368, 5536483.967758564278483, 0.0 ], [ 332646.717625823977869, 5536482.827602565288544, 0.0 ], [ 332647.0536830695346, 5536481.661579729989171, 0.0 ], [ 332647.308769692026544, 5536480.475209408439696, 0.0 ], [ 332672.850196136976592, 5536404.171441973187029, 0.0 ], [ 332672.850196136976592, 5536404.171441973187029, 0.0 ], [ 332673.016402376641054, 5536403.677995826117694, 0.0 ], [ 332673.215491602779366, 5536403.196875160560012, 0.0 ], [ 332673.446558222873136, 5536402.730268440209329, 0.0 ], [ 332673.708551189338323, 5536402.280298108235002, 0.0 ], [ 332674.000278780818917, 5536401.849010934121907, 0.0 ], [ 332674.320414022658952, 5536401.438368703238666, 0.0 ], [ 332674.667500722920522, 5536401.050239296630025, 0.0 ], [ 332675.039960096415598, 5536400.686388187110424, 0.0 ], [ 332675.436097945494112, 5536400.348470417782664, 0.0 ], [ 332675.854112367087509, 5536400.038023066706955, 0.0 ], [ 332676.292101948463824, 5536399.756458259187639, 0.0 ], [ 332676.74807441647863, 5536399.505056742578745, 0.0 ], [ 332677.219955699518323, 5536399.284962059929967, 0.0 ], [ 332677.70559936191421, 5536399.097175352275372, 0.0 ], [ 332678.202796367520932, 5536398.942550800740719, 0.0 ], [ 332678.709285127639305, 5536398.821791741997004, 0.0 ], [ 332679.222761788289063, 5536398.735447470098734, 0.0 ], [ 332679.740890710032545, 5536398.683910737745464, 0.0 ], [ 332680.261315091629513, 5536398.66741596814245, 0.0 ], [ 332680.781667690491304, 5536398.686038190498948, 0.0 ], [ 332681.299581590748858, 5536398.739692699164152, 0.0 ], [ 332681.812700969167054, 5536398.828135437332094, 0.0 ], [ 332682.318691811349709, 5536398.950964106246829, 0.0 ], [ 332682.815252528293058, 5536399.107619998976588, 0.0 ], [ 332683.30012442561565, 5536399.297390538267791, 0.0 ], [ 332683.771101977617946, 5536399.519412519410253, 0.0 ], [ 332684.226042859372683, 5536399.772676034830511, 0.0 ], [ 332684.226042859372683, 5536399.772676034830511, 0.0 ], [ 332685.172556896985043, 5536400.312030654400587, 0.0 ], [ 332686.083015187294222, 5536400.910242933779955, 0.0 ], [ 332686.953762800083496, 5536401.564911417663097, 0.0 ], [ 332687.781304219097365, 5536402.273408016189933, 0.0 ], [ 332688.562317374453414, 5536403.032888549380004, 0.0 ], [ 332689.293666978541296, 5536403.84030417073518, 0.0 ], [ 332689.972417112672701, 5536404.692413602955639, 0.0 ], [ 332689.972417112672701, 5536404.692413602955639, 0.0 ], [ 332695.602860551793128, 5536414.556294523179531, 0.0 ], [ 332695.602860551793128, 5536414.556294523179531, 0.0 ], [ 332704.814290077483747, 5536433.580846493132412, 0.0 ], [ 332704.814290077483747, 5536433.580846493132412, 0.0 ], [ 332705.991359383857343, 5536436.793232152238488, 0.0 ], [ 332706.979605549422558, 5536440.068637973628938, 0.0 ], [ 332707.775682973500807, 5536443.395975423976779, 0.0 ], [ 332708.376896622008644, 5536446.763980163261294, 0.0 ], [ 332708.781211151217576, 5536450.161250175908208, 0.0 ], [ 332708.781211151217576, 5536450.161250175908208, 0.0 ], [ 332708.867269066860899, 5536451.471799922175705, 0.0 ], [ 332708.866216936905403, 5536452.785171725787222, 0.0 ], [ 332708.778059394622687, 5536454.095581908710301, 0.0 ], [ 332708.603184658277314, 5536455.397259837016463, 0.0 ], [ 332708.342362821276765, 5536456.68447332829237, 0.0 ], [ 332707.996742461225949, 5536457.951553897000849, 0.0 ], [ 332707.567845581914298, 5536459.192921718582511, 0.0 ], [ 332707.057560910703614, 5536460.403110197745264, 0.0 ], [ 332706.468135581235401, 5536461.576790045015514, 0.0 ], [ 332705.802165238012094, 5536462.708792740479112, 0.0 ], [ 332705.062582605460193, 5536463.794133300893009, 0.0 ], [ 332704.252644573803991, 5536464.828032225370407, 0.0 ], [ 332703.375917856115848, 5536465.805936547927558, 0.0 ], [ 332702.436263281968422, 5536466.723539884202182, 0.0 ], [ 332701.437818795617204, 5536467.576801396906376, 0.0 ] ] ] } },
{ "type": "Feature", "properties": { "fid": 10, "Layer": "-proposed driveway", "PaperSpace": null, "SubClasses": "AcDbEntity:AcDbPolyline", "Linetype": "ByLayer", "EntityHandle": "EFC", "Text": null }, "geometry": { "type": "MultiLineString", "coordinates": [ [ [ 332746.505618401628453, 5536875.363366327248514, 0.0 ], [ 332726.667071034084074, 5536841.96732927672565, 0.0 ], [ 332726.667071034084074, 5536841.96732927672565, 0.0 ], [ 332726.334697983402293, 5536841.36100959405303, 0.0 ], [ 332726.045018037781119, 5536840.733171294443309, 0.0 ], [ 332725.799416143738199, 5536840.086816042661667, 0.0 ], [ 332725.599066512659192, 5536839.425034034065902, 0.0 ], [ 332725.4449270068435, 5536838.750989217311144, 0.0 ], [ 332725.337734560249373, 5536838.06790417060256, 0.0 ], [ 332725.278001655067783, 5536837.379044691100717, 0.0 ], [ 332725.266013871412724, 5536836.687704185955226, 0.0 ], [ 332725.301828522526193, 5536835.997187919914722, 0.0 ], [ 332725.385274380038027, 5536835.310797221958637, 0.0 ], [ 332725.515952493238728, 5536834.631813692860305, 0.0 ], [ 332725.693238096078858, 5536833.963483522646129, 0.0 ], [ 332725.916283594211563, 5536833.309001966379583, 0.0 ], [ 332726.184022617351729, 5536832.671498070470989, 0.0 ], [ 332726.495175117568579, 5536832.054019710980356, 0.0 ], [ 332726.848253489064518, 5536831.459519025869668, 0.0 ], [ 332727.241569680336397, 5536830.890838293358684, 0.0 ], [ 332727.673243264842313, 5536830.350696350447834, 0.0 ], [ 332728.14121043094201, 5536829.841675590723753, 0.0 ], [ 332728.643233849201351, 5536829.366209620609879, 0.0 ], [ 332729.176913368690293, 5536828.926571618765593, 0.0 ], [ 332738.512382510409225, 5536821.763214198872447, 0.0 ], [ 332738.512382510409225, 5536821.763214198872447, 0.0 ], [ 332739.73408810904948, 5536820.766650265082717, 0.0 ], [ 332740.894367403932847, 5536819.699197126552463, 0.0 ], [ 332741.989113437302876, 5536818.564633172005415, 0.0 ], [ 332743.014451214578003, 5536817.366974336095154, 0.0 ], [ 332743.966751420812216, 5536816.110459886491299, 0.0 ], [ 332744.842643266892992, 5536814.799537418410182, 0.0 ], [ 332753.444063723494764, 5536803.619341363199055, 0.0 ] ] ] } }
]
}
