{
"type": "FeatureCollection",
"name": "ENV_RST_12",
"crs": { "type": "name", "properties": { "name": "urn:ogc:def:crs:EPSG::2955" } },
"features": [
{ "type": "Feature", "properties": { "fid": 6, "Layer": "-Enviro Covenant Areas", "PaperSpace": null, "SubClasses": "AcDbEntity:AcDbHatch", "Linetype": "ByLayer", "EntityHand": "985", "Text": "SOLID", "area": 4584.6169306704032, "ESA1_pct": null, "ESA2_pct": null, "ESA3_pct": null, "ESA4_pct": null, "LOT_ID": null, "LOT_ID_REF": null, "ESA2_AREA_LOT_m2": null, "ESA2_IN_CE_m2": null, "ESA2_CE_RATIO": null }, "geometry": { "type": "MultiPolygon", "coordinates": [ [ [ [ 332455.148808529076632, 5536796.610622364096344 ], [ 332455.489693691604771, 5536796.615204826928675 ], [ 332455.830098740640096, 5536796.596547508612275 ], [ 332456.168441151094157, 5536796.554737148806453 ], [ 332456.503147986717522, 5536796.489968120120466 ], [ 332456.832663212902844, 5536796.402541530318558 ], [ 332457.15545493067475, 5536796.292863820679486 ], [ 332457.470022498222534, 5536796.161444878205657 ], [ 332457.774903507262934, 5536796.008895662613213 ], [ 332458.068680581985973, 5536795.835925366729498 ], [ 332458.349987968162168, 5536795.643338120542467 ], [ 332458.617517882434186, 5536795.432029251940548 ], [ 332458.870026592223439, 5536795.202981125563383 ], [ 332459.10634019767167, 5536794.957258572801948 ], [ 332459.325360089307651, 5536794.696003946475685 ], [ 332459.526068055012729, 5536794.420431803911924 ], [ 332459.707531013991684, 5536794.131823267787695 ], [ 332459.868905354407616, 5536793.831520061939955 ], [ 332460.009440855414141, 5536793.520918281748891 ], [ 332460.128484174783807, 5536793.201461898162961 ], [ 332460.225481886416674, 5536792.874636047519743 ], [ 332460.299983052944299, 5536792.541960124857724 ], [ 332460.351641322369687, 5536792.204980725422502 ], [ 332460.380216537974775, 5536791.865264445543289 ], [ 332469.052768537367228, 5536617.928786730393767 ], [ 332469.080051080847625, 5536617.600077266804874 ], [ 332469.128946750075556, 5536617.273881831206381 ], [ 332469.199242762348149, 5536616.951619951054454 ], [ 332469.290633205557242, 5536616.634694036096334 ], [ 332469.402720369573217, 5536616.324483275413513 ], [ 332469.535016476758756, 5536616.022337634116411 ], [ 332469.686945804976858, 5536615.729571980424225 ], [ 332469.857847192732152, 5536615.44746036361903 ], [ 332470.046976916433778, 5536615.177230468951166 ], [ 332470.253511927090585, 5536614.92005827371031 ], [ 332470.476553431886714, 5536614.677062932401896 ], [ 332470.715130805445369, 5536614.449301905930042 ], [ 332470.968205813900568, 5536614.23776635620743 ], [ 332471.234677133150399, 5536614.043376837857068 ], [ 332471.513385141151957, 5536613.866979290731251 ], [ 332471.803116964932997, 5536613.70934135466814 ], [ 332472.10261175816413, 5536613.571149033494294 ], [ 332472.410566188511439, 5536613.453003709204495 ], [ 332510.727939482429065, 5536600.185247719287872 ], [ 332511.045664766570553, 5536600.062966972589493 ], [ 332511.354332434711978, 5536599.919348700903356 ], [ 332511.652511479624081, 5536599.755058730021119 ], [ 332511.938819520117249, 5536599.570858721621335 ], [ 332512.211929209937807, 5536599.367602639831603 ], [ 332512.470574391365517, 5536599.146232796832919 ], [ 332512.713555965397973, 5536598.907775480300188 ], [ 332512.93974745052401, 5536598.653336195275187 ], [ 332513.148100205522496, 5536598.384094544686377 ], [ 332513.337648290849756, 5536598.101298751309514 ], [ 332513.507512946962379, 5536597.806259879842401 ], [ 332513.656906668154988, 5536597.500345751643181 ], [ 332513.785136853461154, 5536597.184974610805511 ], [ 332513.891609017911833, 5536596.861608539707959 ], [ 332513.975829548202455, 5536596.531746691092849 ], [ 332514.037407991534565, 5536596.196918328292668 ], [ 332514.076058865408413, 5536595.858675741590559 ], [ 332514.091602981381584, 5536595.518587050959468 ], [ 332514.083968275750522, 5536595.17822893243283 ], [ 332514.05319014354609, 5536594.839179313741624 ], [ 332513.999411274620797, 5536594.503010055050254 ], [ 332513.92288099200232, 5536594.171279663220048 ], [ 332513.823954095947556, 5536593.845526064746082 ], [ 332513.703089219285175, 5536593.527259480208158 ], [ 332513.560846700915135, 5536593.21795541793108 ], [ 332513.397885988117196, 5536592.919047834351659 ], [ 332513.214962579484563, 5536592.631922489032149 ], [ 332490.658253644476645, 5536559.752239075489342 ], [ 332490.451146402163431, 5536559.471831454895437 ], [ 332490.225004393432755, 5536559.206536081619561 ], [ 332489.980926866002847, 5536558.957642522640526 ], [ 332489.720100249920506, 5536558.726360617205501 ], [ 332489.443792390404269, 5536558.513814598321915 ], [ 332489.153346385108307, 5536558.321037624962628 ], [ 332488.850174055376556, 5536558.148966762237251 ], [ 332488.53574908367591, 5536557.998438424430788 ], [ 332488.211599849979393, 5536557.87018431071192 ], [ 332487.879302002838813, 5536557.764827849343419 ], [ 332487.540470800129697, 5536557.682881162501872 ], [ 332487.196753257594537, 5536557.624742584303021 ], [ 332486.849820142728277, 5536557.5906947189942 ], [ 332486.501357853703666, 5536557.580903068184853 ], [ 332486.153060221578926, 5536557.595415228046477 ], [ 332485.806620277231559, 5536557.634160657413304 ], [ 332485.463722021493595, 5536557.696951019577682 ], [ 332485.12603223946644, 5536557.783481097780168 ], [ 332484.795192398538347, 5536557.893330280669034 ], [ 332484.472810669452883, 5536558.025964605621994 ], [ 332484.160454109020066, 5536558.180739352479577 ], [ 332483.859641043120064, 5536558.356902183033526 ], [ 332483.571833685971797, 5536558.553596789948642 ], [ 332483.298431032919325, 5536558.769867067225277 ], [ 332483.040762059681583, 5536559.004661750979722 ], [ 332482.800079262582585, 5536559.256839534267783 ], [ 332482.577552570321131, 5536559.525174613110721 ], [ 332482.374263657082338, 5536559.808362644165754 ], [ 332482.191200684581418, 5536560.105027087032795 ], [ 332454.200646160345059, 5536609.217937461100519 ], [ 332453.880369454505853, 5536609.827820873819292 ], [ 332453.602840464795008, 5536610.458306880667806 ], [ 332453.369376163347624, 5536611.106403606012464 ], [ 332453.181084419891704, 5536611.76903560385108 ], [ 332453.038858744432218, 5536612.443058453500271 ], [ 332452.943374047521502, 5536613.125273682177067 ], [ 332452.89508343761554, 5536613.812443939037621 ], [ 332446.556045718549285, 5536791.255377660505474 ], [ 332446.555429490341339, 5536791.594217725098133 ], [ 332446.577764047251549, 5536791.932321461848915 ], [ 332446.622946817369666, 5536792.268136123195291 ], [ 332446.690770297951531, 5536792.60011947248131 ], [ 332446.780923008511309, 5536792.926746872253716 ], [ 332446.892990920925513, 5536793.246518278494477 ], [ 332447.026459361193702, 5536793.557965135201812 ], [ 332447.180715373135172, 5536793.859657117165625 ], [ 332447.355050532962196, 5536794.150208698585629 ], [ 332447.548664203262888, 5536794.428285514935851 ], [ 332447.760667209571693, 5536794.692610493861139 ], [ 332447.990085924218874, 5536794.941969717852771 ], [ 332448.235866737319157, 5536795.175218 ], [ 332448.496880895923823, 5536795.391284142620862 ], [ 332448.771929687645752, 5536795.589175859466195 ], [ 332449.059749945648946, 5536795.767984326928854 ], [ 332449.359019850147888, 5536795.926888366229832 ], [ 332449.66836499836063, 5536796.065158205106854 ], [ 332449.986364716954995, 5536796.182158838026226 ], [ 332450.311558586196043, 5536796.277352937497199 ], [ 332450.642453147214837, 5536796.35030332300812 ], [ 332450.97752876044251, 5536796.400674968026578 ], [ 332451.315246584883425, 5536796.428236538544297 ], [ 332455.148808529076632, 5536796.610622364096344 ] ] ] ] } },
{ "type": "Feature", "properties": { "fid": 7, "Layer": "-Enviro Covenant Areas", "PaperSpace": null, "SubClasses": "AcDbEntity:AcDbHatch", "Linetype": "ByLayer", "EntityHand": "98A", "Text": "SOLID", "area": 155.03815970676442, "ESA1_pct": null, "ESA2_pct": null, "ESA3_pct": null, "ESA4_pct": null, "LOT_ID": null, "LOT_ID_REF": null, "ESA2_AREA_LOT_m2": null, "ESA2_IN_CE_m2": null, "ESA2_CE_RATIO": null }, "geometry": { "type": "MultiPolygon", "coordinates": [ [ [ [ 332616.835016553115565, 5536260.837932283990085 ], [ 332616.463429285329767, 5536261.337284032255411 ], [ 332616.061495334084611, 5536261.812550656497478 ], [ 332615.630771909025498, 5536262.261890836060047 ], [ 332615.172927758889273, 5536262.683563695289195 ], [ 332609.182583840971347, 5536267.865524775348604 ], [ 332608.950520013167989, 5536268.054432825185359 ], [ 332608.707571355218533, 5536268.229120606556535 ], [ 332608.454608011001255, 5536268.388962459750473 ], [ 332608.192535992653575, 5536268.533385895192623 ], [ 332607.92229393607704, 5536268.661873647011817 ], [ 332607.357771620329004, 5536268.909848776645958 ], [ 332607.29565449320944, 5536268.939729475416243 ], [ 332607.235743401164655, 5536268.973818399012089 ], [ 332607.178323005267885, 5536269.011953577399254 ], [ 332607.123666132451035, 5536269.053953814320266 ], [ 332607.072032479045447, 5536269.099619551561773 ], [ 332607.023667376895901, 5536269.148733811452985 ], [ 332606.978800627577584, 5536269.201063234359026 ], [ 332606.937645410711411, 5536269.256359182298183 ], [ 332606.9003972709761, 5536269.314358921721578 ], [ 332606.867233188881073, 5536269.374786873348057 ], [ 332606.838310740015004, 5536269.437355919741094 ], [ 332606.813767346437089, 5536269.501768772490323 ], [ 332606.793719623354264, 5536269.567719378508627 ], [ 332606.778262825449929, 5536269.634894382208586 ], [ 332606.767470394028351, 5536269.702974607236683 ], [ 332606.761393608234357, 5536269.771636579185724 ], [ 332606.760061341163237, 5536269.840554056689143 ], [ 332606.763479923072737, 5536269.909399586729705 ], [ 332606.771633110824041, 5536269.977846056222916 ], [ 332606.784482165472582, 5536270.045568250119686 ], [ 332606.801966036087833, 5536270.112244391813874 ], [ 332606.8240016499185, 5536270.177557678893209 ], [ 332606.850484307098668, 5536270.241197780705988 ], [ 332606.881288178090472, 5536270.302862318232656 ], [ 332606.916266901534982, 5536270.362258299253881 ], [ 332606.955254279833753, 5536270.419103510677814 ], [ 332606.99806506850291, 5536270.473127856850624 ], [ 332607.044495856680442, 5536270.524074648506939 ], [ 332607.094326033431571, 5536270.571701817214489 ], [ 332607.147318835952319, 5536270.615783066488802 ], [ 332607.203222474548966, 5536270.656108950264752 ], [ 332607.261771329096518, 5536270.692487862892449 ], [ 332607.322687210864387, 5536270.724746955558658 ], [ 332607.385680684528779, 5536270.752732951194048 ], [ 332607.450452443328686, 5536270.776312878355384 ], [ 332607.51669473113725, 5536270.795374698005617 ], [ 332607.584092804754619, 5536270.809827841818333 ], [ 332607.652326429379173, 5536270.819603635929525 ], [ 332607.721071400213987, 5536270.824655631557107 ], [ 332612.872155821707565, 5536271.025057001039386 ], [ 332613.011283691856079, 5536271.035337558016181 ], [ 332613.149356411595363, 5536271.055291960015893 ], [ 332613.285702166729607, 5536271.084823114797473 ], [ 332613.419657545746304, 5536271.123787336051464 ], [ 332613.550570767954923, 5536271.171995036303997 ], [ 332613.677804854756687, 5536271.229211653582752 ], [ 332613.800740728911478, 5536271.295158790424466 ], [ 332613.918780226784293, 5536271.369515572674572 ], [ 332614.031349008961115, 5536271.451920204795897 ], [ 332614.137899354449473, 5536271.541971734724939 ], [ 332614.237912826007232, 5536271.639232001267374 ], [ 332614.330902792571578, 5536271.743227771483362 ], [ 332614.416416797030251, 5536271.853453037329018 ], [ 332614.494038757693488, 5536271.969371479935944 ], [ 332614.563390992814675, 5536272.090419080108404 ], [ 332614.624136058380827, 5536272.216006862930954 ], [ 332614.67597838974325, 5536272.345523760654032 ], [ 332614.718665740103461, 5536272.478339588269591 ], [ 332614.751990407414269, 5536272.613808111287653 ], [ 332614.775790245446842, 5536272.751270185224712 ], [ 332614.789949452271685, 5536272.890056967735291 ], [ 332614.794399134174455, 5536273.029493169859052 ], [ 332614.789117640408222, 5536273.168900342658162 ], [ 332614.774130669073202, 5536273.307600179687142 ], [ 332614.055612375610508, 5536278.315323113463819 ], [ 332614.048183495353442, 5536278.383801434189081 ], [ 332614.045486233546399, 5536278.452628705650568 ], [ 332614.047533387376461, 5536278.521478380076587 ], [ 332614.054315244196914, 5536278.59002380259335 ], [ 332614.065799627685919, 5536278.65793976187706 ], [ 332614.081932050583418, 5536278.72490403149277 ], [ 332614.102635973016731, 5536278.790598902851343 ], [ 332614.127813165949192, 5536278.854712688364089 ], [ 332614.157344177016057, 5536278.916941202245653 ], [ 332614.191088897234295, 5536278.976989202201366 ], [ 332614.228887225792278, 5536279.03457179479301 ], [ 332614.270559829717968, 5536279.089415778405964 ], [ 332614.315908994758502, 5536279.141260949894786 ], [ 332614.364719563105609, 5536279.189861329272389 ], [ 332614.416759954590816, 5536279.234986335970461 ], [ 332614.471783265238628, 5536279.276421873830259 ], [ 332614.529528438695706, 5536279.313971354626119 ], [ 332614.589721504715271, 5536279.347456624731421 ], [ 332614.652076879283413, 5536279.376718814484775 ], [ 332614.716298719285987, 5536279.401619091629982 ], [ 332614.782082326186355, 5536279.42203931696713 ], [ 332614.84911559172906, 5536279.437882606871426 ], [ 332614.917080478684511, 5536279.449073793366551 ], [ 332614.985654529882595, 5536279.455559780821204 ], [ 332615.05451239773538, 5536279.457309796474874 ], [ 332615.123327388428152, 5536279.454315537586808 ], [ 332615.191773011232726, 5536279.44659121055156 ], [ 332615.259524528228212, 5536279.434173461981118 ], [ 332615.326260494301096, 5536279.417121208272874 ], [ 332615.391664282884449, 5536279.395515353418887 ], [ 332615.455425587657373, 5536279.369458405300975 ], [ 332615.51724189525703, 5536279.339073990471661 ], [ 332615.57681992003927, 5536279.304506267420948 ], [ 332615.633876995940227, 5536279.265919241122901 ], [ 332615.688142417580821, 5536279.223495986312628 ], [ 332615.739358724211343, 5536279.177437778562307 ], [ 332615.787282921781298, 5536279.12796314060688 ], [ 332615.83168763545109, 5536279.075306802988052 ], [ 332615.872362188412808, 5536279.019718591123819 ], [ 332615.909113601548597, 5536278.961462242528796 ], [ 332617.180317247228231, 5536276.783650000579655 ], [ 332617.839836380095221, 5536275.693712465465069 ], [ 332618.280483230482787, 5536274.652887813746929 ], [ 332618.542506221216172, 5536273.547531560063362 ], [ 332618.808722225599922, 5536270.183139870874584 ], [ 332619.084301521827001, 5536269.541906380094588 ], [ 332620.06670763110742, 5536262.587173721753061 ], [ 332620.102210178622045, 5536262.38570796046406 ], [ 332620.151360147923697, 5536262.187130104750395 ], [ 332620.213928997633047, 5536261.992363517172635 ], [ 332620.289625790377613, 5536261.802313840016723 ], [ 332620.378098545537796, 5536261.617864780128002 ], [ 332620.478935875755269, 5536261.439874001778662 ], [ 332620.591668899811339, 5536261.269169140607119 ], [ 332620.715773423318751, 5536261.10654395353049 ], [ 332620.850672375469003, 5536260.952754626050591 ], [ 332620.995738492871169, 5536260.808516261167824 ], [ 332621.150297236163169, 5536260.674499548971653 ], [ 332621.313629926298745, 5536260.551327650435269 ], [ 332621.484977086482104, 5536260.439573299139738 ], [ 332621.663541973684914, 5536260.339756139554083 ], [ 332621.848494283331092, 5536260.25234030932188 ], [ 332622.038974010094535, 5536260.177732279524207 ], [ 332622.234095446881838, 5536260.116278970614076 ], [ 332622.432951303198934, 5536260.068266130983829 ], [ 332622.634616923867725, 5536260.033917016349733 ], [ 332622.838154588884208, 5536260.013391343876719 ], [ 332623.042617873288691, 5536260.006784555502236 ], [ 332623.247056048130617, 5536260.014127373695374 ], [ 332623.450518501282204, 5536260.035385653376579 ], [ 332625.199076673772652, 5536260.27859818469733 ], [ 332625.334912677528337, 5536260.29278399143368 ], [ 332625.471400114998687, 5536260.297666247934103 ], [ 332625.607902522780932, 5536260.29322218708694 ], [ 332625.74378336785594, 5536260.279472533613443 ], [ 332625.878409015364014, 5536260.256481404416263 ], [ 332626.011151683866046, 5536260.224356009624898 ], [ 332626.14139237254858, 5536260.183246157132089 ], [ 332626.268523747567087, 5536260.133343546651304 ], [ 332626.391952974547166, 5536260.074880884028971 ], [ 332626.511104482691735, 5536260.008130789734423 ], [ 332626.625422648969106, 5536259.933404529467225 ], [ 332626.734374388935976, 5536259.851050565950572 ], [ 332626.837451642786618, 5536259.76145292725414 ], [ 332626.934173744346481, 5536259.665029424242675 ], [ 332627.024089662532788, 5536259.562229692935944 ], [ 332627.106780104688369, 5536259.453533107414842 ], [ 332627.181859471660573, 5536259.339446536265314 ], [ 332627.248977656068746, 5536259.220501984469593 ], [ 332627.307821674796287, 5536259.097254110500216 ], [ 332627.358117128489539, 5536258.970277639105916 ], [ 332627.399629481195007, 5536258.840164681896567 ], [ 332627.432165154023096, 5536258.707521977834404 ], [ 332627.455572427774314, 5536258.572968061082065 ], [ 332627.469742150453385, 5536258.437130378559232 ], [ 332627.474608246353455, 5536258.300642363727093 ], [ 332627.470148024032824, 5536258.164140483364463 ], [ 332627.456382282311097, 5536258.028261266648769 ], [ 332627.433375213004183, 5536257.893638342618942 ], [ 332627.401234101911541, 5536257.760899478569627 ], [ 332627.360108828346711, 5536257.630663658492267 ], [ 332627.310191166121513, 5536257.503538192249835 ], [ 332627.251713889592793, 5536257.380115888081491 ], [ 332627.184949687856715, 5536257.260972284711897 ], [ 332627.110209893318824, 5536257.146662966348231 ], [ 332627.027843029994983, 5536257.03772097826004 ], [ 332626.938233188062441, 5536256.934654333628714 ], [ 332625.785258797812276, 5536255.696575400419533 ], [ 332624.845213730877731, 5536254.951417843811214 ], [ 332623.860512109473348, 5536254.316704037599266 ], [ 332623.786566442809999, 5536254.297350675798953 ], [ 332623.588565542246215, 5536254.252627803012729 ], [ 332623.387993543117773, 5536254.221396964043379 ], [ 332623.185768719646148, 5536254.203801144845784 ], [ 332622.982816912990529, 5536254.199920902960002 ], [ 332622.780067292740569, 5536254.209774004295468 ], [ 332622.578448102867696, 5536254.233315337449312 ], [ 332622.378882411750965, 5536254.270437124185264 ], [ 332622.182283886475489, 5536254.32096941024065 ], [ 332621.989552609447856, 5536254.384680844843388 ], [ 332621.801570957875811, 5536254.461279740557075 ], [ 332621.619199563807342, 5536254.550415405072272 ], [ 332621.4432733739377, 5536254.651679751463234 ], [ 332621.274597827112302, 5536254.764609162695706 ], [ 332621.113945166755002, 5536254.888686617836356 ], [ 332620.962050905101933, 5536255.023344054818153 ], [ 332620.819610456237569, 5536255.167964975349605 ], [ 332620.687275951961055, 5536255.321887264959514 ], [ 332620.565653256257065, 5536255.484406223520637 ], [ 332616.835016553115565, 5536260.837932283990085 ] ] ] ] } },
{ "type": "Feature", "properties": { "fid": 8, "Layer": "-Enviro Covenant Areas", "PaperSpace": null, "SubClasses": "AcDbEntity:AcDbHatch", "Linetype": "ByLayer", "EntityHand": "98B", "Text": "SOLID", "area": 649.7646094625743, "ESA1_pct": null, "ESA2_pct": null, "ESA3_pct": null, "ESA4_pct": null, "LOT_ID": null, "LOT_ID_REF": null, "ESA2_AREA_LOT_m2": null, "ESA2_IN_CE_m2": null, "ESA2_CE_RATIO": null }, "geometry": { "type": "MultiPolygon", "coordinates": [ [ [ [ 332568.582701769191772, 5536321.44697876740247 ], [ 332568.660127243027091, 5536321.136804362758994 ], [ 332568.757216362399049, 5536320.832211901433766 ], [ 332568.873572215554304, 5536320.534446590580046 ], [ 332569.008719126461074, 5536320.244725729338825 ], [ 332569.16210459911963, 5536319.964233729988337 ], [ 332569.333101576019544, 5536319.694117275997996 ], [ 332569.521011002070736, 5536319.43548063468188 ], [ 332569.725064681842923, 5536319.189381141215563 ], [ 332569.944428420683835, 5536318.956824880093336 ], [ 332570.178205434407573, 5536318.738762566819787 ], [ 332575.144759457325563, 5536314.39453455619514 ], [ 332575.390043890627567, 5536314.164991609752178 ], [ 332575.619360955257434, 5536313.919495985843241 ], [ 332575.831675473367795, 5536313.659155895002186 ], [ 332576.026029019849375, 5536313.38514655828476 ], [ 332576.201544248324353, 5536313.098704902455211 ], [ 332576.357428852119483, 5536312.801123976707458 ], [ 332576.492979140544776, 5536312.493747111409903 ], [ 332576.607583215634804, 5536312.177961862646043 ], [ 332576.700723734276835, 5536311.855193738825619 ], [ 332576.730893137690146, 5536311.735713753849268 ], [ 332576.802449405076914, 5536311.405772193334997 ], [ 332576.851576817338355, 5536311.071753885596991 ], [ 332576.878051389358006, 5536310.735181709751487 ], [ 332576.881752416375093, 5536310.397590189240873 ], [ 332576.862663024512585, 5536310.060518493875861 ], [ 332576.82087024737848, 5536309.725503426045179 ], [ 332576.756564629555214, 5536309.394072406925261 ], [ 332576.670039357617497, 5536309.067736522294581 ], [ 332576.561688923567999, 5536308.747983624227345 ], [ 332576.432007326278836, 5536308.436271551996469 ], [ 332576.281585819029715, 5536308.134021485224366 ], [ 332576.111110213969368, 5536307.842611463740468 ], [ 332575.921357755316421, 5536307.563370103947818 ], [ 332575.713193575676996, 5536307.29757054336369 ], [ 332575.487566751544364, 5536307.04642463196069 ], [ 332575.245505976374261, 5536306.811077412217855 ], [ 332574.988114870386198, 5536306.592601896263659 ], [ 332574.716566949035041, 5536306.3919941727072 ], [ 332574.432100272388197, 5536306.210168865509331 ], [ 332574.136011800612323, 5536306.047954965382814 ], [ 332573.829651480831672, 5536305.906092048622668 ], [ 332573.514416092191823, 5536305.785226908512414 ], [ 332573.191742877825163, 5536305.685910599306226 ], [ 332572.955382983956952, 5536305.621811660006642 ], [ 332572.621912211936433, 5536305.543533833697438 ], [ 332572.283864532655571, 5536305.488271365873516 ], [ 332571.942826473736204, 5536305.456283614039421 ], [ 332571.600398597482126, 5536305.44772070273757 ], [ 332571.258187988772988, 5536305.462622821331024 ], [ 332570.917800712748431, 5536305.500920030288398 ], [ 332570.580834277381655, 5536305.562432592734694 ], [ 332570.248870135867037, 5536305.646871817298234 ], [ 332569.923466264619492, 5536305.753841413185 ], [ 332569.606149851402733, 5536305.882839350029826 ], [ 332569.298410127754323, 5536306.033260214142501 ], [ 332569.001691379933618, 5536306.204398049041629 ], [ 332568.717386170406826, 5536306.395449670031667 ], [ 332568.446828802407254, 5536306.605518431402743 ], [ 332568.191289057547692, 5536306.833618436940014 ], [ 332567.951966236811131, 5536307.078679166734219 ], [ 332565.279382905573584, 5536310.00980728585273 ], [ 332564.860091915645171, 5536310.500580867752433 ], [ 332564.473337122064549, 5536311.017382930964231 ], [ 332564.12072999146767, 5536311.558060148730874 ], [ 332563.803739709430374, 5536312.120359716005623 ], [ 332563.523687059350777, 5536312.701938736252487 ], [ 332563.281738918740302, 5536313.30037397891283 ], [ 332563.078903397603426, 5536313.913171983323991 ], [ 332562.916025637707207, 5536314.537779442034662 ], [ 332562.793784291483462, 5536315.171593843959272 ], [ 332561.441835379577242, 5536323.643474763259292 ], [ 332562.584514692600351, 5536336.511783695779741 ], [ 332562.739693439158145, 5536337.790423281490803 ], [ 332562.976853451749776, 5536339.05642279330641 ], [ 332563.295011109381448, 5536340.304531497880816 ], [ 332563.692846853577066, 5536341.529572866857052 ], [ 332564.168710660829674, 5536342.726466041058302 ], [ 332564.72062888648361, 5536343.890246907249093 ], [ 332565.876329568738583, 5536346.137287016957998 ], [ 332566.525095710472669, 5536347.301586424000561 ], [ 332567.249969961994793, 5536348.420088965445757 ], [ 332568.047732992563397, 5536349.487827118486166 ], [ 332568.914841755817179, 5536350.500058814883232 ], [ 332569.847445225343108, 5536351.452288505621254 ], [ 332570.841401497775223, 5536352.340287122875452 ], [ 332571.892296188219916, 5536353.160110863856971 ], [ 332572.995462035178207, 5536353.908118705265224 ], [ 332575.510694691503886, 5536355.493881032802165 ], [ 332576.715448558796197, 5536356.195971035398543 ], [ 332577.96619442908559, 5536356.812410018406808 ], [ 332579.256852544785943, 5536357.340201530605555 ], [ 332580.581149138626643, 5536357.776780027896166 ], [ 332589.939159200177528, 5536360.504037547856569 ], [ 332590.073292753542773, 5536360.538140911608934 ], [ 332590.209463700943161, 5536360.562886065803468 ], [ 332590.347019958891906, 5536360.578154512681067 ], [ 332590.48530280997511, 5536360.583873135969043 ], [ 332590.623650057474151, 5536360.580014550127089 ], [ 332590.761399196111597, 5536360.566597234457731 ], [ 332590.897890584950801, 5536360.54368543997407 ], [ 332591.032470605918206, 5536360.511388883925974 ], [ 332591.164494794094935, 5536360.469862226396799 ], [ 332591.293330923537724, 5536360.419304326176643 ], [ 332591.418362035125028, 5536360.359957289882004 ], [ 332591.538989390770439, 5536360.292105314321816 ], [ 332591.654635340848472, 5536360.216073322109878 ], [ 332591.764746090047993, 5536360.132225409150124 ], [ 332591.868794349778909, 5536360.040963099338114 ], [ 332591.96628186275484, 5536359.942723421379924 ], [ 332592.056741789390799, 5536359.837976816110313 ], [ 332592.139740943035576, 5536359.727224886417389 ], [ 332592.214881864667404, 5536359.61099798977375 ], [ 332592.281804726051632, 5536359.489852704107761 ], [ 332592.3401890527457, 5536359.364369159564376 ], [ 332592.38975525915157, 5536359.235148260369897 ], [ 332592.430265986826271, 5536359.102808808907866 ], [ 332592.461527241568547, 5536358.967984540387988 ], [ 332592.483389322296716, 5536358.831321088597178 ], [ 332592.495747537759598, 5536358.693472896702588 ], [ 332592.498542707995512, 5536358.555100078694522 ], [ 332592.491761447745375, 5536358.416865264065564 ], [ 332592.475436230539344, 5536358.279430418275297 ], [ 332592.449645233107731, 5536358.14345367718488 ], [ 332592.414511961222161, 5536358.009586195461452 ], [ 332590.46886626095511, 5536351.519625009968877 ], [ 332590.360541887988802, 5536351.198329015634954 ], [ 332590.230691048491281, 5536350.885113363154233 ], [ 332590.079910876054782, 5536350.581418408080935 ], [ 332589.908894750173204, 5536350.288640727289021 ], [ 332589.718429107451811, 5536350.008126690983772 ], [ 332589.509389825398102, 5536349.741166274063289 ], [ 332589.282738194451667, 5536349.488987123593688 ], [ 332589.039516497403383, 5536349.252748914062977 ], [ 332588.780843216343783, 5536349.033538011834025 ], [ 332588.507907889143098, 5536348.83236248511821 ], [ 332588.221965639328118, 5536348.650147459469736 ], [ 332587.924331404210534, 5536348.487730871886015 ], [ 332587.616373887984082, 5536348.34585961420089 ], [ 332587.299509267380927, 5536348.225186094641685 ], [ 332579.522424064169172, 5536345.561649791896343 ], [ 332579.199860533175524, 5536345.438577494584024 ], [ 332578.886558905011043, 5536345.293539183214307 ], [ 332578.584012926789001, 5536345.127226366661489 ], [ 332578.293665065488312, 5536344.940431983210146 ], [ 332578.016899630252738, 5536344.734046625904739 ], [ 332577.755036172457039, 5536344.509054290130734 ], [ 332577.50932319444837, 5536344.266527684405446 ], [ 332577.280932196998037, 5536344.00762311834842 ], [ 332577.070952093752567, 5536343.733574987389147 ], [ 332576.880384019634221, 5536343.445689886808395 ], [ 332576.710136557696387, 5536343.145340383984149 ], [ 332576.561021407018416, 5536342.833958473987877 ], [ 332576.43374951306032, 5536342.513028752058744 ], [ 332576.328927677706815, 5536342.184081331826746 ], [ 332576.247055666521192, 5536341.848684557713568 ], [ 332574.45510344277136, 5536333.225549164228141 ], [ 332574.377004043664783, 5536332.903649711981416 ], [ 332574.277762644225731, 5536332.587627690285444 ], [ 332574.157814790203702, 5536332.278870041482151 ], [ 332574.017686902836431, 5536331.978731825016439 ], [ 332573.857993968529627, 5536331.688530274666846 ], [ 332573.679436839884147, 5536331.409539010375738 ], [ 332573.482799159537535, 5536331.142982456833124 ], [ 332573.268943921371829, 5536330.890030464157462 ], [ 332573.038809682766441, 5536330.651793175376952 ], [ 332572.793406445591245, 5536330.429316154681146 ], [ 332572.533811223518569, 5536330.22357579972595 ], [ 332570.087481260765344, 5536328.413378090597689 ], [ 332569.823406620358583, 5536328.203834849409759 ], [ 332569.574052022479009, 5536327.976973504759371 ], [ 332569.340550971217453, 5536327.733825310133398 ], [ 332569.123964904283639, 5536327.475495557300746 ], [ 332568.925278368114959, 5536327.203158549964428 ], [ 332568.745394542289432, 5536326.918052262626588 ], [ 332568.585131133964751, 5536326.621472720056772 ], [ 332568.445216660795268, 5536326.314768097363412 ], [ 332568.326287139090709, 5536325.999332597479224 ], [ 332568.228883193049114, 5536325.676600112579763 ], [ 332568.153447596705519, 5536325.348037703894079 ], [ 332568.100323261518497, 5536325.015138935297728 ], [ 332568.069751677510794, 5536324.679417080245912 ], [ 332568.061871815531049, 5536324.342398248612881 ], [ 332568.076719495467842, 5536324.005614442750812 ], [ 332568.114227223501075, 5536323.670596598647535 ], [ 332568.174224498798139, 5536323.338867624290287 ], [ 332568.582701769191772, 5536321.44697876740247 ] ] ] ] } },
{ "type": "Feature", "properties": { "fid": 9, "Layer": "-Enviro Covenant Areas", "PaperSpace": null, "SubClasses": "AcDbEntity:AcDbHatch", "Linetype": "ByLayer", "EntityHand": "98C", "Text": "SOLID", "area": 414.70227538761537, "ESA1_pct": null, "ESA2_pct": null, "ESA3_pct": null, "ESA4_pct": null, "LOT_ID": null, "LOT_ID_REF": null, "ESA2_AREA_LOT_m2": null, "ESA2_IN_CE_m2": null, "ESA2_CE_RATIO": null }, "geometry": { "type": "MultiPolygon", "coordinates": [ [ [ [ 332588.154819716815837, 5536257.054736462421715 ], [ 332583.907310769020114, 5536257.793884014710784 ], [ 332584.050438772654161, 5536258.183523518964648 ], [ 332584.220164412283339, 5536258.562334522604942 ], [ 332584.41567534051137, 5536258.928503944538534 ], [ 332584.636035795556381, 5536259.280279211699963 ], [ 332584.880191079864744, 5536259.615976644679904 ], [ 332585.146972608054057, 5536259.933989513665438 ], [ 332585.43510350032011, 5536260.232795734889805 ], [ 332585.743204693542793, 5536260.510965149849653 ], [ 332586.069801542093046, 5536260.767166374251246 ], [ 332586.413330875802785, 5536261.000173168256879 ], [ 332586.772148481395561, 5536261.208870303817093 ], [ 332587.144536972453352, 5536261.392258909530938 ], [ 332587.528714009094983, 5536261.549461242742836 ], [ 332587.922840828425251, 5536261.679724894464016 ], [ 332588.325031045824289, 5536261.782426393590868 ], [ 332588.733359683072194, 5536261.857074185274541 ], [ 332589.145872382156085, 5536261.903310988098383 ], [ 332589.560594759124797, 5536261.920915502123535 ], [ 332589.975541853986215, 5536261.909803465940058 ], [ 332590.388727631128859, 5536261.870028066448867 ], [ 332590.798174485098571, 5536261.801779677160084 ], [ 332591.201922705804463, 5536261.705384952016175 ], [ 332591.598039858159609, 5536261.581305257976055 ], [ 332591.984630031161942, 5536261.430134470574558 ], [ 332592.359842912235763, 5536261.252596128731966 ], [ 332592.721882643294521, 5536261.049539973959327 ], [ 332593.069016415858641, 5536260.821937880478799 ], [ 332593.399582765181549, 5536260.570879206992686 ], [ 332593.711999522056431, 5536260.29756558034569 ], [ 332594.004771385458298, 5536260.003305142745376 ], [ 332594.276497079525143, 5536259.68950629606843 ], [ 332594.525876060477458, 5536259.357670956291258 ], [ 332594.751714741170872, 5536259.009387366473675 ], [ 332594.95293220388703, 5536258.646322494372725 ], [ 332595.128565373946913, 5536258.270214054733515 ], [ 332595.277773629175499, 5536257.882862191647291 ], [ 332595.399842823389918, 5536257.486120864748955 ], [ 332595.494188704411499, 5536257.081888970918953 ], [ 332595.560359710303601, 5536256.672101262025535 ], [ 332595.598039130913094, 5536256.258719077333808 ], [ 332595.607046623597853, 5536255.843720964156091 ], [ 332595.587339076329954, 5536255.429093201644719 ], [ 332595.539010814100038, 5536255.016820297576487 ], [ 332595.462293147516903, 5536254.60887548699975 ], [ 332595.357553265581373, 5536254.20721129141748 ], [ 332595.225292478280608, 5536253.813750171102583 ], [ 332595.066143817268312, 5536253.430375325493515 ], [ 332594.880869005864952, 5536253.058921676129103 ], [ 332594.670354813395534, 5536252.701167090795934 ], [ 332594.61858997849049, 5536252.613317478448153 ], [ 332594.57291310216533, 5536252.522154022939503 ], [ 332594.533535255293828, 5536252.428097988478839 ], [ 332594.500638401252218, 5536252.331584001891315 ], [ 332594.474374554876704, 5536252.233058051206172 ], [ 332594.454865080362651, 5536252.13297542091459 ], [ 332594.442200130142737, 5536252.031798587180674 ], [ 332594.436438228352927, 5536251.929995085112751 ], [ 332594.43760600045789, 5536251.828035343438387 ], [ 332594.445698050316423, 5536251.726390514522791 ], [ 332594.460676984861493, 5536251.625530294142663 ], [ 332594.482473587151617, 5536251.525920753367245 ], [ 332594.510987135930918, 5536251.428022182546556 ], [ 332594.546085871406831, 5536251.332286967895925 ], [ 332594.587607603869401, 5536251.23915749695152 ], [ 332594.635360463056713, 5536251.149064118042588 ], [ 332594.689123785181437, 5536251.062423147261143 ], [ 332594.748649132263381, 5536250.979634949937463 ], [ 332594.813661440217402, 5536250.901082086376846 ], [ 332594.883860289992299, 5536250.827127546072006 ], [ 332594.958921295707114, 5536250.758113069459796 ], [ 332595.03849760373123, 5536250.694357570260763 ], [ 332595.122221495432314, 5536250.636155658401549 ], [ 332595.209706086316146, 5536250.583776283077896 ], [ 332595.300547113874927, 5536250.537461487576365 ], [ 332595.39432480558753, 5536250.49742529168725 ], [ 332595.704803553817328, 5536250.364959266036749 ], [ 332596.005636902758852, 5536250.211846244521439 ], [ 332596.29545372253051, 5536250.038784082047641 ], [ 332596.572933094168548, 5536249.846561556681991 ], [ 332596.836810329928994, 5536249.636054773814976 ], [ 332600.364049528900068, 5536246.621871341019869 ], [ 332600.609529826208018, 5536246.39755192771554 ], [ 332600.839556643215474, 5536246.157411471009254 ], [ 332601.053112527413759, 5536245.9025121582672 ], [ 332601.249252880341373, 5536245.633981456980109 ], [ 332601.42711013572989, 5536245.353007130324841 ], [ 332601.585897596902214, 5536245.06083198171109 ], [ 332601.724912916717585, 5536244.758748357184231 ], [ 332601.843541203823406, 5536244.448092429898679 ], [ 332601.94125774258282, 5536244.13023829087615 ], [ 332602.01763031410519, 5536243.806591870263219 ], [ 332602.072321107960306, 5536243.478584717027843 ], [ 332602.105088216310833, 5536243.147667668759823 ], [ 332602.170986702898517, 5536242.142063913866878 ], [ 332602.045746337505989, 5536241.073269577696919 ], [ 332601.976729318033904, 5536240.253742119297385 ], [ 332601.903864449472167, 5536239.626271652057767 ], [ 332601.791528237576131, 5536239.004653559997678 ], [ 332601.640168935758993, 5536238.39136827737093 ], [ 332601.45039051072672, 5536237.788862985558808 ], [ 332601.159185399475973, 5536236.957006831653416 ], [ 332599.088171323761344, 5536230.722451607696712 ], [ 332598.848023808095604, 5536230.075123099610209 ], [ 332598.563781291886698, 5536229.445908336900175 ], [ 332598.236798773461487, 5536228.837806816212833 ], [ 332597.868634994840249, 5536228.253717389889061 ], [ 332597.461045011354145, 5536227.696424440480769 ], [ 332597.015971824876033, 5536227.168584611266851 ], [ 332596.901186098519247, 5536227.041619371622801 ], [ 332594.897377076093107, 5536224.347827842459083 ], [ 332592.887208553322125, 5536222.002529600635171 ], [ 332591.24333092267625, 5536220.122065421193838 ], [ 332589.637056156992912, 5536218.546564945951104 ], [ 332589.208697405527346, 5536218.150263705290854 ], [ 332588.757951201754622, 5536217.779624050483108 ], [ 332588.286352543334942, 5536217.435908181592822 ], [ 332587.795507440110669, 5536217.120286607183516 ], [ 332587.273254427942447, 5536216.805620387196541 ], [ 332587.151551809802186, 5536216.737952062860131 ], [ 332587.025435629184358, 5536216.678916156291962 ], [ 332586.895517250930425, 5536216.628798850812018 ], [ 332586.762426471570507, 5536216.58784309681505 ], [ 332586.62680846627336, 5536216.556247432716191 ], [ 332586.489320661290549, 5536216.53416502289474 ], [ 332586.350629546970595, 5536216.521702914498746 ], [ 332586.211407446768135, 5536216.518921519629657 ], [ 332586.072329258313403, 5536216.525834321975708 ], [ 332585.934069181443192, 5536216.542407808825374 ], [ 332585.797297450248152, 5536216.568561640568078 ], [ 332585.662677083804738, 5536216.604169030673802 ], [ 332585.530860672122799, 5536216.649057369679213 ], [ 332585.402487212617416, 5536216.703009054064751 ], [ 332585.267119129828643, 5536216.765531027689576 ], [ 332584.95562234375393, 5536216.922813797369599 ], [ 332584.655854335345794, 5536217.101439826190472 ], [ 332584.369275191973429, 5536217.3005390772596 ], [ 332584.097280761809088, 5536217.519141793251038 ], [ 332583.841195854765829, 5536217.756183219142258 ], [ 332583.602267789945472, 5536218.010508791543543 ], [ 332583.381660320213996, 5536218.280879762023687 ], [ 332583.180447963764891, 5536218.565979226492345 ], [ 332582.999610770668369, 5536218.86441854480654 ], [ 332582.840029548970051, 5536219.174744101241231 ], [ 332582.702481575019192, 5536219.495444385334849 ], [ 332582.587636807002127, 5536219.82495735399425 ], [ 332582.496054622286465, 5536220.161678040400147 ], [ 332582.428181092313025, 5536220.503966369666159 ], [ 332582.318758528446779, 5536221.178359053097665 ], [ 332582.190237815666478, 5536221.831942307762802 ], [ 332582.018491217691917, 5536222.475519614294171 ], [ 332581.929958001361229, 5536222.80886148661375 ], [ 332581.864615552476607, 5536223.147513666190207 ], [ 332581.822774783300702, 5536223.489864778704941 ], [ 332581.804634780448396, 5536223.834285850636661 ], [ 332581.810281857673544, 5536224.179138057865202 ], [ 332581.839689145097509, 5536224.522780525498092 ], [ 332581.892716716916766, 5536224.863578135147691 ], [ 332581.969112257647794, 5536225.199909305199981 ], [ 332582.068512262078002, 5536225.53017370402813 ], [ 332582.190443765488453, 5536225.852799870073795 ], [ 332582.334326593612786, 5536226.16625268291682 ], [ 332582.499476123659406, 5536226.469040673226118 ], [ 332582.685106541437563, 5536226.759723115712404 ], [ 332582.890334580908529, 5536227.036916885524988 ], [ 332583.114183726545889, 5536227.299303039908409 ], [ 332583.355588859820273, 5536227.545633095316589 ], [ 332583.613401327515021, 5536227.774734963662922 ], [ 332583.797722537361551, 5536227.927484339103103 ], [ 332583.891817320254631, 5536228.000839998945594 ], [ 332583.990118760149926, 5536228.068454404361546 ], [ 332584.092277029762045, 5536228.130086935125291 ], [ 332584.197928576380946, 5536228.18551825825125 ], [ 332584.306697415711824, 5536228.234551110304892 ], [ 332584.418196469778195, 5536228.277010994032025 ], [ 332586.603560602117795, 5536229.035387247800827 ], [ 332593.652632187120616, 5536231.94362021330744 ], [ 332593.756401247694157, 5536231.989924132823944 ], [ 332594.053426204773132, 5536232.145178217440844 ], [ 332594.339382945850957, 5536232.319982102140784 ], [ 332594.612986636871938, 5536232.513550375588238 ], [ 332594.873007947462611, 5536232.725013312883675 ], [ 332595.118278574256692, 5536232.953420789912343 ], [ 332595.34769649017835, 5536233.197746547870338 ], [ 332595.56023089622613, 5536233.456892804242671 ], [ 332595.754926852765493, 5536233.729695187881589 ], [ 332595.930909570073709, 5536234.014927968382835 ], [ 332596.087388339161407, 5536234.311309564858675 ], [ 332596.223660084360745, 5536234.617508303374052 ], [ 332596.339112522138748, 5536234.932148400694132 ], [ 332596.43322691245703, 5536235.253816144540906 ], [ 332596.505580389348324, 5536235.581066248007119 ], [ 332596.555847861047368, 5536235.912428341805935 ], [ 332596.583803470362909, 5536236.246413581073284 ], [ 332596.5893216097611, 5536236.581521334126592 ], [ 332596.572377485688776, 5536236.916245926171541 ], [ 332596.544140214275103, 5536237.251214191317558 ], [ 332596.569607978162821, 5536238.610231759026647 ], [ 332596.566394145484082, 5536238.816203890368342 ], [ 332596.54905299982056, 5536239.02146989479661 ], [ 332596.517666304367594, 5536239.225061944685876 ], [ 332596.472382046864368, 5536239.426020109094679 ], [ 332596.413413741800468, 5536239.623396872542799 ], [ 332596.3410394237726, 5536239.816261606290936 ], [ 332596.255600336415228, 5536240.003704958595335 ], [ 332596.157499323657248, 5536240.18484313506633 ], [ 332596.047198930056766, 5536240.358822072856128 ], [ 332595.925219220109284, 5536240.52482146397233 ], [ 332595.792135326075368, 5536240.682058625854552 ], [ 332595.648574736318551, 5536240.829792185686529 ], [ 332595.495214336493518, 5536240.967325583100319 ], [ 332595.332777218427509, 5536241.094010350294411 ], [ 332595.162029270199127, 5536241.209249171428382 ], [ 332594.98377556563355, 5536241.312498697079718 ], [ 332594.798856567940675, 5536241.403272107243538 ], [ 332594.608144166995771, 5536241.481141407042742 ], [ 332594.412537568539847, 5536241.545739443041384 ], [ 332594.212959054391831, 5536241.596761639229953 ], [ 332583.101834043802228, 5536244.034209474921227 ], [ 332582.997374335769564, 5536244.059092334471643 ], [ 332582.8938720637816, 5536244.087697702459991 ], [ 332581.417308564123232, 5536244.524372546933591 ], [ 332581.253759561281186, 5536244.567763932049274 ], [ 332581.088024296739604, 5536244.601865409873426 ], [ 332580.92063001281349, 5536244.626568493433297 ], [ 332580.183750003750902, 5536244.714159148745239 ], [ 332579.984200614388101, 5536244.744719098322093 ], [ 332579.787158300110605, 5536244.78863032348454 ], [ 332579.593515309446957, 5536244.845693985000253 ], [ 332579.404148498026188, 5536244.915651686489582 ], [ 332579.21991535811685, 5536244.998186646029353 ], [ 332579.041650135593954, 5536245.09292512666434 ], [ 332578.517644316074438, 5536245.394441499374807 ], [ 332578.407592662377283, 5536245.462599154561758 ], [ 332578.302180655009579, 5536245.537733308970928 ], [ 332578.201849886856508, 5536245.619529210031033 ], [ 332578.107020664261654, 5536245.707644197158515 ], [ 332578.018090246710926, 5536245.801709138788283 ], [ 332577.674338002107106, 5536246.189727802760899 ], [ 332577.591984834289178, 5536246.288954798132181 ], [ 332577.516197161341552, 5536246.393282500095665 ], [ 332577.447290033393074, 5536246.502277217805386 ], [ 332577.385549898084719, 5536246.615485860034823 ], [ 332577.331233409815468, 5536246.732437815517187 ], [ 332577.284566362795886, 5536246.852646914310753 ], [ 332577.245742752274964, 5536246.975613447837532 ], [ 332577.10526781034423, 5536247.476213353686035 ], [ 332577.088936082087457, 5536247.543215029872954 ], [ 332577.077261105703656, 5536247.611182999797165 ], [ 332577.070298406702932, 5536247.679794010706246 ], [ 332577.068081099307165, 5536247.74872175231576 ], [ 332577.070619729056489, 5536247.817638406530023 ], [ 332577.07790222222684, 5536247.886216211132705 ], [ 332577.089893943688367, 5536247.954129013232887 ], [ 332577.106537861458492, 5536248.021053821779788 ], [ 332577.127754817833193, 5536248.086672346107662 ], [ 332577.153443906048778, 5536248.150672508403659 ], [ 332577.183482950087637, 5536248.212749926373363 ], [ 332577.217729085765313, 5536248.272609362378716 ], [ 332577.256019440188538, 5536248.329966129735112 ], [ 332577.298171906266361, 5536248.3845474421978 ], [ 332577.343986009072978, 5536248.436093712225556 ], [ 332577.393243859056383, 5536248.484359789639711 ], [ 332577.445711188192945, 5536248.529116122052073 ], [ 332577.501138464605901, 5536248.570149852894247 ], [ 332577.559262078953907, 5536248.607265825383365 ], [ 332577.61980559816584, 5536248.640287519432604 ], [ 332577.682481080293655, 5536248.669057885184884 ], [ 332577.746990443964023, 5536248.693440091796219 ], [ 332577.813026885734871, 5536248.7133181784302 ], [ 332577.88027633971069, 5536248.728597606532276 ], [ 332577.948418970860075, 5536248.739205707795918 ], [ 332578.017130696156528, 5536248.745092030614614 ], [ 332578.08608472609194, 5536248.746228580363095 ], [ 332578.154953118762933, 5536248.742609950713813 ], [ 332578.223408339545131, 5536248.734253352507949 ], [ 332578.291124818788376, 5536248.721198528073728 ], [ 332578.357780500373337, 5536248.703507567755878 ], [ 332578.42305837321328, 5536248.681264606304467 ], [ 332578.486647978890687, 5536248.654575431719422 ], [ 332578.548246888560243, 5536248.623566976748407 ], [ 332578.607562140794471, 5536248.588386715389788 ], [ 332579.586827279475983, 5536247.960951865650713 ], [ 332580.720010772056412, 5536247.495214780792594 ], [ 332580.896540119138081, 5536247.429065239615738 ], [ 332581.076875636761542, 5536247.37413370795548 ], [ 332581.260305232659448, 5536247.330637092702091 ], [ 332581.446104596892837, 5536247.29874715115875 ], [ 332581.633540061942767, 5536247.278589805588126 ], [ 332581.82187150005484, 5536247.270244652405381 ], [ 332582.010355245263781, 5536247.273744644597173 ], [ 332582.198247030202765, 5536247.289075961336493 ], [ 332582.993690589093603, 5536247.379217282868922 ], [ 332583.325986035284586, 5536247.428228139877319 ], [ 332583.65424107760191, 5536247.499438776634634 ], [ 332583.976974336022977, 5536247.592527829110622 ], [ 332587.174083349702414, 5536248.63222782779485 ], [ 332589.05272825260181, 5536249.392792765051126 ], [ 332589.303226888878271, 5536249.504346841014922 ], [ 332589.545493944257032, 5536249.632801316678524 ], [ 332589.778390856285114, 5536249.7775525059551 ], [ 332590.000823098700494, 5536249.937920133583248 ], [ 332590.211745324893855, 5536250.113150533288717 ], [ 332590.410166281217244, 5536250.302420188672841 ], [ 332590.595153465052135, 5536250.504839605651796 ], [ 332590.765837507438846, 5536250.719457489438355 ], [ 332590.921416258614045, 5536250.945265218615532 ], [ 332591.061158558062743, 5536251.181201583705842 ], [ 332591.184407670341898, 5536251.426157773472369 ], [ 332591.290584371890873, 5536251.678982586599886 ], [ 332591.379189672705252, 5536251.938487845472991 ], [ 332591.449807161930948, 5536252.203453972935677 ], [ 332591.50210496422369, 5536252.472635730169713 ], [ 332591.535837300005369, 5536252.744768065400422 ], [ 332591.550845640245825, 5536253.018572061322629 ], [ 332591.547059451404493, 5536253.292760943062603 ], [ 332591.524496527155861, 5536253.566046129912138 ], [ 332591.483262904570438, 5536253.837143283337355 ], [ 332591.423552365973592, 5536254.104778352193534 ], [ 332591.345645527995657, 5536254.367693553678691 ], [ 332591.249908522993792, 5536254.6246532863006 ], [ 332591.136791278258897, 5536254.87444993853569 ], [ 332591.006825401564129, 5536255.115909561514854 ], [ 332590.860621682775673, 5536255.347897386178374 ], [ 332590.698867223516572, 5536255.569323160685599 ], [ 332590.522322207747493, 5536255.779146266169846 ], [ 332590.331816329562571, 5536255.976380616426468 ], [ 332590.128244893683586, 5536256.160099284723401 ], [ 332589.912564608035609, 5536256.329438863322139 ], [ 332589.685789087321609, 5536256.483603520318866 ], [ 332589.448984089831356, 5536256.621868742629886 ], [ 332589.203262508381158, 5536256.743584735319018 ], [ 332588.949779140413739, 5536256.848179480060935 ], [ 332588.689725260832347, 5536256.935161422006786 ], [ 332588.424323023296893, 5536257.004121778532863 ], [ 332588.154819716815837, 5536257.054736462421715 ] ] ] ] } },
{ "type": "Feature", "properties": { "fid": 10, "Layer": "-Enviro Covenant Areas", "PaperSpace": null, "SubClasses": "AcDbEntity:AcDbHatch", "Linetype": "ByLayer", "EntityHand": "98D", "Text": "SOLID", "area": 587.25882218783954, "ESA1_pct": null, "ESA2_pct": null, "ESA3_pct": null, "ESA4_pct": null, "LOT_ID": null, "LOT_ID_REF": null, "ESA2_AREA_LOT_m2": null, "ESA2_IN_CE_m2": null, "ESA2_CE_RATIO": null }, "geometry": { "type": "MultiPolygon", "coordinates": [ [ [ [ 332497.459154096315615, 5536323.239881475456059 ], [ 332497.546879934205208, 5536323.344772367738187 ], [ 332497.641567952581681, 5536323.443423779681325 ], [ 332497.742775534163229, 5536323.535374566912651 ], [ 332497.850029585999437, 5536323.620194908231497 ], [ 332497.962828751245979, 5536323.697488311678171 ], [ 332498.080645752255805, 5536323.766893470659852 ], [ 332498.202929855906405, 5536323.828085953369737 ], [ 332498.329109447426163, 5536323.880779715254903 ], [ 332498.458594702882692, 5536323.924728441052139 ], [ 332498.590780345897656, 5536323.959726693108678 ], [ 332498.725048477295786, 5536323.985610873438418 ], [ 332498.860771463310812, 5536324.00225998647511 ], [ 332498.997314869484399, 5536324.009596206247807 ], [ 332499.134040426346473, 5536324.007585238665342 ], [ 332499.270309012965299, 5536323.996236486360431 ], [ 332499.405483644455671, 5536323.975602996535599 ], [ 332499.538932449708227, 5536323.945781221613288 ], [ 332499.670031624787953, 5536323.906910561956465 ], [ 332499.798168349254411, 5536323.859172717668116 ], [ 332499.92274365038611, 5536323.802790839225054 ], [ 332500.043175203492865, 5536323.738028482533991 ], [ 332500.158900053589605, 5536323.665188376791775 ], [ 332500.269377247081138, 5536323.584611012600362 ], [ 332500.374090360535774, 5536323.496673047542572 ], [ 332500.472549914498813, 5536323.401785545051098 ], [ 332500.56429566181032, 5536323.300392054952681 ], [ 332500.648898738611024, 5536323.192966541275382 ], [ 332573.706954295455944, 5536223.602453629486263 ], [ 332573.783950353274122, 5536223.489606996998191 ], [ 332573.853063203103375, 5536223.371767404489219 ], [ 332573.913970385794528, 5536223.249484656378627 ], [ 332573.966387727530673, 5536223.123329284600914 ], [ 332574.010070665215608, 5536222.993889892473817 ], [ 332574.044815387809649, 5536222.861770401708782 ], [ 332574.070459787384607, 5536222.727587242610753 ], [ 332574.086884215008467, 5536222.591966471634805 ], [ 332574.094012039538939, 5536222.455540851689875 ], [ 332574.091810004669242, 5536222.318946904502809 ], [ 332574.080288384458981, 5536222.182821934111416 ], [ 332574.059500935138203, 5536222.047801055945456 ], [ 332574.02954464458162, 5536221.914514237083495 ], [ 332573.990559279453009, 5536221.783583351410925 ], [ 332573.942726733337622, 5536221.655619282275438 ], [ 332573.886270178016275, 5536221.531219070777297 ], [ 332573.821453022246715, 5536221.41096312738955 ], [ 332573.748577682650648, 5536221.295412531122565 ], [ 332573.667984172934666, 5536221.18510640412569 ], [ 332573.58004851732403, 5536221.080559400841594 ], [ 332573.485180996183772, 5536220.98225930519402 ], [ 332573.383824231976178, 5536220.890664753504097 ], [ 332573.276451123645529, 5536220.806203098967671 ], [ 332573.163562640896998, 5536220.729268413037062 ], [ 332573.045685486111324, 5536220.660219648852944 ], [ 332572.923369637515862, 5536220.599378966726363 ], [ 332572.79718578280881, 5536220.547030230052769 ], [ 332572.667722656507976, 5536220.503417681902647 ], [ 332572.535584293364082, 5536220.468744804151356 ], [ 332572.401387209771201, 5536220.443173370324075 ], [ 332572.265757527609821, 5536220.426822690293193 ], [ 332570.886972851352766, 5536220.308210536837578 ], [ 332570.749313522072043, 5536220.301135753281415 ], [ 332570.611493828124367, 5536220.303559687919915 ], [ 332570.474168418033514, 5536220.315470826812088 ], [ 332570.337989592400845, 5536220.336812592111528 ], [ 332570.203604205453303, 5536220.367483609355986 ], [ 332570.071650592726655, 5536220.407338188961148 ], [ 332569.942755538504571, 5536220.456187022849917 ], [ 332569.817531298962422, 5536220.513798074796796 ], [ 332569.696572693763301, 5536220.579897691495717 ], [ 332569.580454280599952, 5536220.654171897098422 ], [ 332569.46972762607038, 5536220.736267886124551 ], [ 332569.364918685751036, 5536220.825795700773597 ], [ 332569.266525305924006, 5536220.922330079600215 ], [ 332569.175014858599752, 5536221.025412481278181 ], [ 332569.09082202182617, 5536221.134553260169923 ], [ 332512.091361474711448, 5536300.538629366084933 ], [ 332496.977694378001615, 5536320.183347166515887 ], [ 332496.896971317764837, 5536320.296160312369466 ], [ 332496.824262395268306, 5536320.41429765149951 ], [ 332496.75991739530582, 5536320.537190854549408 ], [ 332496.70424586586887, 5536320.664248712360859 ], [ 332496.657515629020054, 5536320.794859980233014 ], [ 332496.619951492466498, 5536320.928396319970489 ], [ 332496.591734168061521, 5536321.064215321093798 ], [ 332496.572999402415007, 5536321.201663590967655 ], [ 332496.56383732391987, 5536321.34007989987731 ], [ 332496.564292009046767, 5536321.478798361495137 ], [ 332496.574361270410009, 5536321.617151635698974 ], [ 332496.593996667303145, 5536321.754474136978388 ], [ 332496.623103738587815, 5536321.890105242840946 ], [ 332496.661542457353789, 5536322.023392464034259 ], [ 332496.709127904381603, 5536322.153694587759674 ], [ 332496.765631157672033, 5536322.280384764075279 ], [ 332496.830780393967871, 5536322.402853516861796 ], [ 332496.904262196330819, 5536322.520511678420007 ], [ 332496.985723061719909, 5536322.632793226279318 ], [ 332497.459154096315615, 5536323.239881475456059 ] ] ] ] } }
]
}
