{
"type": "FeatureCollection",
"name": "EX_BLD_10",
"crs": { "type": "name", "properties": { "name": "urn:ogc:def:crs:EPSG::2955" } },
"features": [
{ "type": "Feature", "properties": { "fid": 0 }, "geometry": { "type": "MultiPolygon", "coordinates": [ [ [ [ 332598.140490262885578, 5536668.623558145016432 ], [ 332613.67357429448748, 5536656.588791836984456 ], [ 332605.398926308378577, 5536646.282482342794538 ], [ 332589.865842276776675, 5536658.317248650826514 ], [ 332598.140490262885578, 5536668.623558145016432 ] ] ] ] } },
{ "type": "Feature", "properties": { "fid": 1 }, "geometry": { "type": "MultiPolygon", "coordinates": [ [ [ [ 332531.323417507810518, 5536658.384767642244697 ], [ 332541.401746709481813, 5536669.680157686583698 ], [ 332558.049069288594183, 5536656.827403598465025 ], [ 332547.970740086922888, 5536645.532013555057347 ], [ 332531.323417507810518, 5536658.384767642244697 ] ] ] ] } }
]
}
