{
"type": "FeatureCollection",
"name": "FENCE_20",
"crs": { "type": "name", "properties": { "name": "urn:ogc:def:crs:EPSG::2955" } },
"features": [
{ "type": "Feature", "properties": { "fid": 3, "type": "AOI + ESA2 + Highslope", "height": 1.2, "length": 395.035615261781, "Fence name": "F6", "Layer": null, "auxiliary_storage_labeling_positionx": null, "auxiliary_storage_labeling_positiony": null, "auxiliary_storage_labeling_lineanchorpercent": 0.065836627787557209, "auxiliary_storage_labeling_lineanchorclipping": "entire", "auxiliary_storage_labeling_lineanchortype": "strict", "auxiliary_storage_labeling_lineanchortextpoint": "start", "auxiliary_storage_labeling_labelrotation": null }, "geometry": { "type": "MultiLineString", "coordinates": [ [ [ 332764.410701586690266, 5536772.532363006845117, 0.0 ], [ 332772.529060026747175, 5536732.920162519440055, 0.0 ], [ 332756.360540582507383, 5536727.482707886956632, 0.0 ], [ 332782.000913244148251, 5536706.940683843567967, 0.0 ], [ 332779.599852194660343, 5536682.840659520588815, 0.0 ], [ 332859.163459859555587, 5536652.099777941592038, 0.0 ], [ 332873.144928286259528, 5536655.239183271303773, 2.0 ], [ 332874.130924779106863, 5536681.725589353591204, 2.0 ], [ 332784.008756501134485, 5536720.519871996715665, 0.0 ], [ 332770.428438066504896, 5536775.052663364447653, 2.0 ] ] ] } },
{ "type": "Feature", "properties": { "fid": 5, "type": "ALR + ESA2", "height": 1.2, "length": 847.83026502243843, "Fence name": "F3", "Layer": null, "auxiliary_storage_labeling_positionx": null, "auxiliary_storage_labeling_positiony": null, "auxiliary_storage_labeling_lineanchorpercent": null, "auxiliary_storage_labeling_lineanchorclipping": null, "auxiliary_storage_labeling_lineanchortype": null, "auxiliary_storage_labeling_lineanchortextpoint": null, "auxiliary_storage_labeling_labelrotation": null }, "geometry": { "type": "MultiLineString", "coordinates": [ [ [ 332438.135475221846718, 5536211.7322001401335, 2.0 ], [ 332438.134270736132748, 5536211.732151833362877, 2.0 ], [ 332405.591561406676192, 5536336.292177197523415, 2.0 ], [ 332430.420596427342389, 5536409.787436604499817, 2.0 ], [ 332388.125340901082382, 5536429.050243546254933, 2.0 ], [ 332385.492579763114918, 5536466.407533223740757, 2.0 ], [ 332460.776102410280146, 5536438.162136439234018, 2.0 ], [ 332460.165333320735954, 5536579.71270746178925, 0.0 ], [ 332484.725629794993438, 5536555.386318575590849, 0.0 ], [ 332549.333481667330489, 5536555.376544862054288, 0.0 ], [ 332568.775645588873886, 5536600.455093510448933, 0.0 ], [ 332518.300306703255046, 5536643.919792684726417, 0.0 ], [ 332518.300306703255046, 5536643.919792684726417, 0.0 ], [ 332538.887848548940383, 5536679.909168950282037, 0.0 ], [ 332517.360229429032188, 5536697.382742564193904, 0.0 ], [ 332563.44391400332097, 5536720.401561620645225, 0.0 ] ] ] } },
{ "type": "Feature", "properties": { "fid": 9, "type": "ESA2 + Riparian", "height": 1.2, "length": 143.29746828592053, "Fence name": "F8", "Layer": null, "auxiliary_storage_labeling_positionx": null, "auxiliary_storage_labeling_positiony": null, "auxiliary_storage_labeling_lineanchorpercent": null, "auxiliary_storage_labeling_lineanchorclipping": null, "auxiliary_storage_labeling_lineanchortype": null, "auxiliary_storage_labeling_lineanchortextpoint": null, "auxiliary_storage_labeling_labelrotation": null }, "geometry": { "type": "MultiLineString", "coordinates": [ [ [ 332582.530310581787489, 5536303.59269836358726, 2.0 ], [ 332581.375297038583085, 5536304.581792478449643, 2.0 ] ], [ [ 332635.76137320388807, 5536274.258292024955153, 0.0 ], [ 332635.349634635203984, 5536274.786249472759664, 0.0 ], [ 332634.93177656509215, 5536275.309376939199865, 0.0 ], [ 332634.507855647185352, 5536275.827603503130376, 0.0 ], [ 332634.07792935782345, 5536276.340858899056911, 0.0 ], [ 332633.642055986972991, 5536276.849073535762727, 0.0 ], [ 332633.200294631300494, 5536277.352178515866399, 0.0 ], [ 332632.752705185674131, 5536277.850105621851981, 0.0 ], [ 332632.299348335189279, 5536278.342787344940007, 0.0 ], [ 332631.840285546611995, 5536278.830156886950135, 0.0 ], [ 332631.37557906092843, 5536279.312148169614375, 0.0 ], [ 332630.905291883391328, 5536279.788695844821632, 0.0 ], [ 332630.429487776884343, 5536280.259735298343003, 0.0 ], [ 332629.948231251793914, 5536280.725202665664256, 0.0 ], [ 332629.461587557627354, 5536281.185034843161702, 0.0 ], [ 332628.969622674572747, 5536281.639169478788972, 0.0 ], [ 332628.472403304185718, 5536282.087545005604625, 0.0 ], [ 332627.969996860309038, 5536282.530100627802312, 0.0 ], [ 332627.462471460283268, 5536282.96677634678781, 0.0 ], [ 332626.949895915517118, 5536283.39751295465976, 0.0 ], [ 332626.432339721592143, 5536283.82225205283612, 0.0 ], [ 332625.909873049997259, 5536284.240936052985489, 0.0 ], [ 332625.38256673788419, 5536284.6535081891343, 0.0 ], [ 332624.850492278288584, 5536285.059912525117397, 0.0 ], [ 332624.313721810874995, 5536285.460093958303332, 0.0 ], [ 332623.772328112216201, 5536285.853998232632875, 0.0 ], [ 332623.226384585199412, 5536286.241571944206953, 0.0 ], [ 332622.675965250120498, 5536286.622762537561357, 0.0 ], [ 332622.121144733799156, 5536286.997518338263035, 0.0 ], [ 332621.561998259974644, 5536287.365788532420993, 0.0 ], [ 332620.998601638595574, 5536287.727523188106716, 0.0 ], [ 332620.431031256215647, 5536288.082673262804747, 0.0 ], [ 332619.859364065108821, 5536288.431190605275333, 0.0 ], [ 332619.28367757279193, 5536288.773027960211039, 0.0 ], [ 332618.704049832420424, 5536289.108138983137906, 0.0 ], [ 332618.120559430622961, 5536289.436478234827518, 0.0 ], [ 332617.533285478071775, 5536289.758001204580069, 0.0 ], [ 332616.942307598888874, 5536290.072664296254516, 0.0 ], [ 332616.34770591877168, 5536290.380424846895039, 0.0 ], [ 332615.749561054923106, 5536290.681241130456328, 0.0 ], [ 332615.147954104992095, 5536290.975072362460196, 0.0 ], [ 332614.542966636014171, 5536291.261878702789545, 0.0 ], [ 332613.934680673410185, 5536291.541621267795563, 0.0 ], [ 332613.323178689810447, 5536291.81426212657243, 0.0 ], [ 332612.708543593471404, 5536292.079764318652451, 0.0 ], [ 332612.090858718322124, 5536292.338091841898859, 0.0 ], [ 332611.47020781080937, 5536292.589209673926234, 0.0 ], [ 332610.846675020176917, 5536292.83308376930654, 0.0 ], [ 332610.220344886416569, 5536293.069681058637798, 0.0 ], [ 332609.591302328102756, 5536293.298969469033182, 0.0 ], [ 332608.959632632322609, 5536293.520917909219861, 0.0 ], [ 332608.325421441928484, 5536293.735496289096773, 0.0 ], [ 332607.688754744594917, 5536293.94267551228404, 0.0 ], [ 332607.049718860711437, 5536294.142427492886782, 0.0 ], [ 332606.40840043220669, 5536294.334725148044527, 0.0 ], [ 332605.764886409975588, 5536294.519542402587831, 0.0 ], [ 332592.862759883981198, 5536298.147586905397475, 0.0 ], [ 332592.418875103874598, 5536298.283468839712441, 0.0 ], [ 332591.977146027376875, 5536298.426202933304012, 0.0 ], [ 332591.537678422988392, 5536298.575755006633699, 0.0 ], [ 332591.100577517529018, 5536298.732089254073799, 0.0 ], [ 332590.665947971283458, 5536298.895168242044747, 0.0 ], [ 332590.233893852797337, 5536299.06495292019099, 0.0 ], [ 332589.804518613615073, 5536299.241402636282146, 0.0 ], [ 332589.37792506441474, 5536299.424475139938295, 0.0 ], [ 332588.954215349222068, 5536299.614126598462462, 0.0 ], [ 332588.533490922127385, 5536299.810311597771943, 0.0 ], [ 332588.115852521907073, 5536300.012983167544007, 0.0 ], [ 332587.701400148682296, 5536300.222092776559293, 0.0 ], [ 332587.274992806196678, 5536300.4457345046103, 0.0 ], [ 332586.852229692507535, 5536300.676190996542573, 0.0 ], [ 332586.433219710714184, 5536300.913402885198593, 0.0 ], [ 332586.018070797494147, 5536301.157309064641595, 0.0 ], [ 332585.6068898945814, 5536301.407846705056727, 0.0 ], [ 332585.199782921583392, 5536301.664951268583536, 0.0 ], [ 332584.796854748681653, 5536301.928556527942419, 0.0 ], [ 332584.39820916991448, 5536302.198594575747848, 0.0 ], [ 332584.003948875702918, 5536302.474995849654078, 0.0 ], [ 332583.614175426890142, 5536302.75768915284425, 0.0 ], [ 332583.228989228780847, 5536303.046601659618318, 0.0 ], [ 332582.848489504889585, 5536303.341658950783312, 0.0 ], [ 332582.472774271271192, 5536303.642785018309951, 0.0 ] ], [ [ 332607.627798569912557, 5536363.255031269043684, 0.0 ], [ 332588.32781005470315, 5536353.892251262441278, 0.0 ], [ 332587.896299123298377, 5536353.678622704930604, 0.0 ], [ 332587.4682723726728, 5536353.458096185699105, 0.0 ], [ 332587.043840062397067, 5536353.230728513561189, 0.0 ], [ 332586.623111525492277, 5536352.996578256599605, 0.0 ], [ 332586.206195141072385, 5536352.755705732852221, 0.0 ], [ 332585.793198306520935, 5536352.508172987960279, 0.0 ], [ 332585.384227409027517, 5536352.254043789580464, 0.0 ], [ 332584.979387799103279, 5536351.993383600376546, 0.0 ], [ 332584.578783762699459, 5536351.726259565912187, 0.0 ], [ 332584.182518495304976, 5536351.452740493230522, 0.0 ], [ 332583.790694074006751, 5536351.172896845266223, 0.0 ], [ 332583.403411432402208, 5536350.886800708249211, 0.0 ], [ 332583.020770333998371, 5536350.594525777734816, 0.0 ], [ 332582.642869346600492, 5536350.296147345565259, 0.0 ], [ 332582.26980581699172, 5536349.99174227565527, 0.0 ], [ 332581.901675846020225, 5536349.681388976983726, 0.0 ], [ 332581.538574263395276, 5536349.365167401731014, 0.0 ], [ 332581.18059460358927, 5536349.043159005232155, 0.0 ], [ 332580.827829081681557, 5536348.71544673666358, 0.0 ], [ 332580.480368569784332, 5536348.382115013897419, 0.0 ], [ 332580.138302573002875, 5536348.043249703943729, 0.0 ], [ 332579.801719207374845, 5536347.69893809594214, 0.0 ], [ 332579.470705176179763, 5536347.349268888123333, 0.0 ], [ 332579.145345748227555, 5536346.994332150556147, 0.0 ], [ 332578.825724735797849, 5536346.634219316765666, 0.0 ], [ 332578.511924472695682, 5536346.26902315299958, 0.0 ], [ 332578.204025793587789, 5536345.89883772842586, 0.0 ], [ 332577.902108012698591, 5536345.523758405819535, 0.0 ], [ 332577.606248903728556, 5536345.143881805241108, 0.0 ], [ 332577.316524679597933, 5536344.759305780753493, 0.0 ], [ 332577.033009972714353, 5536344.370129399001598, 0.0 ], [ 332576.755777816404589, 5536343.976452912203968, 0.0 ], [ 332576.484899625123944, 5536343.578377731144428, 0.0 ], [ 332576.220445176702924, 5536343.176006400026381, 0.0 ], [ 332575.962482594419271, 5536342.769442564807832, 0.0 ], [ 332575.711078328895383, 5536342.358790961094201, 0.0 ], [ 332575.466297141916584, 5536341.944157370366156, 0.0 ], [ 332575.228202088503167, 5536341.525648602284491, 0.0 ], [ 332574.99685450171819, 5536341.103372461162508, 0.0 ], [ 332574.772313976311125, 5536340.677437728270888, 0.0 ], [ 332574.554638353700284, 5536340.247954121790826, 0.0 ], [ 332574.343883707013447, 5536339.815032278187573, 0.0 ], [ 332574.140104326128494, 5536339.378783714026213, 0.0 ], [ 332573.943352704402059, 5536338.939320810139179, 0.0 ], [ 332573.753679524874315, 5536338.49675676971674, 0.0 ], [ 332573.571133646997623, 5536338.051205597817898, 0.0 ], [ 332573.395762094587553, 5536337.602782066911459, 0.0 ], [ 332573.227610043017194, 5536337.151601690798998, 0.0 ], [ 332573.066720807924867, 5536336.697780692018569, 0.0 ], [ 332572.913135834212881, 5536336.241435974836349, 0.0 ], [ 332572.766894685220905, 5536335.782685093581676, 0.0 ], [ 332572.628035032597836, 5536335.32164622284472, 0.0 ], [ 332572.49659264611546, 5536334.85843812301755, 0.0 ], [ 332572.372601385402959, 5536334.393180117942393, 0.0 ], [ 332572.256093190284446, 5536333.925992055796087, 0.0 ], [ 332572.147098073386587, 5536333.456994284875691, 0.0 ], [ 332572.045644111407455, 5536332.98630761820823, 0.0 ], [ 332571.951757439004723, 5536332.514053304679692, 0.0 ], [ 332571.865462241112255, 5536332.040352994576097, 0.0 ], [ 332571.78678074729396, 5536331.565328715369105, 0.0 ], [ 332571.715733225690201, 5536331.089102827943861, 0.0 ], [ 332571.652337978419382, 5536330.611798012629151, 0.0 ], [ 332571.596611335582566, 5536330.133537219837308, 0.0 ], [ 332571.548567652527709, 5536329.654443649575114, 0.0 ], [ 332571.508219305309467, 5536329.174640716053545, 0.0 ], [ 332571.475576687313151, 5536328.694252015091479, 0.0 ], [ 332571.450648207508493, 5536328.213401294313371, 0.0 ], [ 332571.433440287306439, 5536327.732212420552969, 0.0 ], [ 332571.423957359627821, 5536327.250809348188341, 0.0 ], [ 332571.422201866982505, 5536326.769316083751619, 0.0 ], [ 332571.428174261702225, 5536326.287856661714613, 0.0 ], [ 332571.44187300541671, 5536325.806555105373263, 0.0 ], [ 332571.46329456922831, 5536325.325535395182669, 0.0 ], [ 332571.492433434992563, 5536324.844921443611383, 0.0 ], [ 332571.529282096598763, 5536324.364837054163218, 0.0 ], [ 332571.573831061774399, 5536323.885405898094177, 0.0 ], [ 332571.626068854995538, 5536323.406751473434269, 0.0 ], [ 332571.685982019582298, 5536322.928997083567083, 0.0 ], [ 332571.753555122180842, 5536322.452265797182918, 0.0 ], [ 332571.828770756081212, 5536321.976680416613817, 0.0 ], [ 332571.911609545582905, 5536321.502363454550505, 0.0 ], [ 332572.002050151815638, 5536321.029437096789479, 0.0 ], [ 332572.100069277221337, 5536320.558023164048791, 0.0 ], [ 332572.205641672306228, 5536320.088243094272912, 0.0 ], [ 332572.318740141578019, 5536319.620217900723219, 0.0 ], [ 332572.439335551171098, 5536319.154068149626255, 0.0 ], [ 332572.567396835889667, 5536318.689913916401565, 0.0 ], [ 332572.702891007182188, 5536318.227874768897891, 0.0 ], [ 332572.845783161872532, 5536317.768069726414979, 0.0 ], [ 332572.996036491414998, 5536317.310617236420512, 0.0 ], [ 332573.153612290509045, 5536316.855635135434568, 0.0 ], [ 332573.318469967925921, 5536316.403240626677871, 0.0 ], [ 332573.490567056287546, 5536315.953550248406827, 0.0 ], [ 332573.669859223999083, 5536315.506679839454591, 0.0 ], [ 332573.856300285377074, 5536315.062744511291385, 0.0 ], [ 332574.049842213571537, 5536314.62185862287879, 0.0 ], [ 332574.250435152382124, 5536314.184135745279491, 0.0 ], [ 332574.458027429296635, 5536313.749688635580242, 0.0 ], [ 332574.672565568878781, 5536313.318629208020866, 0.0 ], [ 332574.893994306272361, 5536312.891068497672677, 0.0 ], [ 332575.122256601811387, 5536312.46711665019393, 0.0 ], [ 332575.357293655280955, 5536312.046882873401046, 0.0 ], [ 332575.599044921575114, 5536311.630475417710841, 0.0 ], [ 332575.847448126005474, 5536311.218001547269523, 0.0 ], [ 332576.102439279900864, 5536310.809567519463599, 0.0 ], [ 332576.363952698127832, 5536310.405278543010354, 0.0 ], [ 332576.631921014981344, 5536310.005238763056695, 0.0 ], [ 332576.906275202287361, 5536309.609551228582859, 0.0 ], [ 332577.186944586806931, 5536309.218317870050669, 0.0 ], [ 332577.473856868280564, 5536308.831639465875924, 0.0 ], [ 332577.766938138811383, 5536308.44961562845856, 0.0 ], [ 332578.066112900502048, 5536308.072344763204455, 0.0 ], [ 332578.371304086816963, 5536307.69992405269295, 0.0 ], [ 332578.682433080684859, 5536307.332449437119067, 0.0 ], [ 332578.99941973562818, 5536306.970015573315322, 0.0 ], [ 332579.322182396426797, 5536306.612715826369822, 0.0 ], [ 332579.650637919723522, 5536306.260642235167325, 0.0 ], [ 332579.984701695910189, 5536305.913885492831469, 0.0 ], [ 332580.324287670489866, 5536305.572534926235676, 0.0 ], [ 332580.669308366486803, 5536305.236678463406861, 0.0 ], [ 332581.019674907322042, 5536304.906402619555593, 0.0 ] ] ] } },
{ "type": "Feature", "properties": { "fid": 12, "type": "ESA2 + Highslope + Riparian", "height": 1.2, "length": 308.46117327401851, "Fence name": "F7", "Layer": null, "auxiliary_storage_labeling_positionx": null, "auxiliary_storage_labeling_positiony": null, "auxiliary_storage_labeling_lineanchorpercent": null, "auxiliary_storage_labeling_lineanchorclipping": null, "auxiliary_storage_labeling_lineanchortype": null, "auxiliary_storage_labeling_lineanchortextpoint": null, "auxiliary_storage_labeling_labelrotation": null }, "geometry": { "type": "MultiLineString", "coordinates": [ [ [ 332654.635347392701078, 5536443.054102497175336, 0.0 ], [ 332671.112502566946205, 5536398.307058672420681, 0.0 ], [ 332681.578727924148552, 5536394.105467023327947, 0.0 ], [ 332695.969349324412178, 5536400.013471665792167, 0.0 ], [ 332727.185554092400707, 5536463.679090869612992, 0.0 ], [ 332709.235912348958664, 5536497.91294530685991, 0.0 ], [ 332685.245526563201565, 5536498.827156415209174, 0.0 ], [ 332675.689102219243068, 5536478.387602094560862, 0.0 ], [ 332682.372542711731512, 5536400.881934720091522, 0.0 ] ] ] } },
{ "type": "Feature", "properties": { "fid": 14, "type": "Riparian", "height": 1.2, "length": 93.141202746786107, "Fence name": "F1", "Layer": null, "auxiliary_storage_labeling_positionx": null, "auxiliary_storage_labeling_positiony": null, "auxiliary_storage_labeling_lineanchorpercent": null, "auxiliary_storage_labeling_lineanchorclipping": null, "auxiliary_storage_labeling_lineanchortype": null, "auxiliary_storage_labeling_lineanchortextpoint": null, "auxiliary_storage_labeling_labelrotation": null }, "geometry": { "type": "MultiLineString", "coordinates": [ [ [ 332562.536482836236246, 5536155.366489885374904, 0.0 ], [ 332563.398292227182537, 5536164.45644900854677, 0.0 ], [ 332563.500230311008636, 5536165.493309278041124, 0.0 ], [ 332563.609367641911376, 5536166.529436506330967, 0.0 ], [ 332563.725698954600375, 5536167.564780708402395, 0.0 ], [ 332563.849218637100421, 5536168.599291934631765, 0.0 ], [ 332563.979920730402227, 5536169.63292027823627, 0.0 ], [ 332564.117798928986304, 5536170.66561587434262, 0.0 ], [ 332564.262846581172198, 5536171.697328899055719, 0.0 ], [ 332564.415056689409539, 5536172.728009583428502, 0.0 ], [ 332564.574421910627279, 5536173.757608202286065, 0.0 ], [ 332564.740934556524735, 5536174.78607508353889, 0.0 ], [ 332564.914586593979038, 5536175.813360613770783, 0.0 ], [ 332565.0953696455108, 5536176.839415231719613, 0.0 ], [ 332565.28327498951694, 5536177.864189436659217, 0.0 ], [ 332565.478293561027385, 5536178.887633792124689, 0.0 ], [ 332565.680415951472241, 5536179.90969892218709, 0.0 ], [ 332565.889632410078775, 5536180.930335517972708, 0.0 ], [ 332566.105932843522169, 5536181.949494345113635, 0.0 ], [ 332566.329306816624012, 5536182.967126230709255, 0.0 ], [ 332566.559743553283624, 5536183.983182086609304, 0.0 ], [ 332566.797231936594471, 5536184.9976128898561, 0.0 ], [ 332567.041760509193409, 5536186.010369705967605, 0.0 ], [ 332567.293317474308424, 5536187.021403674036264, 0.0 ], [ 332567.551890696107876, 5536188.030666017904878, 0.0 ], [ 332567.817467700107954, 5536189.038108047097921, 0.0 ], [ 332568.090035673987586, 5536190.043681163340807, 0.0 ], [ 332574.594949219375849, 5536213.10171852260828, 0.0 ], [ 332574.702841921825893, 5536213.470368013717234, 0.0 ], [ 332574.817794564005453, 5536213.83687745872885, 0.0 ], [ 332574.939764744718559, 5536214.201111665926874, 0.0 ], [ 332575.068707474216353, 5536214.562936286441982, 0.0 ], [ 332575.204575191019103, 5536214.922217856161296, 0.0 ], [ 332575.347317779087462, 5536215.27882385160774, 0.0 ], [ 332575.49688258691458, 5536215.632622737437487, 0.0 ], [ 332575.653214445803314, 5536215.983484010212123, 0.0 ], [ 332575.816255691926926, 5536216.331278252415359, 0.0 ], [ 332575.985946186003275, 5536216.675877177156508, 0.0 ], [ 332576.162223336286843, 5536217.017153676599264, 0.0 ], [ 332576.345022121502552, 5536217.354981869459152, 0.0 ], [ 332576.534275114827324, 5536217.689237141050398, 0.0 ], [ 332576.729912508686539, 5536218.019796201959252, 0.0 ], [ 332576.931862140772864, 5536218.346537124365568, 0.0 ], [ 332577.140049520297907, 5536218.669339381158352, 0.0 ], [ 332577.354397855408024, 5536218.988083909265697, 0.0 ], [ 332577.574828082171734, 5536219.302653135731816, 0.0 ], [ 332577.801258892985061, 5536219.612931028939784, 0.0 ], [ 332578.033606767188758, 5536219.918803139589727, 0.0 ], [ 332578.271786001103465, 5536220.220156645402312, 0.0 ], [ 332578.515708740509581, 5536220.516880389302969, 0.0 ], [ 332578.765285012428649, 5536220.808864921331406, 0.0 ], [ 332579.020422758592758, 5536221.096002543345094, 0.0 ], [ 332579.281027869496029, 5536221.37818733882159, 0.0 ], [ 332579.547004218620714, 5536221.655315224081278, 0.0 ], [ 332579.81825369852595, 5536221.927283977158368, 0.0 ], [ 332583.176200244575739, 5536225.110617420636117, 0.0 ], [ 332583.449524589523207, 5536225.374690647237003, 0.0 ], [ 332583.717366570315789, 5536225.644322874955833, 0.0 ], [ 332583.979613149014767, 5536225.919400314800441, 0.0 ], [ 332584.23615364858415, 5536226.199806873686612, 0.0 ], [ 332584.486879800504539, 5536226.48542420938611, 0.0 ], [ 332584.731685790116899, 5536226.776131781749427, 0.0 ], [ 332584.97046830097679, 5536227.071806904859841, 0.0 ], [ 332585.203126559092198, 5536227.372324791736901, 0.0 ], [ 332585.429562374891248, 5536227.677558614872396, 0.0 ], [ 332585.649680185015313, 5536227.987379557453096, 0.0 ], [ 332585.863387092307676, 5536228.301656859926879, 0.0 ], [ 332586.070592905278318, 5536228.62025789078325, 0.0 ], [ 332586.271210176520981, 5536228.943048188462853, 0.0 ], [ 332586.4651542386855, 5536229.269891523756087, 0.0 ], [ 332586.652343240915798, 5536229.600649961270392, 0.0 ], [ 332586.832698183308821, 5536229.935183905996382, 0.0 ], [ 332587.006142949976493, 5536230.273352176882327, 0.0 ], [ 332587.172604341525584, 5536230.615012051537633, 0.0 ], [ 332587.332012105791364, 5536230.960019341669977, 0.0 ], [ 332587.48429896729067, 5536231.30822844337672, 0.0 ], [ 332587.629400656092912, 5536231.659492397680879, 0.0 ], [ 332587.767255934188142, 5536232.013662960380316, 0.0 ], [ 332587.897806622320786, 5536232.370590661652386, 0.0 ], [ 332588.020997623680159, 5536232.730124862864614, 0.0 ], [ 332588.136776947474573, 5536233.092113833874464, 0.0 ], [ 332588.245095731108449, 5536233.456404796801507, 0.0 ], [ 332588.345908260496799, 5536233.822844015434384, 0.0 ], [ 332588.439171989215538, 5536234.191276833415031, 0.0 ], [ 332588.524847557127941, 5536234.561547766439617, 0.0 ], [ 332588.602898805984296, 5536234.933500543236732, 0.0 ], [ 332588.673292795778252, 5536235.306978189386427, 0.0 ], [ 332588.735999818018172, 5536235.681823082268238, 0.0 ], [ 332588.790993408008944, 5536236.057877029292285, 0.0 ], [ 332588.838250356726348, 5536236.434981320984662, 0.0 ], [ 332588.877750720072072, 5536236.812976807355881, 0.0 ], [ 332588.909477827895898, 5536237.191703960299492, 0.0 ], [ 332588.933418289991096, 5536237.57100294623524, 0.0 ], [ 332588.949562002671883, 5536237.950713683851063, 0.0 ], [ 332588.957902153080795, 5536238.330675928853452, 0.0 ], [ 332588.958435220993124, 5536238.710729324258864, 0.0 ], [ 332588.951160981785506, 5536239.090713469311595, 0.0 ], [ 332588.936082505213562, 5536239.47046800237149, 0.0 ], [ 332588.91320615488803, 5536239.849832653068006, 0.0 ], [ 332588.882541585480794, 5536240.228647316806018, 0.0 ], [ 332588.844101738475729, 5536240.606752121821046, 0.0 ], [ 332588.797902836697176, 5536240.983987496234477, 0.0 ], [ 332588.743964377674274, 5536241.360194233246148, 0.0 ], [ 332588.682309125200845, 5536241.735213559120893, 0.0 ], [ 332588.61296309978934, 5536242.108887205831707, 0.0 ], [ 332588.535955567786004, 5536242.481057470664382, 0.0 ] ] ] } },
{ "type": "Feature", "properties": { "fid": 15, "type": "ALR + ESA2 + Riparian + Highslope", "height": 1.2, "length": 275.57151219832025, "Fence name": "F2", "Layer": null, "auxiliary_storage_labeling_positionx": null, "auxiliary_storage_labeling_positiony": null, "auxiliary_storage_labeling_lineanchorpercent": null, "auxiliary_storage_labeling_lineanchorclipping": null, "auxiliary_storage_labeling_lineanchortype": null, "auxiliary_storage_labeling_lineanchortextpoint": null, "auxiliary_storage_labeling_labelrotation": null }, "geometry": { "type": "MultiLineString", "coordinates": [ [ [ 332580.212022887484636, 5536254.267073281109333, 0.0 ], [ 332579.888781219255179, 5536254.465853800065815, 0.0 ], [ 332562.490412999875844, 5536264.298264428041875, 0.0 ], [ 332561.955005841213278, 5536264.602308005094528, 0.0 ], [ 332561.425151628616732, 5536264.914643933996558, 0.0 ], [ 332560.899179540923797, 5536265.233473954722285, 0.0 ], [ 332560.377169167797547, 5536265.558749821037054, 0.0 ], [ 332559.859199500118848, 5536265.890422311611474, 0.0 ], [ 332559.345348916598596, 5536266.228441243991256, 0.0 ], [ 332558.835695173009299, 5536266.5727554615587, 0.0 ], [ 332558.330315390077885, 5536266.923312866128981, 0.0 ], [ 332557.82928604161134, 5536267.280060411430895, 0.0 ], [ 332557.332682943204418, 5536267.64294411521405, 0.0 ], [ 332556.840581240772735, 5536268.011909062974155, 0.0 ], [ 332556.353055399027653, 5536268.386899425648153, 0.0 ], [ 332555.870179190125782, 5536268.76785846054554, 0.0 ], [ 332555.392025682609528, 5536269.15472851973027, 0.0 ], [ 332554.918667230813298, 5536269.547451061196625, 0.0 ], [ 332554.450175462989137, 5536269.945966660045087, 0.0 ], [ 332553.986621271295007, 5536270.350215012207627, 0.0 ], [ 332553.528074800502509, 5536270.760134946554899, 0.0 ], [ 332553.074605437694117, 5536271.175664436072111, 0.0 ], [ 332552.626281801785808, 5536271.596740600652993, 0.0 ], [ 332552.183171733107883, 5536272.023299724794924, 0.0 ], [ 332551.74534228281118, 5536272.455277260392904, 0.0 ], [ 332551.312859702913556, 5536272.892607841640711, 0.0 ], [ 332545.322397074720357, 5536279.025210180319846, 0.0 ], [ 332544.828680200211238, 5536279.536199567839503, 0.0 ], [ 332544.340578558971174, 5536280.05255535338074, 0.0 ], [ 332543.85815047682263, 5536280.574215830303729, 0.0 ], [ 332543.381453601294197, 5536281.101118665188551, 0.0 ], [ 332542.910544895392377, 5536281.633200893178582, 0.0 ], [ 332542.445480630383827, 5536282.170398934744298, 0.0 ], [ 332541.986316379217897, 5536282.71264860033989, 0.0 ], [ 332541.533107009483501, 5536283.259885090403259, 0.0 ], [ 332541.08590667770477, 5536283.812043011188507, 0.0 ], [ 332540.644768822006881, 5536284.369056386873126, 0.0 ], [ 332540.209746156120673, 5536284.930858654901385, 0.0 ], [ 332539.780890663212631, 5536285.497382681816816, 0.0 ], [ 332539.358253589191008, 5536286.068560772575438, 0.0 ], [ 332538.941885437292513, 5536286.644324674271047, 0.0 ], [ 332538.531835961388424, 5536287.224605585448444, 0.0 ], [ 332538.128154160280246, 5536287.809334163554013, 0.0 ], [ 332537.730888271995354, 5536288.398440538905561, 0.0 ], [ 332537.340085767791606, 5536288.991854315623641, 0.0 ], [ 332536.955793346685823, 5536289.589504583738744, 0.0 ], [ 332536.578056929691229, 5536290.191319927573204, 0.0 ], [ 332536.206921654404141, 5536290.797228432260454, 0.0 ], [ 332535.84243186970707, 5536291.407157693058252, 0.0 ], [ 332535.48463113012258, 5536292.021034831181169, 0.0 ], [ 332535.133562191389501, 5536292.63878648635, 0.0 ], [ 332534.789267004176509, 5536293.260338842868805, 0.0 ], [ 332534.45178671029862, 5536293.885617626830935, 0.0 ], [ 332534.121161636896431, 5536294.514548122882843, 0.0 ], [ 332533.797431291895919, 5536295.147055176086724, 0.0 ], [ 332533.480634359701071, 5536295.783063204027712, 0.0 ], [ 332533.170808695722371, 5536296.42249620705843, 0.0 ], [ 332532.867991322826128, 5536297.065277777612209, 0.0 ], [ 332532.572218425979372, 5536297.711331103928387, 0.0 ], [ 332532.283525348699186, 5536298.360578987747431, 0.0 ], [ 332532.001946588279679, 5536299.01294384803623, 0.0 ], [ 332531.727515792008489, 5536299.66834772657603, 0.0 ], [ 332531.460265753092244, 5536300.326712311245501, 0.0 ], [ 332531.200228406582028, 5536300.987958925776184, 0.0 ], [ 332530.947434825415257, 5536301.65200855769217, 0.0 ], [ 332530.701915217388887, 5536302.318781856447458, 0.0 ], [ 332530.463698921026662, 5536302.988199141807854, 0.0 ], [ 332530.232814401620999, 5536303.660180426202714, 0.0 ], [ 332530.009289248904679, 5536304.334645410068333, 0.0 ], [ 332529.793150172976311, 5536305.011513497680426, 0.0 ], [ 332529.584423001622781, 5536305.690703807398677, 0.0 ], [ 332529.383132676302921, 5536306.372135177254677, 0.0 ], [ 332529.189303250517696, 5536307.055726181715727, 0.0 ], [ 332529.002957885619253, 5536307.74139513541013, 0.0 ], [ 332528.824118849413935, 5536308.429060102440417, 0.0 ], [ 332528.652807511796709, 5536309.118638910353184, 0.0 ], [ 332528.489044343878049, 5536309.810049159452319, 0.0 ], [ 332528.332848914607894, 5536310.503208230249584, 0.0 ], [ 332528.184239888272714, 5536311.198033289983869, 0.0 ], [ 332528.043235023273155, 5536311.894441314041615, 0.0 ], [ 332527.909851168806199, 5536312.592349084094167, 0.0 ], [ 332527.784104263526388, 5536313.291673202998936, 0.0 ], [ 332527.66600933362497, 5536313.992330105043948, 0.0 ], [ 332527.555580490792636, 5536314.694236067123711, 0.0 ], [ 332527.452830930880737, 5536315.397307213395834, 0.0 ], [ 332527.357772931922227, 5536316.10145952925086, 0.0 ], [ 332527.270417852676474, 5536316.806608873419464, 0.0 ], [ 332527.190776131872553, 5536317.512670985423028, 0.0 ], [ 332527.118857286171988, 5536318.219561490230262, 0.0 ], [ 332527.054669909528457, 5536318.92719592154026, 0.0 ], [ 332526.998221672081854, 5536319.635489720851183, 0.0 ], [ 332526.94951931911055, 5536320.344358246773481, 0.0 ], [ 332496.693058793433011, 5536324.317502691410482, 2.0 ], [ 332494.36312899767654, 5536279.227736912667751, 0.0 ], [ 332481.084379870502744, 5536254.15609172731638, 0.0 ], [ 332479.561424628773239, 5536213.393622217699885, 2.0 ], [ 332438.135475221846718, 5536211.7322001401335, 2.0 ] ] ] } },
{ "type": "Feature", "properties": { "fid": 16, "type": "ESA2 + AOI + Highslope", "height": 1.2, "length": 379.80369835251162, "Fence name": "F4", "Layer": null, "auxiliary_storage_labeling_positionx": null, "auxiliary_storage_labeling_positiony": null, "auxiliary_storage_labeling_lineanchorpercent": 0.028965554045400455, "auxiliary_storage_labeling_lineanchorclipping": "entire", "auxiliary_storage_labeling_lineanchortype": "strict", "auxiliary_storage_labeling_lineanchortextpoint": "start", "auxiliary_storage_labeling_labelrotation": null }, "geometry": { "type": "MultiLineString", "coordinates": [ [ [ 332563.44391400332097, 5536720.401561620645225, 0.0 ], [ 332607.949710558110382, 5536811.757282393053174, 2.0 ], [ 332594.098237525613513, 5536837.261054238304496, 0.0 ], [ 332607.360101707512513, 5536858.577899042516947, 0.0 ], [ 332631.430694228969514, 5536839.905805034562945, 0.0 ], [ 332655.493982081825379, 5536867.33987551368773, 0.0 ], [ 332762.325967861921526, 5536881.495051621459424, 0.0 ], [ 332765.808652970648836, 5536930.680341311730444, 0.0 ], [ 332765.809710184810683, 5536930.676007248461246, 0.0 ] ] ] } },
{ "type": "Feature", "properties": { "fid": 17, "type": "ESA2", "height": 1.2, "length": 239.54420839458092, "Fence name": "F5", "Layer": null, "auxiliary_storage_labeling_positionx": null, "auxiliary_storage_labeling_positiony": null, "auxiliary_storage_labeling_lineanchorpercent": null, "auxiliary_storage_labeling_lineanchorclipping": null, "auxiliary_storage_labeling_lineanchortype": null, "auxiliary_storage_labeling_lineanchortextpoint": null, "auxiliary_storage_labeling_labelrotation": null }, "geometry": { "type": "MultiLineString", "coordinates": [ [ [ 332765.809710184810683, 5536930.676007248461246, 0.0 ], [ 332777.115734326594975, 5536884.326812781393528, 0.0 ], [ 332812.104451618215535, 5536888.234988752752542, 0.0 ], [ 332825.836933316721115, 5536860.41495249979198, 0.0 ], [ 332766.537538544274867, 5536852.273795145563781, 0.0 ], [ 332733.076286531402729, 5536826.921537352725863, 0.0 ], [ 332749.530325526313391, 5536809.787962510250509, 0.0 ] ] ] } },
{ "type": "Feature", "properties": { "fid": 18, "type": "ESA2", "height": 1.2, "length": 189.88730365520411, "Fence name": "F10", "Layer": null, "auxiliary_storage_labeling_positionx": null, "auxiliary_storage_labeling_positiony": null, "auxiliary_storage_labeling_lineanchorpercent": null, "auxiliary_storage_labeling_lineanchorclipping": null, "auxiliary_storage_labeling_lineanchortype": null, "auxiliary_storage_labeling_lineanchortextpoint": null, "auxiliary_storage_labeling_labelrotation": null }, "geometry": { "type": "MultiLineString", "coordinates": [ [ [ 332817.673755776660983, 5536203.056057037785649, 0.0 ], [ 332810.986780337523669, 5536143.2708410769701, 0.0 ], [ 332681.421683441381902, 5536149.578637546859682, 0.0 ] ] ] } },
{ "type": "Feature", "properties": { "fid": 19, "type": "ESA2 + Riparian", "height": 1.2, "length": 259.3369900302381, "Fence name": "F9", "Layer": null, "auxiliary_storage_labeling_positionx": 332671.27800305537, "auxiliary_storage_labeling_positiony": 5536247.5055446187, "auxiliary_storage_labeling_lineanchorpercent": 0.96679647974152061, "auxiliary_storage_labeling_lineanchorclipping": "entire", "auxiliary_storage_labeling_lineanchortype": "strict", "auxiliary_storage_labeling_lineanchortextpoint": "start", "auxiliary_storage_labeling_labelrotation": 258.22141007982225 }, "geometry": { "type": "MultiLineString", "coordinates": [ [ [ 332629.346818623074796, 5536197.032440821640193, 0.0 ], [ 332656.384761956345756, 5536209.050879500806332, 0.0 ], [ 332817.678045058215503, 5536203.094405559822917, 0.0 ], [ 332817.673755776660983, 5536203.056057037785649, 0.0 ] ], [ [ 332629.834714760712814, 5536197.490943902172148, 2.0 ], [ 332630.317239120020531, 5536197.955096847377717, 2.0 ], [ 332630.794326279486995, 5536198.424836728721857, 0.0 ], [ 332631.265911554917693, 5536198.900099859572947, 0.0 ], [ 332631.731931007700041, 5536199.380821799859405, 0.0 ], [ 332632.192321454000194, 5536199.866937374696136, 0.0 ], [ 332632.647020473319571, 5536200.358380674384534, 0.0 ], [ 332633.095966416527517, 5536200.855085068382323, 0.0 ], [ 332633.539098414825276, 5536201.356983211822808, 0.0 ], [ 332633.976356387604028, 5536201.864007056690753, 0.0 ], [ 332634.407681050302926, 5536202.376087861135602, 0.0 ], [ 332634.833013923373073, 5536202.893156195059419, 0.0 ], [ 332635.252297339204233, 5536203.415141954086721, 0.0 ], [ 332635.665474450506736, 5536203.941974364221096, 0.0 ], [ 332636.072489238111302, 5536204.473581998609006, 0.0 ], [ 332636.473286518186796, 5536205.00989278126508, 0.0 ], [ 332636.867811949574389, 5536205.550833996385336, 0.0 ], [ 332637.256012042111252, 5536206.096332303248346, 0.0 ], [ 332637.637834162684157, 5536206.646313741803169, 0.0 ], [ 332638.013226543087512, 5536207.200703744776547, 0.0 ], [ 332638.38213828712469, 5536207.759427146986127, 0.0 ], [ 332638.744519376719836, 5536208.322408195585012, 0.0 ], [ 332639.100320679775905, 5536208.889570560306311, 0.0 ], [ 332639.449493955995422, 5536209.460837343707681, 0.0 ], [ 332639.791991863807198, 5536210.036131092347205, 0.0 ], [ 332640.127767966827378, 5536210.615373807959259, 0.0 ], [ 332640.456776739622001, 5536211.198486954905093, 0.0 ], [ 332640.778973574691918, 5536211.785391474142671, 0.0 ], [ 332641.094314787886105, 5536212.376007790677249, 0.0 ], [ 332641.402757624804508, 5536212.970255830325186, 0.0 ], [ 332641.704260266094934, 5536213.568055019713938, 0.0 ], [ 332641.998781833506655, 5536214.169324312359095, 0.0 ], [ 332642.286282395012677, 5536214.773982183076441, 0.0 ], [ 332642.566722970979754, 5536215.381946654058993, 0.0 ], [ 332642.840065538708586, 5536215.993135294876993, 0.0 ], [ 332643.106273037672509, 5536216.607465242035687, 0.0 ], [ 332643.365309375280049, 5536217.224853198044002, 0.0 ], [ 332643.617139430716634, 5536217.84521546214819, 0.0 ], [ 332643.861729060299695, 5536218.4684679210186, 0.0 ], [ 332644.099045102193486, 5536219.094526073895395, 0.0 ], [ 332644.329055380716454, 5536219.723305038176477, 0.0 ], [ 332644.551728710415773, 5536220.354719564318657, 0.0 ], [ 332644.767034901014995, 5536220.988684042356908, 0.0 ], [ 332644.974944760790095, 5536221.62511251680553, 0.0 ], [ 332645.175430100876838, 5536222.263918704353273, 0.0 ], [ 332645.368463739228901, 5536222.905015989206731, 0.0 ], [ 332645.554019503877498, 5536223.548317451961339, 0.0 ], [ 332645.732072236889508, 5536224.193735875189304, 0.0 ], [ 332645.90259779751068, 5536224.841183747164905, 0.0 ], [ 332646.065573065425269, 5536225.490573288872838, 0.0 ], [ 332646.220975944306701, 5536226.141816454008222, 0.0 ], [ 332646.368785364204086, 5536226.794824944809079, 0.0 ], [ 332646.508981284976471, 5536227.4495102269575, 0.0 ], [ 332646.641544698621146, 5536228.105783536098897, 0.0 ], [ 332646.766457631601952, 5536228.76355589274317, 0.0 ], [ 332646.88370314828353, 5536229.422738116234541, 0.0 ], [ 332646.993265352328308, 5536230.083240833133459, 0.0 ], [ 332647.09512938890839, 5536230.744974489323795, 0.0 ], [ 332647.189281447092071, 5536231.40784936863929, 0.0 ], [ 332647.275708761822898, 5536232.071775594726205, 0.0 ], [ 332647.354399614792783, 5536232.736663152463734, 0.0 ], [ 332647.425343337119557, 5536233.402421893551946, 0.0 ], [ 332647.48853031010367, 5536234.068961557000875, 0.0 ], [ 332647.54395196668338, 5536234.736191768199205, 0.0 ], [ 332647.591600792773534, 5536235.404022064059973, 0.0 ], [ 332647.63147032802226, 5536236.072361897677183, 0.0 ], [ 332647.663555166800506, 5536236.741120657883584, 0.0 ], [ 332647.687850959016941, 5536237.410207669250667, 0.0 ], [ 332647.704354410525411, 5536238.079532218165696, 0.0 ], [ 332647.713063283823431, 5536238.749003553763032, 0.0 ], [ 332647.713976398226805, 5536239.418530910275877, 0.0 ], [ 332647.707093629811425, 5536240.088023510761559, 0.0 ], [ 332647.692415911820717, 5536240.757390584796667, 0.0 ], [ 332647.669945234083571, 5536241.426541375927627, 0.0 ], [ 332647.639684643596411, 5536242.095385164022446, 0.0 ], [ 332647.601638242893387, 5536242.76383126154542, 0.0 ], [ 332647.555811190395616, 5536243.431789042428136, 0.0 ], [ 332647.502209699479863, 5536244.099167941138148, 0.0 ], [ 332647.440841037489008, 5536244.76587747503072, 0.0 ], [ 332647.371713524975348, 5536245.431827248074114, 0.0 ], [ 332647.294836534303613, 5536246.096926974132657, 0.0 ], [ 332647.210220488719642, 5536246.761086471378803, 0.0 ], [ 332647.11787686048774, 5536247.424215696752071, 0.0 ], [ 332647.017818169726525, 5536248.086224739439785, 0.0 ], [ 332646.910057982779108, 5536248.74702384416014, 0.0 ], [ 332646.794610909826588, 5536249.406523418612778, 0.0 ], [ 332646.671492603316437, 5536250.064634044654667, 0.0 ], [ 332646.540719756099861, 5536250.721266496926546, 0.0 ], [ 332646.402310098404996, 5536251.376331746578217, 0.0 ], [ 332646.256282396090683, 5536252.029740978963673, 0.0 ], [ 332646.102656448201742, 5536252.681405603885651, 0.0 ], [ 332645.941453083185479, 5536253.331237266771495, 0.0 ], [ 332645.772694157494698, 5536253.979147860780358, 0.0 ], [ 332645.596402551920619, 5536254.625049545429647, 0.0 ], [ 332645.41260216810042, 5536255.268854743801057, 0.0 ], [ 332645.221317926421762, 5536255.910476169548929, 0.0 ], [ 332645.022575761307962, 5536256.549826829694211, 0.0 ], [ 332644.816402618598659, 5536257.186820038594306, 0.0 ], [ 332644.602826451824512, 5536257.821369435638189, 0.0 ], [ 332644.381876217783429, 5536258.453388983383775, 0.0 ], [ 332644.153581873571966, 5536259.082792992703617, 0.0 ], [ 332643.917974371812306, 5536259.709496128372848, 0.0 ], [ 332643.675085656403098, 5536260.333413419313729, 0.0 ] ] ] } }
]
}
