{
"type": "FeatureCollection",
"name": "SBE_9",
"crs": { "type": "name", "properties": { "name": "urn:ogc:def:crs:EPSG::2955" } },
"features": [
{ "type": "Feature", "properties": { "fid": 1.0, "handle": 28215.0, "block": -1.0, "etype": 18.0, "space": 0.0, "layer": "SUGGESTED HOME LOCATION MAX", "olinetype": "BYLAYER", "linetype": null, "color": "255,159,127,254", "ocolor": 256.0, "color24": -1.0, "transparen": 0.0, "lweight": -1.0, "linewidth": 0.0, "ltscale": 1.0, "visible": 1.0, "width": 0.0, "thickness": 0.0, "ext": "(3:0,0,0.1)" }, "geometry": { "type": "MultiPolygon", "coordinates": [ [ [ [ 332434.737053699383978, 5536364.37281643692404 ], [ 332443.868475134600885, 5536376.273116539232433 ], [ 332460.528895281022415, 5536363.489126531407237 ], [ 332451.397473845689092, 5536351.588826427236199 ], [ 332434.737053699383978, 5536364.37281643692404 ] ] ] ] } },
{ "type": "Feature", "properties": { "fid": 2.0, "handle": 28216.0, "block": -1.0, "etype": 18.0, "space": 0.0, "layer": "SUGGESTED HOME LOCATION MAX", "olinetype": "BYLAYER", "linetype": null, "color": "255,159,127,254", "ocolor": 256.0, "color24": -1.0, "transparen": 0.0, "lweight": -1.0, "linewidth": 0.0, "ltscale": 1.0, "visible": 1.0, "width": 0.0, "thickness": 0.0, "ext": "(3:0,0,0.1)" }, "geometry": { "type": "MultiPolygon", "coordinates": [ [ [ [ 332525.978943529771641, 5536394.115507386624813 ], [ 332531.324965069128666, 5536408.13050127401948 ], [ 332550.945956513285637, 5536400.646071121096611 ], [ 332545.599934974801727, 5536386.631077232770622 ], [ 332525.978943529771641, 5536394.115507386624813 ] ] ] ] } },
{ "type": "Feature", "properties": { "fid": 3.0, "handle": 28217.0, "block": -1.0, "etype": 18.0, "space": 0.0, "layer": "SUGGESTED HOME LOCATION MAX", "olinetype": "BYLAYER", "linetype": null, "color": "255,159,127,254", "ocolor": 256.0, "color24": -1.0, "transparen": 0.0, "lweight": -1.0, "linewidth": 0.0, "ltscale": 1.0, "visible": 1.0, "width": 0.0, "thickness": 0.0, "ext": "(3:0,0,0.1)" }, "geometry": { "type": "MultiPolygon", "coordinates": [ [ [ [ 332561.96009806037182, 5536579.126096056774259 ], [ 332571.091519495705143, 5536591.026396159082651 ], [ 332587.751939642010257, 5536578.242406152188778 ], [ 332578.620518206793349, 5536566.342106047086418 ], [ 332561.96009806037182, 5536579.126096056774259 ] ] ] ] } },
{ "type": "Feature", "properties": { "fid": 4.0, "handle": 28219.0, "block": -1.0, "etype": 18.0, "space": 0.0, "layer": "SUGGESTED HOME LOCATION MAX", "olinetype": "BYLAYER", "linetype": null, "color": "255,159,127,254", "ocolor": 256.0, "color24": -1.0, "transparen": 0.0, "lweight": -1.0, "linewidth": 0.0, "ltscale": 1.0, "visible": 1.0, "width": 0.0, "thickness": 0.0, "ext": "(3:0,0,0.1)" }, "geometry": { "type": "MultiPolygon", "coordinates": [ [ [ [ 332443.208226581802592, 5536245.015922303311527 ], [ 332454.96949739032425, 5536260.343508834950626 ], [ 332476.42811853880994, 5536243.877729704603553 ], [ 332464.666847730288282, 5536228.550143170170486 ], [ 332443.208226581802592, 5536245.015922303311527 ] ] ] ] } },
{ "type": "Feature", "properties": { "fid": 5.0, "handle": 28220.0, "block": -1.0, "etype": 18.0, "space": 0.0, "layer": "SUGGESTED HOME LOCATION MAX", "olinetype": "BYLAYER", "linetype": null, "color": "255,159,127,254", "ocolor": 256.0, "color24": -1.0, "transparen": 0.0, "lweight": -1.0, "linewidth": 0.0, "ltscale": 1.0, "visible": 1.0, "width": 0.0, "thickness": 0.0, "ext": "(3:0,0,0.1)" }, "geometry": { "type": "MultiPolygon", "coordinates": [ [ [ [ 332389.335474570398219, 5536440.096009677276015 ], [ 332396.221150313096587, 5536458.14732180442661 ], [ 332421.492987293575425, 5536448.507375767454505 ], [ 332414.607311551517341, 5536430.456063636578619 ], [ 332389.335474570398219, 5536440.096009677276015 ] ] ] ] } },
{ "type": "Feature", "properties": { "fid": 6.0, "handle": 28221.0, "block": -1.0, "etype": 18.0, "space": 0.0, "layer": "SUGGESTED HOME LOCATION MAX", "olinetype": "BYLAYER", "linetype": null, "color": "255,159,127,254", "ocolor": 256.0, "color24": -1.0, "transparen": 0.0, "lweight": -1.0, "linewidth": 0.0, "ltscale": 1.0, "visible": 1.0, "width": 0.0, "thickness": 0.0, "ext": "(3:0,0,0.1)" }, "geometry": { "type": "MultiPolygon", "coordinates": [ [ [ [ 332498.264987230300903, 5536511.73287932574749 ], [ 332511.314985168050043, 5536525.979280755855143 ], [ 332531.259947176149581, 5536507.709283645264804 ], [ 332518.209949238225818, 5536493.462882210500538 ], [ 332498.264987230300903, 5536511.73287932574749 ] ] ] ] } },
{ "type": "Feature", "properties": { "fid": 7.0, "handle": 28224.0, "block": -1.0, "etype": 18.0, "space": 0.0, "layer": "SUGGESTED HOME LOCATION MAX", "olinetype": "BYLAYER", "linetype": null, "color": "255,159,127,254", "ocolor": 256.0, "color24": -1.0, "transparen": 0.0, "lweight": -1.0, "linewidth": 0.0, "ltscale": 1.0, "visible": 1.0, "width": 0.0, "thickness": 0.0, "ext": "(3:0,0,0.1)" }, "geometry": { "type": "MultiPolygon", "coordinates": [ [ [ [ 332686.655432348314207, 5536856.979326060041785 ], [ 332700.208163534931373, 5536870.748344806954265 ], [ 332719.484789786569308, 5536851.774521146900952 ], [ 332705.932058598787989, 5536838.00550239533186 ], [ 332686.655432348314207, 5536856.979326060041785 ] ] ] ] } },
{ "type": "Feature", "properties": { "fid": 8.0, "handle": 28225.0, "block": -1.0, "etype": 18.0, "space": 0.0, "layer": "SUGGESTED HOME LOCATION MAX", "olinetype": "BYLAYER", "linetype": null, "color": "255,159,127,254", "ocolor": 256.0, "color24": -1.0, "transparen": 0.0, "lweight": -1.0, "linewidth": 0.0, "ltscale": 1.0, "visible": 1.0, "width": 0.0, "thickness": 0.0, "ext": "(3:0,0,0.1)" }, "geometry": { "type": "MultiPolygon", "coordinates": [ [ [ [ 332682.398618273902684, 5536182.131749471649528 ], [ 332699.33449365379056, 5536191.428981591016054 ], [ 332712.35061862267321, 5536167.71875605918467 ], [ 332695.414743241795804, 5536158.421523938886821 ], [ 332682.398618273902684, 5536182.131749471649528 ] ] ] ] } },
{ "type": "Feature", "properties": { "fid": 9.0, "handle": 28227.0, "block": -1.0, "etype": 18.0, "space": 0.0, "layer": "SUGGESTED HOME LOCATION MAX", "olinetype": "BYLAYER", "linetype": null, "color": "255,159,127,254", "ocolor": 256.0, "color24": -1.0, "transparen": 0.0, "lweight": -1.0, "linewidth": 0.0, "ltscale": 1.0, "visible": 1.0, "width": 0.0, "thickness": 0.0, "ext": "(3:0,0,0.1)" }, "geometry": { "type": "MultiPolygon", "coordinates": [ [ [ [ 332710.482631717808545, 5536473.139264800585806 ], [ 332723.953034797741566, 5536466.540155710652471 ], [ 332714.714282071101479, 5536447.681591394357383 ], [ 332701.243878988781944, 5536454.280700486153364 ], [ 332710.482631717808545, 5536473.139264800585806 ] ] ] ] } },
{ "type": "Feature", "properties": { "fid": 10.0, "handle": 28229.0, "block": -1.0, "etype": 18.0, "space": 0.0, "layer": "SUGGESTED HOME LOCATION MAX", "olinetype": "BYLAYER", "linetype": null, "color": "255,159,127,254", "ocolor": 256.0, "color24": -1.0, "transparen": 0.0, "lweight": -1.0, "linewidth": 0.0, "ltscale": 1.0, "visible": 1.0, "width": 0.0, "thickness": 0.0, "ext": "(3:0,0,0.1)" }, "geometry": { "type": "MultiPolygon", "coordinates": [ [ [ [ 332851.966532634512987, 5536686.34444198384881 ], [ 332869.774667094636243, 5536678.852262930944562 ], [ 332859.285616422712337, 5536653.920874682255089 ], [ 332841.47748196014436, 5536661.413053735159338 ], [ 332851.966532634512987, 5536686.34444198384881 ] ] ] ] } },
{ "type": "Feature", "properties": { "fid": 11.0, "handle": 28230.0, "block": -1.0, "etype": 18.0, "space": 0.0, "layer": "SUGGESTED HOME LOCATION MAX", "olinetype": "BYLAYER", "linetype": null, "color": "255,159,127,254", "ocolor": 256.0, "color24": -1.0, "transparen": 0.0, "lweight": -1.0, "linewidth": 0.0, "ltscale": 1.0, "visible": 1.0, "width": 0.0, "thickness": 0.0, "ext": "(3:0,0,0.1)" }, "geometry": { "type": "MultiPolygon", "coordinates": [ [ [ [ 332760.728985142253805, 5536875.46988071128726 ], [ 332770.664738465158734, 5536886.707353997044265 ], [ 332786.397201069223229, 5536872.797299347817898 ], [ 332776.461447746783961, 5536861.559826059266925 ], [ 332760.728985142253805, 5536875.46988071128726 ] ] ] ] } },
{ "type": "Feature", "properties": { "fid": 12.0, "handle": 28231.0, "block": -1.0, "etype": 18.0, "space": 0.0, "layer": "SUGGESTED HOME LOCATION MAX", "olinetype": "BYLAYER", "linetype": null, "color": "255,159,127,254", "ocolor": 256.0, "color24": -1.0, "transparen": 0.0, "lweight": -1.0, "linewidth": 0.0, "ltscale": 1.0, "visible": 1.0, "width": 0.0, "thickness": 0.0, "ext": "(3:0,0,0.1)" }, "geometry": { "type": "MultiPolygon", "coordinates": [ [ [ [ 332658.143951256293803, 5536747.019371995702386 ], [ 332670.436983364692423, 5536755.614798777736723 ], [ 332682.470580860273913, 5536738.404553825967014 ], [ 332670.177548751991708, 5536729.809127044863999 ], [ 332658.143951256293803, 5536747.019371995702386 ] ] ] ] } },
{ "type": "Feature", "properties": { "fid": 13.0, "handle": 28232.0, "block": -1.0, "etype": 18.0, "space": 0.0, "layer": "SUGGESTED HOME LOCATION MAX", "olinetype": "BYLAYER", "linetype": null, "color": "255,159,127,254", "ocolor": 256.0, "color24": -1.0, "transparen": 0.0, "lweight": -1.0, "linewidth": 0.0, "ltscale": 1.0, "visible": 1.0, "width": 0.0, "thickness": 0.0, "ext": "(3:0,0,0.1)" }, "geometry": { "type": "MultiPolygon", "coordinates": [ [ [ [ 332551.97744741581846, 5536517.372346892952919 ], [ 332562.109433392295614, 5536528.433217569254339 ], [ 332577.594652342726476, 5536514.24843720253557 ], [ 332567.462666366016492, 5536503.187566525302827 ], [ 332551.97744741581846, 5536517.372346892952919 ] ] ] ] } },
{ "type": "Feature", "properties": { "fid": 14.0, "handle": 28233.0, "block": -1.0, "etype": 18.0, "space": 0.0, "layer": "SUGGESTED HOME LOCATION MAX", "olinetype": "BYLAYER", "linetype": null, "color": "255,159,127,254", "ocolor": 256.0, "color24": -1.0, "transparen": 0.0, "lweight": -1.0, "linewidth": 0.0, "ltscale": 1.0, "visible": 1.0, "width": 0.0, "thickness": 0.0, "ext": "(3:0,0,0.1)" }, "geometry": { "type": "MultiPolygon", "coordinates": [ [ [ [ 332636.688054771220777, 5536189.305325739085674 ], [ 332649.837026339082513, 5536196.523673655465245 ], [ 332659.942713426426053, 5536178.115113460458815 ], [ 332646.793741857691202, 5536170.896765542216599 ], [ 332636.688054771220777, 5536189.305325739085674 ] ] ] ] } },
{ "type": "Feature", "properties": { "fid": 15.0, "handle": 28234.0, "block": -1.0, "etype": 18.0, "space": 0.0, "layer": "SUGGESTED HOME LOCATION MAX", "olinetype": "BYLAYER", "linetype": null, "color": "255,159,127,254", "ocolor": 256.0, "color24": -1.0, "transparen": 0.0, "lweight": -1.0, "linewidth": 0.0, "ltscale": 1.0, "visible": 1.0, "width": 0.0, "thickness": 0.0, "ext": "(3:0,0,0.1)" }, "geometry": { "type": "MultiPolygon", "coordinates": [ [ [ [ 332791.529168664710596, 5536680.828486409969628 ], [ 332797.107028173631988, 5536694.752834984101355 ], [ 332816.60111618170049, 5536686.94383167475462 ], [ 332811.023256673244759, 5536673.019483096897602 ], [ 332791.529168664710596, 5536680.828486409969628 ] ] ] ] } },
{ "type": "Feature", "properties": { "fid": 16.0, "handle": 28488.0, "block": -1.0, "etype": 18.0, "space": 0.0, "layer": "SUGGESTED HOME LOCATION MAX", "olinetype": "BYLAYER", "linetype": null, "color": "255,159,127,254", "ocolor": 256.0, "color24": -1.0, "transparen": 0.0, "lweight": -1.0, "linewidth": 0.0, "ltscale": 1.0, "visible": 1.0, "width": 0.0, "thickness": 0.0, "ext": "(3:0,0,0.1)" }, "geometry": { "type": "MultiPolygon", "coordinates": [ [ [ [ 332598.003024086123332, 5536839.586067078635097 ], [ 332614.665599365951493, 5536849.364665395580232 ], [ 332628.355637012049556, 5536826.037060003727674 ], [ 332611.693061731522903, 5536816.258461682125926 ], [ 332598.003024086123332, 5536839.586067078635097 ] ] ] ] } },
{ "type": "Feature", "properties": { "fid": 17.0, "handle": 29057.0, "block": -1.0, "etype": 18.0, "space": 0.0, "layer": "SUGGESTED HOME LOCATION MAX", "olinetype": "BYLAYER", "linetype": null, "color": "255,159,127,254", "ocolor": 256.0, "color24": -1.0, "transparen": 0.0, "lweight": -1.0, "linewidth": 0.0, "ltscale": 1.0, "visible": 1.0, "width": 0.0, "thickness": 0.0, "ext": "(3:0,0,0.1)" }, "geometry": { "type": "MultiPolygon", "coordinates": [ [ [ [ 332703.018279472598806, 5536465.654241958633065 ], [ 332677.792528852063697, 5536478.291804887354374 ], [ 332686.636128670477774, 5536496.586425467394292 ], [ 332711.888467159122229, 5536484.379472333006561 ], [ 332703.018279472598806, 5536465.654241958633065 ] ] ] ] } }
]
}
