{
"type": "FeatureCollection",
"name": "SEPTIC_18",
"crs": { "type": "name", "properties": { "name": "urn:ogc:def:crs:EPSG::2955" } },
"features": [
{ "type": "Feature", "properties": { "fid": 329, "FIELD_ID": 1, "NOTES": "Lot 1" }, "geometry": { "type": "MultiPolygon", "coordinates": [ [ [ [ 332420.005078493326437, 5536333.219908754341304, 0.0 ], [ 332428.172223122499418, 5536324.427994935773313, 0.0 ], [ 332429.661469205457252, 5536325.531331328675151, 0.0 ], [ 332431.363031145825516, 5536323.699750874191523, 0.0 ], [ 332435.758824239659589, 5536327.783499529585242, 0.0 ], [ 332434.057262299524155, 5536329.615079985000193, 0.0 ], [ 332434.722551606770139, 5536330.512845309451222, 0.0 ], [ 332426.555054287833627, 5536339.30443150177598, 0.0 ], [ 332420.005078493326437, 5536333.219908754341304, 0.0 ] ] ] ] } },
{ "type": "Feature", "properties": { "fid": 331, "FIELD_ID": 2, "NOTES": "LOT 2" }, "geometry": { "type": "MultiPolygon", "coordinates": [ [ [ [ 332509.393733457080089, 5536417.184260406531394, 0.0 ], [ 332504.597054426383693, 5536404.326463518664241, 0.0 ], [ 332499.725976939138491, 5536405.982815831899643, 0.0 ], [ 332500.285203561827075, 5536407.495639692060649, 0.0 ], [ 332496.656685444584582, 5536409.043362663127482, 0.0 ], [ 332500.39539140794659, 5536420.043795550242066, 0.0 ], [ 332509.393733457080089, 5536417.184260406531394, 0.0 ] ] ] ] } },
{ "type": "Feature", "properties": { "fid": 333, "FIELD_ID": 3, "NOTES": "LOT 3" }, "geometry": { "type": "MultiPolygon", "coordinates": [ [ [ [ 332495.000663581478875, 5536464.861534409224987, 0.0 ], [ 332496.509415456734132, 5536473.673303116112947, 0.0 ], [ 332512.033512069552671, 5536471.015310544520617, 0.0 ], [ 332511.189706574368756, 5536466.087025621905923, 0.0 ], [ 332507.692721720493864, 5536466.550295010209084, 0.0 ], [ 332506.828541042923462, 5536462.836364106275141, 0.0 ], [ 332495.000663581478875, 5536464.861534409224987, 0.0 ], [ 332496.509415456734132, 5536473.673303116112947, 0.0 ], [ 332495.000663581478875, 5536464.861534409224987, 0.0 ] ] ] ] } },
{ "type": "Feature", "properties": { "fid": 336, "FIELD_ID": 4, "NOTES": "LOT 4 EXISTING" }, "geometry": { "type": "MultiPolygon", "coordinates": [ [ [ [ 332538.557598854764365, 5536632.663451730273664, 0.0 ], [ 332538.557598854764365, 5536632.663451730273664, 0.0 ], [ 332543.794091625779402, 5536628.139556238427758, 0.0 ], [ 332549.866434569354169, 5536635.168405596166849, 0.0 ], [ 332547.715836096263956, 5536637.08724032714963, 0.0 ], [ 332549.456218320527114, 5536639.358705119229853, 0.0 ], [ 332546.527523149445187, 5536641.888838821090758, 0.0 ], [ 332538.557598854764365, 5536632.663451730273664, 0.0 ] ] ] ] } },
{ "type": "Feature", "properties": { "fid": 339, "FIELD_ID": 5, "NOTES": "LOT 5" }, "geometry": { "type": "MultiPolygon", "coordinates": [ [ [ [ 332650.338034756248817, 5536778.612383260391653, 0.0 ], [ 332657.327858378179371, 5536773.03813611716032, 0.0 ], [ 332664.809339311381336, 5536782.42009634245187, 0.0 ], [ 332659.970872628036886, 5536785.639270022511482, 0.0 ], [ 332664.133950264775194, 5536789.993493838235736, 0.0 ], [ 332662.179378210974392, 5536791.552226685918868, 0.0 ], [ 332658.750187611673027, 5536787.252195335924625, 0.0 ], [ 332657.819789646193385, 5536787.994125004857779, 0.0 ], [ 332650.338034756248817, 5536778.612383260391653, 0.0 ] ] ] ] } },
{ "type": "Feature", "properties": { "fid": 341, "FIELD_ID": 6, "NOTES": "LOT 6" }, "geometry": { "type": "MultiPolygon", "coordinates": [ [ [ [ 332659.177463790343609, 5536854.45742354169488, 0.0 ], [ 332670.987537032633554, 5536858.552807528525591, 0.0 ], [ 332669.758956008416135, 5536862.09584135375917, 0.0 ], [ 332675.42776268493617, 5536864.061609226278961, 0.0 ], [ 332674.608688326843549, 5536866.423624724149704, 0.0 ], [ 332668.939901992795058, 5536864.457863899879158, 0.0 ], [ 332668.058520282385871, 5536866.999372562393546, 0.0 ], [ 332656.228791873145383, 5536862.960691523738205, 0.0 ], [ 332659.177463790343609, 5536854.45742354169488, 0.0 ] ] ] ] } },
{ "type": "Feature", "properties": { "fid": 344, "FIELD_ID": 7, "NOTES": "LOT 7" }, "geometry": { "type": "MultiPolygon", "coordinates": [ [ [ [ 332828.436341142107267, 5536698.909726253710687, 0.0 ], [ 332839.122052028425969, 5536696.108617574907839, 0.0 ], [ 332836.403484174050391, 5536683.222712175920606, 0.0 ], [ 332832.66867260215804, 5536684.078606494702399, 0.0 ], [ 332831.216245879768394, 5536677.283324330113828, 0.0 ], [ 332827.896413371374365, 5536678.113282456994057, 0.0 ], [ 332829.089478179055732, 5536684.545457942411304, 0.0 ], [ 332826.029007585486397, 5536685.16792653594166, 0.0 ], [ 332828.436341142107267, 5536698.909726253710687, 0.0 ] ] ] ] } },
{ "type": "Feature", "properties": { "fid": 346, "FIELD_ID": 8, "NOTES": "LOT 8" }, "geometry": { "type": "MultiPolygon", "coordinates": [ [ [ [ 332683.257695397536736, 5536426.273471421562135, 0.0 ], [ 332681.575784909247886, 5536417.493108270689845, 0.0 ], [ 332693.361507262510713, 5536415.23551029805094, 0.0 ], [ 332695.984062477189582, 5536428.926595136523247, 0.0 ], [ 332693.823344935139176, 5536429.340478817932308, 0.0 ], [ 332692.882700208749156, 5536424.429757132194936, 0.0 ], [ 332683.257695397536736, 5536426.273471421562135, 0.0 ] ] ] ] } },
{ "type": "Feature", "properties": { "fid": 349, "FIELD_ID": 9, "NOTES": "LOT 9" }, "geometry": { "type": "MultiPolygon", "coordinates": [ [ [ [ 332629.100465538387652, 5536179.554029491730034, 0.0 ], [ 332632.975031995971221, 5536169.369454802945256, 0.0 ], [ 332625.89011047326494, 5536166.565006700344384, 0.0 ], [ 332622.150846336269751, 5536176.749581390060484, 0.0 ], [ 332624.266482624341734, 5536177.579845630563796, 0.0 ], [ 332622.249248024076223, 5536182.653682658448815, -717.0 ], [ 332624.709290219470859, 5536183.686900380067527, -717.0 ], [ 332626.757275347248651, 5536178.674564407207072, 0.0 ], [ 332629.100465538387652, 5536179.554029491730034, 0.0 ] ] ] ] } }
]
}
