{
"type": "FeatureCollection",
"name": "SRW_MOTI_13",
"crs": { "type": "name", "properties": { "name": "urn:ogc:def:crs:EPSG::2955" } },
"features": [
{ "type": "Feature", "properties": { "fid": 1, "Layer": "-MOTT DEDICATION", "area_m2": 44518.896014474332, "pct_BNDRY": 10.335094485615711 }, "geometry": { "type": "MultiPolygon", "coordinates": [ [ [ [ 332831.731137509515975, 5536957.303423441946507 ], [ 332843.39316159900045, 5536956.693074543960392 ], [ 332864.371146872697864, 5536913.579688723199069 ], [ 332863.144954584480729, 5536870.448916063643992 ], [ 332880.672401274729054, 5536841.958712249994278 ], [ 332878.193989939521998, 5536790.870719137601554 ], [ 332781.199168831575662, 5536777.647203180938959 ], [ 332777.417047009395901, 5536776.996449466794729 ], [ 332773.689511824282818, 5536776.083538015373051 ], [ 332770.03471166046802, 5536774.912913550622761 ], [ 332766.470440774457529, 5536773.490275533869863 ], [ 332763.014052659505978, 5536771.822550414130092 ], [ 332759.682375556323677, 5536769.917857904918492 ], [ 332756.491630520613398, 5536767.785471450537443 ], [ 332753.457352446974255, 5536765.43577307742089 ], [ 332750.594314433867112, 5536762.88020284473896 ], [ 332747.916455856931861, 5536760.131203151308 ], [ 332745.436814502172638, 5536757.202158148400486 ], [ 332743.167463088408113, 5536754.107328584417701 ], [ 332741.119450488011353, 5536750.861782364547253 ], [ 332739.302747933426872, 5536747.481321197003126 ], [ 332737.726200469420291, 5536743.98240365460515 ], [ 332736.397483889071736, 5536740.382065041922033 ], [ 332735.323067362478469, 5536736.697834457270801 ], [ 332734.508181939774659, 5536732.947649445384741 ], [ 332733.95679508295143, 5536729.149768667295575 ], [ 332733.671591348829679, 5536725.322683 ], [ 332733.653959319053683, 5536721.485025512985885 ], [ 332733.903984839445911, 5536717.655480747111142 ], [ 332734.420450601610355, 5536713.852693744003773 ], [ 332735.200842070335057, 5536710.095179269090295 ], [ 332736.241359725710936, 5536706.401231667026877 ], [ 332743.605070238001645, 5536683.370581402443349 ], [ 332744.682248545926996, 5536679.575830517336726 ], [ 332745.507749508426059, 5536675.718500413931906 ], [ 332746.078005024348386, 5536671.815263805910945 ], [ 332746.390550251759123, 5536667.882991835474968 ], [ 332746.444034261920024, 5536663.938681143335998 ], [ 332746.238225878332742, 5536659.999380408786237 ], [ 332745.77401467616437, 5536656.082116653211415 ], [ 332745.053407137165777, 5536652.203821648843586 ], [ 332744.079517976671923, 5536648.381258728913963 ], [ 332742.856556681159418, 5536644.63095033634454 ], [ 332741.389809313113801, 5536640.969106602482498 ], [ 332739.685615662776399, 5536637.411555285565555 ], [ 332737.7513418457238, 5536633.973673354834318 ], [ 332735.595348463510163, 5536630.670320527628064 ], [ 332733.226954466546886, 5536627.515775037929416 ], [ 332730.656396874401253, 5536624.523671925067902 ], [ 332727.894786527613178, 5536621.706944095902145 ], [ 332723.350105927675031, 5536617.07553181797266 ], [ 332719.115356172434986, 5536612.159131105989218 ], [ 332715.20836729533039, 5536606.978442023508251 ], [ 332711.645589322142769, 5536601.555277396924794 ], [ 332708.442023009294644, 5536595.912470974028111 ], [ 332705.611156684870366, 5536590.073781282640994 ], [ 332703.164909457264002, 5536584.06379160284996 ], [ 332685.154959333187435, 5536535.346745631657541 ], [ 332682.821092097903602, 5536529.590025774203241 ], [ 332680.134302887658123, 5536523.989318360574543 ], [ 332677.104959151358344, 5536518.566234706901014 ], [ 332673.744750144949649, 5536513.341700735501945 ], [ 332670.066641826240811, 5536508.335876229219139 ], [ 332666.953261737944558, 5536504.081811094656587 ], [ 332664.126812782196794, 5536499.631935585290194 ], [ 332661.64337498426903, 5536495.092320821247995 ], [ 332659.458607136562932, 5536490.401654029265046 ], [ 332657.581649613159243, 5536485.579559468664229 ], [ 332656.02035500772763, 5536480.646211249753833 ], [ 332654.781255280482583, 5536475.622248932719231 ], [ 332653.869534430850763, 5536470.528691179119051 ], [ 332653.289006809005514, 5536465.386847816407681 ], [ 332653.042101158003788, 5536460.218230680562556 ], [ 332653.129850452591199, 5536455.044463623315096 ], [ 332653.551887577574234, 5536449.887192042544484 ], [ 332654.306446863804013, 5536444.767992322333157 ], [ 332655.3903714750777, 5536439.708281566388905 ], [ 332656.799126615456771, 5536434.729227996431291 ], [ 332657.718731704051606, 5536431.458609979599714 ], [ 332658.414107423275709, 5536428.133092222735286 ], [ 332658.882043191522826, 5536424.768028797581792 ], [ 332659.120378527673893, 5536421.378956357017159 ], [ 332659.128013026493136, 5536417.981522406451404 ], [ 332658.90491143905092, 5536414.591413053683937 ], [ 332658.452103835821617, 5536411.224280592054129 ], [ 332657.771680850419216, 5536407.895671227946877 ], [ 332656.866784027195536, 5536404.620953304693103 ], [ 332655.741591316822451, 5536401.41524634603411 ], [ 332654.401297786040232, 5536398.29335124976933 ], [ 332652.852091632084921, 5536395.269681951031089 ], [ 332651.101125611632597, 5536392.358198869042099 ], [ 332649.15648401575163, 5536389.572344457730651 ], [ 332647.027145344705787, 5536386.924981134943664 ], [ 332644.722940853738692, 5536384.428331900388002 ], [ 332642.25450916175032, 5536382.093923898413777 ], [ 332639.633247131947428, 5536379.932535198517144 ], [ 332636.871257252641954, 5536377.954145033843815 ], [ 332633.98129175894428, 5536376.167887721210718 ], [ 332630.976693755248562, 5536374.582010496407747 ], [ 332588.32781005470315, 5536353.892251262441278 ], [ 332586.492410579288844, 5536352.922024830244482 ], [ 332584.728507345018443, 5536351.827184229157865 ], [ 332583.044547548342962, 5536350.612972564063966 ], [ 332581.448595542809926, 5536349.285204603336751 ], [ 332579.948294219386298, 5536347.850238922983408 ], [ 332578.55082840542309, 5536346.31494746543467 ], [ 332577.262890456884634, 5536344.686682621017098 ], [ 332576.090648209152278, 5536342.973242024891078 ], [ 332575.039715440012515, 5536341.182831211946905 ], [ 332574.115124985401053, 5536339.32402432244271 ], [ 332573.321304637589492, 5536337.405723037198186 ], [ 332572.662055941065773, 5536335.437113954685628 ], [ 332572.140535986924078, 5536333.427624591626227 ], [ 332571.759242294065189, 5536331.38687823805958 ], [ 332571.520000848453492, 5536329.324647868983448 ], [ 332571.423957358987536, 5536327.250809348188341 ], [ 332571.471571770496666, 5536325.175294127315283 ], [ 332571.66261606127955, 5536323.108041689731181 ], [ 332571.996175334905274, 5536321.058951946906745 ], [ 332572.470652201795019, 5536319.037837831303477 ], [ 332573.083774428872857, 5536317.054378303699195 ], [ 332573.832605821022298, 5536315.118071998469532 ], [ 332574.71356028248556, 5536313.238191735930741 ], [ 332575.722418990335427, 5536311.423740118741989 ], [ 332576.85435059806332, 5536309.683406416326761 ], [ 332578.103934372542426, 5536308.025524950586259 ], [ 332579.465186153480317, 5536306.458035188727081 ], [ 332580.931587011087686, 5536304.988443719223142 ], [ 332582.496114464825951, 5536303.623788301832974 ], [ 332584.151276113407221, 5536302.370604164898396 ], [ 332585.889145515393466, 5536301.23489271197468 ], [ 332587.70140014833305, 5536300.222092776559293 ], [ 332589.519807518343441, 5536299.362717779353261 ], [ 332591.391709974326659, 5536298.62711466383189 ], [ 332593.308694083243608, 5536298.018589664250612 ], [ 332605.764886409975588, 5536294.519542402587831 ], [ 332609.509942375996616, 5536293.328021066263318 ], [ 332613.164859787153546, 5536291.883463693782687 ], [ 332616.712564674322493, 5536290.192618545144796 ], [ 332620.136483912181575, 5536288.263384412974119 ], [ 332623.420622640871443, 5536286.104773727245629 ], [ 332626.549638986063655, 5536283.7268704501912 ], [ 332629.50891572854016, 5536281.140782971866429 ], [ 332632.28462858882267, 5536278.358592215925455 ], [ 332634.863810807059053, 5536275.393295204266906 ], [ 332637.234413717698772, 5536272.258744339458644 ], [ 332639.38536303449655, 5536268.969582695513964 ], [ 332641.306610584491864, 5536265.541175611317158 ], [ 332642.989181247947272, 5536261.989538911730051 ], [ 332644.425214885559399, 5536258.331264088861644 ], [ 332645.608003057306632, 5536254.583440797403455 ], [ 332646.532020360988099, 5536250.763577016070485 ], [ 332647.192950244061649, 5536246.889517263509333 ], [ 332647.587705168523826, 5536242.979359230957925 ], [ 332647.714441034244373, 5536239.051369248889387 ], [ 332647.572565793874674, 5536235.123896944336593 ], [ 332647.162742218468338, 5536231.215289530344307 ], [ 332646.486884801415727, 5536227.343806088902056 ], [ 332645.548150814778637, 5536223.527532279491425 ], [ 332644.350925560167525, 5536219.784295849502087 ], [ 332642.900801882788073, 5536216.131583349779248 ], [ 332641.204554044350516, 5536212.586458450183272 ], [ 332639.270106077077799, 5536209.165482223033905 ], [ 332637.106494766601827, 5536205.88463578093797 ], [ 332634.723827436449938, 5536202.759245616383851 ], [ 332632.133234731853008, 5536199.803912010043859 ], [ 332629.346818622609135, 5536197.032440821640193 ], [ 332610.976407418085728, 5536179.96905929595232 ], [ 332608.828014858299866, 5536177.834426701068878 ], [ 332606.828070689225569, 5536175.560120163485408 ], [ 332604.985633667267393, 5536173.156441165134311 ], [ 332603.309049119532574, 5536170.634277181699872 ], [ 332601.805911143484991, 5536168.005052365362644 ], [ 332600.483028209593613, 5536165.280675804242492 ], [ 332599.346392322215252, 5536162.473487572744489 ], [ 332598.40115187887568, 5536159.596202843822539 ], [ 332597.651588350592647, 5536156.661854292266071 ], [ 332597.101096888771281, 5536153.683733062818646 ], [ 332562.536482835712377, 5536155.366489879786968 ], [ 332563.398292227182537, 5536164.45644900854677 ], [ 332564.520505625230726, 5536173.414531959220767 ], [ 332566.179605410841759, 5536182.288877058774233 ], [ 332568.369581468403339, 5536191.047336850315332 ], [ 332574.594949219375849, 5536213.10171852260828 ], [ 332575.003367453464307, 5536214.382333537563682 ], [ 332575.496882587030996, 5536215.632622737437487 ], [ 332576.073265436512884, 5536216.846938626840711 ], [ 332576.729912509035785, 5536218.019796202890575 ], [ 332577.463857762166299, 5536219.145897723734379 ], [ 332578.271786001394503, 5536220.220156645402312 ], [ 332579.150047854753211, 5536221.237720592878759 ], [ 332580.094676256761886, 5536222.193993279710412 ], [ 332583.176200244575739, 5536225.110617420636117 ], [ 332584.075299285643268, 5536226.022639486007392 ], [ 332584.909145769604947, 5536226.994680314324796 ], [ 332585.673743657127488, 5536228.022081600502133 ], [ 332586.365428768913262, 5536229.099919731728733 ], [ 332586.980886344972532, 5536230.223029389977455 ], [ 332587.517166930483654, 5536231.38602830003947 ], [ 332587.971700510010123, 5536232.583343027159572 ], [ 332588.342308824125212, 5536233.809235685504973 ], [ 332588.627215808082838, 5536235.057831433601677 ], [ 332588.825056103232782, 5536236.323146631009877 ], [ 332588.934881600260269, 5536237.599117512814701 ], [ 332588.956165982934181, 5536238.87962924875319 ], [ 332588.888807250186801, 5536240.15854524821043 ], [ 332588.73312820494175, 5536241.429736565798521 ], [ 332588.489874907361809, 5536242.687111277133226 ], [ 332588.160213099210523, 5536243.924643670208752 ], [ 332587.745722617488354, 5536245.136403122916818 ], [ 332587.248389823304024, 5536246.31658252608031 ], [ 332586.67059808265185, 5536247.459526110440493 ], [ 332586.015116344671696, 5536248.559756550937891 ], [ 332585.285085871873889, 5536249.612001217901707 ], [ 332584.484005186415743, 5536250.611217444762588 ], [ 332583.615713304141536, 5536251.552616689354181 ], [ 332582.684371336828917, 5536252.431687489151955 ], [ 332581.694442550942767, 5536253.24421707727015 ], [ 332580.650670978240669, 5536253.986311568878591 ], [ 332579.558058681257535, 5536254.654414630495012 ], [ 332562.488662001211196, 5536264.296513429842889 ], [ 332560.065897452295758, 5536265.756988911889493 ], [ 332557.729608907306101, 5536267.352148002944887 ], [ 332555.487275084364228, 5536269.076884422451258 ], [ 332553.346073942258954, 5536270.925677098333836 ], [ 332551.312859702855349, 5536272.892607841640711 ], [ 332545.322397074720357, 5536279.025210180319846 ], [ 332542.330134285439271, 5536282.305490283295512 ], [ 332539.568791648838669, 5536285.78239422198385 ], [ 332537.051253605517559, 5536289.439698742702603 ], [ 332534.789267002313863, 5536293.260338841937482 ], [ 332532.793386281642597, 5536297.226487390697002 ], [ 332531.072924234438688, 5536301.319638316519558 ], [ 332529.635908546333667, 5536305.520692953839898 ], [ 332528.489044340909459, 5536309.810049159452319 ], [ 332527.637682892964222, 5536314.167692770250142 ], [ 332527.085796659928747, 5536318.573290998116136 ], [ 332526.835960746160708, 5536323.006287295371294 ], [ 332526.889340887428261, 5536327.445997277274728 ], [ 332527.245688011753373, 5536331.87170523032546 ], [ 332527.903339401294943, 5536336.262760776095092 ], [ 332528.859226450964343, 5536340.598675224930048 ], [ 332530.108888986345846, 5536344.859217174351215 ], [ 332531.646496074914467, 5536349.024506912566721 ], [ 332533.464873233111575, 5536353.075109172612429 ], [ 332535.555535902793054, 5536356.992123821750283 ], [ 332537.908729039947502, 5536360.75727404654026 ], [ 332543.884602094010916, 5536369.543668575584888 ], [ 332545.386503885383718, 5536371.607153291814029 ], [ 332547.016941673122346, 5536373.570658012293279 ], [ 332548.769277865474578, 5536375.426189213059843 ], [ 332550.636378616152797, 5536377.166192935779691 ], [ 332552.61064286675537, 5536378.783585540018976 ], [ 332554.684033291181549, 5536380.271782541647553 ], [ 332556.848109015612863, 5536381.624725418165326 ], [ 332559.094059982046019, 5536382.836906272917986 ], [ 332561.412742814456578, 5536383.903390257619321 ], [ 332563.794718041608576, 5536384.819835665635765 ], [ 332568.420597186777741, 5536386.432152989320457 ], [ 332571.848910159547813, 5536387.74305607099086 ], [ 332575.192916122206952, 5536389.256139297969639 ], [ 332578.440704236214515, 5536390.966013298369944 ], [ 332581.58070637617493, 5536392.86658776178956 ], [ 332585.045872689748649, 5536395.280614154413342 ], [ 332588.337198290217202, 5536397.926757914014161 ], [ 332591.439163191767875, 5536400.792541358619928 ], [ 332594.337140324118081, 5536403.864451114088297 ], [ 332597.017464505217504, 5536407.12800183147192 ], [ 332599.46749687823467, 5536410.567804496735334 ], [ 332601.675684509216808, 5536414.167638991959393 ], [ 332603.631614863988943, 5536417.910530582070351 ], [ 332605.326064907538239, 5536421.778829956427217 ], [ 332606.751044594682753, 5536425.754296457394958 ], [ 332607.899834546376951, 5536429.818184085190296 ], [ 332608.767017734353431, 5536433.951329899020493 ], [ 332609.34850502491463, 5536438.134244377724826 ], [ 332609.641554460627958, 5536442.347203318029642 ], [ 332609.778349037282169, 5536446.24222008138895 ], [ 332610.222321961540729, 5536453.167263135313988 ], [ 332611.065840777417179, 5536460.055064618587494 ], [ 332612.306084773503244, 5536466.8825918501243 ], [ 332622.125415688904468, 5536513.267696663737297 ], [ 332631.546217106282711, 5536557.77020553778857 ], [ 332632.093818517460022, 5536560.030529947951436 ], [ 332632.771860334440134, 5536562.255208135582507 ], [ 332633.578050380281638, 5536564.436719389632344 ], [ 332634.509663262055255, 5536566.567688929848373 ], [ 332635.563549584592693, 5536568.640912834554911 ], [ 332672.328314631304238, 5536636.039801037870347 ], [ 332672.883942720014602, 5536637.058404459618032 ], [ 332673.17113302834332, 5536637.545250262133777 ], [ 332673.490360317809973, 5536638.011716813780367 ], [ 332673.840184123953804, 5536638.455699258483946 ], [ 332674.219025920261629, 5536638.875194192864001 ], [ 332674.625176240864675, 5536639.268308710306883 ], [ 332675.056802394567057, 5536639.633268941193819 ], [ 332675.511956734175328, 5536639.968428057618439 ], [ 332675.988585445273202, 5536640.272273706272244 ], [ 332676.484537813579664, 5536640.543434830382466 ], [ 332676.997575929679442, 5536640.780687855556607 ], [ 332677.525384787411895, 5536640.982962214387953 ], [ 332683.888678852876183, 5536643.643738698214293 ], [ 332686.008867745345924, 5536644.614480684511364 ], [ 332688.059711886337027, 5536645.724246089346707 ], [ 332690.032107970560901, 5536646.96810887567699 ], [ 332691.917300908709876, 5536648.340547773987055 ], [ 332693.706922689510975, 5536649.835470790043473 ], [ 332695.393029523838777, 5536651.446242247708142 ], [ 332696.968137105577625, 5536653.165712238289416 ], [ 332698.425253833062015, 5536654.986248364672065 ], [ 332699.757911843655165, 5536656.899769613519311 ], [ 332700.960195722989738, 5536658.897782230749726 ], [ 332702.026768762676511, 5536660.971417418681085 ], [ 332702.952896648726892, 5536663.111470708623528 ], [ 332703.734468476439361, 5536665.308442811481655 ], [ 332704.368014997860882, 5536667.55258178897202 ], [ 332704.85072402091464, 5536669.833926335908473 ], [ 332705.180452892556787, 5536672.142350000329316 ], [ 332705.355738009267952, 5536674.467606130987406 ], [ 332705.375801313959528, 5536676.799373359419405 ], [ 332705.240553749434184, 5536679.127301416359842 ], [ 332704.950595653790515, 5536681.441057074815035 ], [ 332704.327920516137965, 5536686.413708788342774 ], [ 332704.038721612712834, 5536691.416843143291771 ], [ 332704.084290183673147, 5536696.428121712058783 ], [ 332704.479650940804277, 5536705.72313890978694 ], [ 332704.537570812331978, 5536710.124809106811881 ], [ 332704.337150489445776, 5536714.522295539267361 ], [ 332703.879080417682417, 5536718.900448922067881 ], [ 332703.345137997181155, 5536724.125210555270314 ], [ 332703.143896853900515, 5536729.373327421955764 ], [ 332703.276168538082857, 5536734.623635302297771 ], [ 332703.741419634316117, 5536739.854961143806577 ], [ 332704.537773912306875, 5536745.046208442188799 ], [ 332705.662019893468823, 5536750.176442317664623 ], [ 332707.10962380154524, 5536755.224973942153156 ], [ 332708.874747846450191, 5536760.171443970873952 ], [ 332710.950273766415194, 5536764.995904645882547 ], [ 332713.327831533795688, 5536769.678900236263871 ], [ 332715.997833109286148, 5536774.201545505784452 ], [ 332718.54344726545969, 5536777.982043932192028 ], [ 332721.293454779835884, 5536781.616569823585451 ], [ 332724.239503999706358, 5536785.094085283577442 ], [ 332727.372647902520839, 5536788.404029250144958 ], [ 332745.67065966129303, 5536806.697489179670811 ], [ 332746.80836925067706, 5536807.758844949305058 ], [ 332748.016709175833967, 5536808.739035647362471 ], [ 332749.289901222859044, 5536809.633374056778848 ], [ 332750.621857058606111, 5536810.437583501450717 ], [ 332752.006207344820723, 5536811.147818297147751 ], [ 332753.436332195880823, 5536811.760682139545679 ], [ 332754.90539283468388, 5536812.27324434928596 ], [ 332756.406364295457024, 5536812.683053882792592 ], [ 332757.932069016678724, 5536812.988151052035391 ], [ 332759.475211163749918, 5536813.187076901085675 ], [ 332761.02841151721077, 5536813.27888017706573 ], [ 332762.584242759854533, 5536813.263121882453561 ], [ 332764.135264993703458, 5536813.139877371490002 ], [ 332765.443260932981502, 5536813.024986314587295 ], [ 332766.755484973429702, 5536812.978927655145526 ], [ 332768.068317364144605, 5536813.001828446052969 ], [ 332769.378136676270515, 5536813.093625515699387 ], [ 332775.652033164689783, 5536813.69925220310688 ], [ 332780.964207359415013, 5536814.355960883200169 ], [ 332786.233633261930663, 5536815.295967064797878 ], [ 332791.445213724276982, 5536816.516577588394284 ], [ 332796.584017328103073, 5536818.014295347034931 ], [ 332804.972646161390003, 5536820.704762626439333 ], [ 332807.006695255462546, 5536821.433748754672706 ], [ 332808.98691212630365, 5536822.298339776694775 ], [ 332810.904268268088344, 5536823.294593718834221 ], [ 332812.750021779327653, 5536824.4179683085531 ], [ 332814.515757219865918, 5536825.663341684266925 ], [ 332816.193423980264924, 5536827.025035751983523 ], [ 332817.775372987147421, 5536828.496842067688704 ], [ 332819.254391578084324, 5536830.072050148621202 ], [ 332820.623736386594828, 5536831.743478067219257 ], [ 332821.877164087723941, 5536833.503505194559693 ], [ 332823.008959863276687, 5536835.344106948003173 ], [ 332824.013963457837235, 5536837.256891376338899 ], [ 332824.887592706247233, 5536839.233137420378625 ], [ 332825.62586442520842, 5536841.263834680430591 ], [ 332826.225412574072834, 5536843.339724491350353 ], [ 332826.683503601758275, 5536845.451342142187059 ], [ 332826.998048909939826, 5536847.58906002342701 ], [ 332827.167614375939593, 5536849.743131527677178 ], [ 332827.191426890960429, 5536851.90373548399657 ], [ 332827.069377885491122, 5536854.061020937748253 ], [ 332826.802023823838681, 5536856.205152067355812 ], [ 332826.390583667322062, 5536858.326353021897376 ], [ 332825.836933316488285, 5536860.41495249979198 ], [ 332825.587296045094263, 5536861.351146868430078 ], [ 332825.398620297200978, 5536862.301504762843251 ], [ 332825.271693294285797, 5536863.262060957029462 ], [ 332825.207044620125089, 5536864.228807673789561 ], [ 332825.204944011638872, 5536865.19771130848676 ], [ 332825.265400233329274, 5536866.164729256182909 ], [ 332825.388161040609702, 5536867.12582677975297 ], [ 332825.572714232490398, 5536868.076993844471872 ], [ 332825.818289788614493, 5536869.014261848293245 ], [ 332826.416335744142998, 5536871.311969178728759 ], [ 332826.857227983768098, 5536873.644935524091125 ], [ 332827.138937640935183, 5536876.002425206825137 ], [ 332827.260168364038691, 5536878.37358969822526 ], [ 332827.220362282299902, 5536880.747517542913556 ], [ 332827.019702572375536, 5536883.113284567371011 ], [ 332826.659112615918275, 5536885.460004154592752 ], [ 332826.140251750126481, 5536887.776877335272729 ], [ 332825.465507632121444, 5536890.053242488764226 ], [ 332824.637985251378268, 5536892.278624398633838 ], [ 332823.661492641549557, 5536894.442782460711896 ], [ 332822.540523356990889, 5536896.535757806152105 ], [ 332821.280235794489272, 5536898.547919130884111 ], [ 332819.886429455713369, 5536900.470007012598217 ], [ 332818.365518259583041, 5536902.293176524341106 ], [ 332817.493780698627234, 5536903.338387689553201 ], [ 332816.69514844979858, 5536904.440467218868434 ], [ 332815.97331996448338, 5536905.594311400316656 ], [ 332815.331638017203659, 5536906.794576802290976 ], [ 332814.773074225580785, 5536908.035705017857254 ], [ 332814.300215288298205, 5536909.31194840464741 ], [ 332813.915251006663311, 5536910.617396702989936 ], [ 332813.619964143144898, 5536911.946004404686391 ], [ 332813.415722165955231, 5536913.291618752293289 ], [ 332813.303470915940125, 5536914.648008229210973 ], [ 332813.283730226627085, 5536916.008891421370208 ], [ 332813.731679536402225, 5536938.945440175943077 ], [ 332813.79474456817843, 5536940.126768868416548 ], [ 332813.937478422885761, 5536941.301137519069016 ], [ 332814.159228829143103, 5536942.463179444894195 ], [ 332814.458982422307599, 5536943.607584295794368 ], [ 332814.835369375068694, 5536944.729122321121395 ], [ 332815.286669658031315, 5536945.822668267413974 ], [ 332815.810820899205282, 5536946.883224798366427 ], [ 332816.405427809397224, 5536947.905945338308811 ], [ 332817.067773127753753, 5536948.886156213469803 ], [ 332817.794830039725639, 5536949.819378012791276 ], [ 332818.583276008663233, 5536950.701346059329808 ], [ 332819.429507959575858, 5536951.52802989538759 ], [ 332820.329658744682092, 5536952.29565170686692 ], [ 332821.27961481543025, 5536953.000703579746187 ], [ 332822.275035020837095, 5536953.639963538385928 ], [ 332823.31137044611387, 5536954.210510265082121 ], [ 332824.383885200077202, 5536954.709736448712647 ], [ 332825.487678057863377, 5536955.135360704734921 ], [ 332831.731137509515975, 5536957.303423441946507 ] ] ] ] } }
]
}
